<?xml version="1.0" encoding="utf-8"?>
<gpx version="1.1" creator="Trailguide" xmlns="http://www.topografix.com/GPX/1/1" xmlns:xsi="http://www.w3.org/2001/XMLSchema-instance" xmlns:gpxtpx="http://www.garmin.com/xmlschemas/TrackPointExtension/v1" xsi:schemaLocation="http://www.topografix.com/GPX/1/1 http://www.topografix.com/GPX/1/1/gpx.xsd http://www.cluetrust.com/XML/GPXDATA/1/0 http://www.cluetrust.com/Schemas/gpxdata10.xsd http://www.garmin.com/xmlschemas/TrackPointExtension/v1 http://www.garmin.com/xmlschemas/TrackPointExtensionv1.xsd" xmlns:gpxdata="http://www.cluetrust.com/XML/GPXDATA/1/0">
<metadata>
<name>Hauknestinden</name>
<author><name>Thomas Fordal</name></author>
<copyright author="Trailguide"><year>2022</year></copyright>
<keywords>trail,blue</keywords>
</metadata>
<trk>
<name>Hauknestinden</name>
<trkseg><trkpt lat="66.264589" lon="14.069428"><ele>798</ele></trkpt>
<trkpt lat="66.264737" lon="14.069533"><ele>796</ele></trkpt>
<trkpt lat="66.264981" lon="14.0696"><ele>793</ele></trkpt>
<trkpt lat="66.265165" lon="14.069625"><ele>790</ele></trkpt>
<trkpt lat="66.265222" lon="14.06966"><ele>790</ele></trkpt>
<trkpt lat="66.265335" lon="14.069808"><ele>789</ele></trkpt>
<trkpt lat="66.265546" lon="14.07017"><ele>789</ele></trkpt>
<trkpt lat="66.265655" lon="14.070501"><ele>788</ele></trkpt>
<trkpt lat="66.265707" lon="14.07061"><ele>787</ele></trkpt>
<trkpt lat="66.26587" lon="14.070667"><ele>787</ele></trkpt>
<trkpt lat="66.265995" lon="14.070733"><ele>786</ele></trkpt>
<trkpt lat="66.266134" lon="14.070762"><ele>786</ele></trkpt>
<trkpt lat="66.266213" lon="14.070821"><ele>785</ele></trkpt>
<trkpt lat="66.266361" lon="14.070994"><ele>782</ele></trkpt>
<trkpt lat="66.266535" lon="14.071126"><ele>780</ele></trkpt>
<trkpt lat="66.266635" lon="14.07118"><ele>779</ele></trkpt>
<trkpt lat="66.266754" lon="14.071215"><ele>777</ele></trkpt>
<trkpt lat="66.266867" lon="14.071342"><ele>775</ele></trkpt>
<trkpt lat="66.266987" lon="14.071579"><ele>771</ele></trkpt>
<trkpt lat="66.26705" lon="14.071647"><ele>769</ele></trkpt>
<trkpt lat="66.267113" lon="14.071752"><ele>767</ele></trkpt>
<trkpt lat="66.267214" lon="14.071848"><ele>764</ele></trkpt>
<trkpt lat="66.267371" lon="14.071956"><ele>760</ele></trkpt>
<trkpt lat="66.267575" lon="14.072311"><ele>753</ele></trkpt>
<trkpt lat="66.267667" lon="14.07243"><ele>750</ele></trkpt>
<trkpt lat="66.267792" lon="14.072537"><ele>744</ele></trkpt>
<trkpt lat="66.267861" lon="14.072707"><ele>742</ele></trkpt>
<trkpt lat="66.267903" lon="14.073448"><ele>742</ele></trkpt>
<trkpt lat="66.268055" lon="14.074117"><ele>737</ele></trkpt>
<trkpt lat="66.268078" lon="14.07452"><ele>735</ele></trkpt>
<trkpt lat="66.268144" lon="14.074692"><ele>732</ele></trkpt>
<trkpt lat="66.26819" lon="14.074942"><ele>729</ele></trkpt>
<trkpt lat="66.268194" lon="14.075165"><ele>728</ele></trkpt>
<trkpt lat="66.268166" lon="14.07549"><ele>729</ele></trkpt>
<trkpt lat="66.268178" lon="14.076013"><ele>726</ele></trkpt>
<trkpt lat="66.268274" lon="14.076299"><ele>720</ele></trkpt>
<trkpt lat="66.26844" lon="14.077144"><ele>710</ele></trkpt>
<trkpt lat="66.26847" lon="14.077838"><ele>705</ele></trkpt>
<trkpt lat="66.268407" lon="14.078506"><ele>703</ele></trkpt>
<trkpt lat="66.268402" lon="14.078729"><ele>701</ele></trkpt>
<trkpt lat="66.268476" lon="14.079345"><ele>698</ele></trkpt>
<trkpt lat="66.268556" lon="14.07961"><ele>695</ele></trkpt>
<trkpt lat="66.26857" lon="14.079704"><ele>695</ele></trkpt>
<trkpt lat="66.268606" lon="14.080561"><ele>691</ele></trkpt>
<trkpt lat="66.268619" lon="14.080612"><ele>691</ele></trkpt>
<trkpt lat="66.268665" lon="14.080633"><ele>690</ele></trkpt>
<trkpt lat="66.268698" lon="14.080688"><ele>689</ele></trkpt>
<trkpt lat="66.268825" lon="14.081234"><ele>685</ele></trkpt>
<trkpt lat="66.26886" lon="14.081513"><ele>683</ele></trkpt>
<trkpt lat="66.268876" lon="14.082093"><ele>681</ele></trkpt>
<trkpt lat="66.268844" lon="14.082662"><ele>678</ele></trkpt>
<trkpt lat="66.268803" lon="14.082992"><ele>678</ele></trkpt>
<trkpt lat="66.268754" lon="14.083669"><ele>675</ele></trkpt>
<trkpt lat="66.268674" lon="14.084195"><ele>673</ele></trkpt>
<trkpt lat="66.268681" lon="14.084772"><ele>669</ele></trkpt>
<trkpt lat="66.268658" lon="14.08507"><ele>667</ele></trkpt>
<trkpt lat="66.268655" lon="14.085663"><ele>661</ele></trkpt>
<trkpt lat="66.268608" lon="14.086081"><ele>658</ele></trkpt>
<trkpt lat="66.268544" lon="14.086379"><ele>657</ele></trkpt>
<trkpt lat="66.268365" lon="14.087812"><ele>645</ele></trkpt>
<trkpt lat="66.268443" lon="14.088516"><ele>636</ele></trkpt>
<trkpt lat="66.268444" lon="14.089293"><ele>628</ele></trkpt>
<trkpt lat="66.268494" lon="14.089422"><ele>626</ele></trkpt>
<trkpt lat="66.268492" lon="14.089642"><ele>624</ele></trkpt>
<trkpt lat="66.268542" lon="14.090122"><ele>617</ele></trkpt>
<trkpt lat="66.268705" lon="14.090943"><ele>603</ele></trkpt>
<trkpt lat="66.268714" lon="14.091785"><ele>594</ele></trkpt>
<trkpt lat="66.268785" lon="14.092169"><ele>590</ele></trkpt>
<trkpt lat="66.268831" lon="14.092251"><ele>588</ele></trkpt>
<trkpt lat="66.268908" lon="14.092486"><ele>585</ele></trkpt>
<trkpt lat="66.268961" lon="14.09293"><ele>580</ele></trkpt>
<trkpt lat="66.268986" lon="14.093536"><ele>572</ele></trkpt>
<trkpt lat="66.268957" lon="14.094061"><ele>567</ele></trkpt>
<trkpt lat="66.269037" lon="14.095084"><ele>553</ele></trkpt>
<trkpt lat="66.269043" lon="14.095676"><ele>547</ele></trkpt>
<trkpt lat="66.269063" lon="14.096009"><ele>544</ele></trkpt>
<trkpt lat="66.269106" lon="14.09623"><ele>540</ele></trkpt>
<trkpt lat="66.269112" lon="14.096563"><ele>536</ele></trkpt>
<trkpt lat="66.269138" lon="14.096596"><ele>535</ele></trkpt>
<trkpt lat="66.269146" lon="14.096646"><ele>535</ele></trkpt>
<trkpt lat="66.269159" lon="14.096859"><ele>532</ele></trkpt>
<trkpt lat="66.269152" lon="14.0971"><ele>530</ele></trkpt>
<trkpt lat="66.269208" lon="14.097673"><ele>524</ele></trkpt>
<trkpt lat="66.269201" lon="14.097763"><ele>523</ele></trkpt>
<trkpt lat="66.269116" lon="14.098029"><ele>521</ele></trkpt>
<trkpt lat="66.269081" lon="14.098267"><ele>518</ele></trkpt>
<trkpt lat="66.269032" lon="14.098436"><ele>517</ele></trkpt>
<trkpt lat="66.26899" lon="14.099143"><ele>510</ele></trkpt>
<trkpt lat="66.269008" lon="14.099489"><ele>507</ele></trkpt>
<trkpt lat="66.269059" lon="14.099626"><ele>505</ele></trkpt>
<trkpt lat="66.269141" lon="14.100018"><ele>502</ele></trkpt>
<trkpt lat="66.269144" lon="14.100306"><ele>500</ele></trkpt>
<trkpt lat="66.269162" lon="14.100367"><ele>499</ele></trkpt>
<trkpt lat="66.269178" lon="14.10066"><ele>497</ele></trkpt>
<trkpt lat="66.269167" lon="14.101193"><ele>494</ele></trkpt>
<trkpt lat="66.269188" lon="14.10159"><ele>489</ele></trkpt>
<trkpt lat="66.2692" lon="14.101653"><ele>489</ele></trkpt>
<trkpt lat="66.269265" lon="14.101791"><ele>486</ele></trkpt>
<trkpt lat="66.26928" lon="14.101977"><ele>483</ele></trkpt>
<trkpt lat="66.269328" lon="14.102126"><ele>481</ele></trkpt>
<trkpt lat="66.269331" lon="14.102345"><ele>478</ele></trkpt>
<trkpt lat="66.269371" lon="14.102447"><ele>477</ele></trkpt>
<trkpt lat="66.269387" lon="14.102545"><ele>475</ele></trkpt>
<trkpt lat="66.269357" lon="14.102676"><ele>474</ele></trkpt>
<trkpt lat="66.269377" lon="14.10288"><ele>472</ele></trkpt>
<trkpt lat="66.269349" lon="14.103249"><ele>469</ele></trkpt>
<trkpt lat="66.26936" lon="14.103967"><ele>463</ele></trkpt>
<trkpt lat="66.269369" lon="14.104034"><ele>462</ele></trkpt>
<trkpt lat="66.269437" lon="14.104191"><ele>460</ele></trkpt>
<trkpt lat="66.269462" lon="14.104332"><ele>459</ele></trkpt>
<trkpt lat="66.269505" lon="14.105078"><ele>452</ele></trkpt>
<trkpt lat="66.269663" lon="14.105474"><ele>446</ele></trkpt>
<trkpt lat="66.269687" lon="14.105601"><ele>444</ele></trkpt>
<trkpt lat="66.269786" lon="14.105756"><ele>441</ele></trkpt>
<trkpt lat="66.269824" lon="14.105948"><ele>438</ele></trkpt>
<trkpt lat="66.269886" lon="14.107052"><ele>429</ele></trkpt>
<trkpt lat="66.269906" lon="14.107838"><ele>423</ele></trkpt>
<trkpt lat="66.269932" lon="14.107915"><ele>421</ele></trkpt>
<trkpt lat="66.269946" lon="14.108045"><ele>421</ele></trkpt>
<trkpt lat="66.26988" lon="14.108579"><ele>420</ele></trkpt>
<trkpt lat="66.269869" lon="14.108827"><ele>419</ele></trkpt>
<trkpt lat="66.269926" lon="14.109224"><ele>415</ele></trkpt>
<trkpt lat="66.269939" lon="14.109758"><ele>411</ele></trkpt>
<trkpt lat="66.269948" lon="14.10978"><ele>411</ele></trkpt>
<trkpt lat="66.26997" lon="14.109776"><ele>410</ele></trkpt>
<trkpt lat="66.26998" lon="14.109807"><ele>410</ele></trkpt>
<trkpt lat="66.269946" lon="14.110162"><ele>409</ele></trkpt>
<trkpt lat="66.269984" lon="14.11088"><ele>402</ele></trkpt>
<trkpt lat="66.270018" lon="14.111048"><ele>400</ele></trkpt>
<trkpt lat="66.270088" lon="14.111232"><ele>397</ele></trkpt>
<trkpt lat="66.270121" lon="14.111264"><ele>396</ele></trkpt>
<trkpt lat="66.27018" lon="14.11126"><ele>394</ele></trkpt>
<trkpt lat="66.270203" lon="14.111284"><ele>394</ele></trkpt>
<trkpt lat="66.270231" lon="14.11154"><ele>390</ele></trkpt>
<trkpt lat="66.270254" lon="14.111614"><ele>388</ele></trkpt>
<trkpt lat="66.270355" lon="14.111562"><ele>384</ele></trkpt>
<trkpt lat="66.270378" lon="14.111594"><ele>383</ele></trkpt>
<trkpt lat="66.270428" lon="14.112223"><ele>375</ele></trkpt>
<trkpt lat="66.270445" lon="14.112236"><ele>374</ele></trkpt>
<trkpt lat="66.270436" lon="14.112229"><ele>374</ele></trkpt>
<trkpt lat="66.270434" lon="14.112249"><ele>374</ele></trkpt>
<trkpt lat="66.270471" lon="14.112486"><ele>371</ele></trkpt>
<trkpt lat="66.270495" lon="14.112367"><ele>371</ele></trkpt>
<trkpt lat="66.270501" lon="14.112204"><ele>371</ele></trkpt>
<trkpt lat="66.270522" lon="14.112322"><ele>369</ele></trkpt>
<trkpt lat="66.270591" lon="14.112446"><ele>365</ele></trkpt>
<trkpt lat="66.270628" lon="14.112723"><ele>363</ele></trkpt>
<trkpt lat="66.270665" lon="14.112805"><ele>361</ele></trkpt>
<trkpt lat="66.270731" lon="14.113091"><ele>357</ele></trkpt>
<trkpt lat="66.270776" lon="14.113164"><ele>355</ele></trkpt>
<trkpt lat="66.270818" lon="14.113279"><ele>353</ele></trkpt>
<trkpt lat="66.270936" lon="14.113746"><ele>347</ele></trkpt>
<trkpt lat="66.270981" lon="14.114195"><ele>344</ele></trkpt>
<trkpt lat="66.271019" lon="14.11437"><ele>341</ele></trkpt>
<trkpt lat="66.270983" lon="14.114631"><ele>340</ele></trkpt>
<trkpt lat="66.271026" lon="14.11518"><ele>335</ele></trkpt>
<trkpt lat="66.271032" lon="14.116262"><ele>328</ele></trkpt>
<trkpt lat="66.27105" lon="14.116363"><ele>327</ele></trkpt>
<trkpt lat="66.271142" lon="14.116507"><ele>323</ele></trkpt>
<trkpt lat="66.27118" lon="14.116612"><ele>322</ele></trkpt>
<trkpt lat="66.27128" lon="14.117266"><ele>316</ele></trkpt>
<trkpt lat="66.271296" lon="14.117466"><ele>314</ele></trkpt>
<trkpt lat="66.271295" lon="14.117648"><ele>313</ele></trkpt>
<trkpt lat="66.271265" lon="14.117915"><ele>312</ele></trkpt>
<trkpt lat="66.271248" lon="14.118009"><ele>312</ele></trkpt>
<trkpt lat="66.2712" lon="14.118077"><ele>312</ele></trkpt>
<trkpt lat="66.271189" lon="14.118174"><ele>312</ele></trkpt>
<trkpt lat="66.271182" lon="14.118311"><ele>312</ele></trkpt>
<trkpt lat="66.271211" lon="14.118691"><ele>310</ele></trkpt>
<trkpt lat="66.271268" lon="14.118951"><ele>308</ele></trkpt>
<trkpt lat="66.271363" lon="14.119162"><ele>305</ele></trkpt>
<trkpt lat="66.271523" lon="14.119871"><ele>300</ele></trkpt>
<trkpt lat="66.271546" lon="14.120144"><ele>299</ele></trkpt>
<trkpt lat="66.271535" lon="14.120543"><ele>297</ele></trkpt>
<trkpt lat="66.27155" lon="14.121192"><ele>294</ele></trkpt>
<trkpt lat="66.271569" lon="14.121295"><ele>293</ele></trkpt>
<trkpt lat="66.271688" lon="14.121489"><ele>291</ele></trkpt>
<trkpt lat="66.271718" lon="14.12168"><ele>290</ele></trkpt>
<trkpt lat="66.271705" lon="14.12211"><ele>288</ele></trkpt>
<trkpt lat="66.271649" lon="14.122948"><ele>285</ele></trkpt>
<trkpt lat="66.271566" lon="14.123566"><ele>282</ele></trkpt>
<trkpt lat="66.27147" lon="14.124004"><ele>279</ele></trkpt>
<trkpt lat="66.271455" lon="14.124146"><ele>278</ele></trkpt>
<trkpt lat="66.271442" lon="14.124897"><ele>274</ele></trkpt>
<trkpt lat="66.271364" lon="14.125824"><ele>269</ele></trkpt>
<trkpt lat="66.271408" lon="14.127012"><ele>261</ele></trkpt>
<trkpt lat="66.271432" lon="14.127166"><ele>260</ele></trkpt>
<trkpt lat="66.271524" lon="14.127388"><ele>258</ele></trkpt>
<trkpt lat="66.271634" lon="14.127535"><ele>256</ele></trkpt>
<trkpt lat="66.271693" lon="14.127584"><ele>256</ele></trkpt>
<trkpt lat="66.27176" lon="14.127592"><ele>256</ele></trkpt>
<trkpt lat="66.271825" lon="14.127562"><ele>255</ele></trkpt>
<trkpt lat="66.27199" lon="14.127443"><ele>253</ele></trkpt>
<trkpt lat="66.272133" lon="14.127301"><ele>251</ele></trkpt>
<trkpt lat="66.272256" lon="14.127134"><ele>248</ele></trkpt>
<trkpt lat="66.272446" lon="14.126789"><ele>245</ele></trkpt>
<trkpt lat="66.27258" lon="14.126625"><ele>242</ele></trkpt>
<trkpt lat="66.272641" lon="14.126587"><ele>241</ele></trkpt>
<trkpt lat="66.272702" lon="14.126577"><ele>239</ele></trkpt>
<trkpt lat="66.272815" lon="14.126627"><ele>237</ele></trkpt>
<trkpt lat="66.27287" lon="14.126671"><ele>236</ele></trkpt>
<trkpt lat="66.273033" lon="14.126898"><ele>233</ele></trkpt>
<trkpt lat="66.273338" lon="14.127213"><ele>231</ele></trkpt>
<trkpt lat="66.273603" lon="14.127556"><ele>234</ele></trkpt>
<trkpt lat="66.273647" lon="14.12759"><ele>235</ele></trkpt>
<trkpt lat="66.273748" lon="14.127628"><ele>238</ele></trkpt>
<trkpt lat="66.273751" lon="14.127663"><ele>239</ele></trkpt>
<trkpt lat="66.273462" lon="14.128694"><ele>237</ele></trkpt>
<trkpt lat="66.273372" lon="14.128906"><ele>237</ele></trkpt>
<trkpt lat="66.273348" lon="14.128896"><ele>236</ele></trkpt>
<trkpt lat="66.273353" lon="14.128937"><ele>237</ele></trkpt>
<trkpt lat="66.273371" lon="14.128947"><ele>237</ele></trkpt>
<trkpt lat="66.273374" lon="14.128902"><ele>237</ele></trkpt>
<trkpt lat="66.273361" lon="14.128946"><ele>237</ele></trkpt>
<trkpt lat="66.273344" lon="14.12892"><ele>236</ele></trkpt>
<trkpt lat="66.273347" lon="14.128931"><ele>236</ele></trkpt>
<trkpt lat="66.27338" lon="14.128927"><ele>237</ele></trkpt>
<trkpt lat="66.273352" lon="14.128901"><ele>236</ele></trkpt>
</trkseg>
</trk>
</gpx>
