<?xml version="1.0" encoding="utf-8"?>
<gpx version="1.1" creator="Trailguide" xmlns="http://www.topografix.com/GPX/1/1" xmlns:xsi="http://www.w3.org/2001/XMLSchema-instance" xmlns:gpxtpx="http://www.garmin.com/xmlschemas/TrackPointExtension/v1" xsi:schemaLocation="http://www.topografix.com/GPX/1/1 http://www.topografix.com/GPX/1/1/gpx.xsd http://www.cluetrust.com/XML/GPXDATA/1/0 http://www.cluetrust.com/Schemas/gpxdata10.xsd http://www.garmin.com/xmlschemas/TrackPointExtension/v1 http://www.garmin.com/xmlschemas/TrackPointExtensionv1.xsd" xmlns:gpxdata="http://www.cluetrust.com/XML/GPXDATA/1/0">
<metadata>
<name>Hellerfjellet</name>
<author><name>Andreas Bjørnådal</name></author>
<copyright author="Trailguide"><year>2020</year></copyright>
<keywords>trail,red</keywords>
</metadata>
<trk>
<name>Hellerfjellet</name>
<trkseg><trkpt lat="66.20044" lon="14.487025"><ele>1076</ele></trkpt>
<trkpt lat="66.20043" lon="14.487088"><ele>1076</ele></trkpt>
<trkpt lat="66.200442" lon="14.487022"><ele>1076</ele></trkpt>
<trkpt lat="66.20033" lon="14.487203"><ele>1076</ele></trkpt>
<trkpt lat="66.200219" lon="14.487452"><ele>1073</ele></trkpt>
<trkpt lat="66.200182" lon="14.487616"><ele>1072</ele></trkpt>
<trkpt lat="66.200152" lon="14.48767"><ele>1071</ele></trkpt>
<trkpt lat="66.20008" lon="14.487682"><ele>1070</ele></trkpt>
<trkpt lat="66.200054" lon="14.487702"><ele>1069</ele></trkpt>
<trkpt lat="66.199981" lon="14.488049"><ele>1066</ele></trkpt>
<trkpt lat="66.199939" lon="14.488173"><ele>1065</ele></trkpt>
<trkpt lat="66.199914" lon="14.488357"><ele>1065</ele></trkpt>
<trkpt lat="66.199801" lon="14.488584"><ele>1063</ele></trkpt>
<trkpt lat="66.199661" lon="14.488718"><ele>1062</ele></trkpt>
<trkpt lat="66.199623" lon="14.48888"><ele>1062</ele></trkpt>
<trkpt lat="66.199548" lon="14.489088"><ele>1061</ele></trkpt>
<trkpt lat="66.199396" lon="14.48945"><ele>1058</ele></trkpt>
<trkpt lat="66.19923" lon="14.490017"><ele>1052</ele></trkpt>
<trkpt lat="66.199155" lon="14.490139"><ele>1050</ele></trkpt>
<trkpt lat="66.19904" lon="14.490554"><ele>1046</ele></trkpt>
<trkpt lat="66.1989" lon="14.490942"><ele>1043</ele></trkpt>
<trkpt lat="66.198843" lon="14.491057"><ele>1043</ele></trkpt>
<trkpt lat="66.198742" lon="14.491414"><ele>1042</ele></trkpt>
<trkpt lat="66.1987" lon="14.491659"><ele>1043</ele></trkpt>
<trkpt lat="66.1986" lon="14.491896"><ele>1042</ele></trkpt>
<trkpt lat="66.198526" lon="14.492281"><ele>1041</ele></trkpt>
<trkpt lat="66.198446" lon="14.492524"><ele>1039</ele></trkpt>
<trkpt lat="66.198368" lon="14.492621"><ele>1037</ele></trkpt>
<trkpt lat="66.198317" lon="14.492832"><ele>1035</ele></trkpt>
<trkpt lat="66.198282" lon="14.492883"><ele>1035</ele></trkpt>
<trkpt lat="66.198081" lon="14.492854"><ele>1029</ele></trkpt>
<trkpt lat="66.198043" lon="14.492893"><ele>1029</ele></trkpt>
<trkpt lat="66.198012" lon="14.492972"><ele>1028</ele></trkpt>
<trkpt lat="66.197872" lon="14.493454"><ele>1027</ele></trkpt>
<trkpt lat="66.197832" lon="14.493794"><ele>1028</ele></trkpt>
<trkpt lat="66.197761" lon="14.494109"><ele>1028</ele></trkpt>
<trkpt lat="66.197647" lon="14.494474"><ele>1028</ele></trkpt>
<trkpt lat="66.197613" lon="14.494552"><ele>1028</ele></trkpt>
<trkpt lat="66.197539" lon="14.494636"><ele>1027</ele></trkpt>
<trkpt lat="66.197511" lon="14.494692"><ele>1027</ele></trkpt>
<trkpt lat="66.197441" lon="14.494896"><ele>1026</ele></trkpt>
<trkpt lat="66.197418" lon="14.495099"><ele>1026</ele></trkpt>
<trkpt lat="66.197382" lon="14.495219"><ele>1026</ele></trkpt>
<trkpt lat="66.197359" lon="14.495477"><ele>1025</ele></trkpt>
<trkpt lat="66.197341" lon="14.495553"><ele>1025</ele></trkpt>
<trkpt lat="66.197282" lon="14.495652"><ele>1025</ele></trkpt>
<trkpt lat="66.197261" lon="14.495721"><ele>1024</ele></trkpt>
<trkpt lat="66.19709" lon="14.496513"><ele>1023</ele></trkpt>
<trkpt lat="66.197072" lon="14.496644"><ele>1023</ele></trkpt>
<trkpt lat="66.197085" lon="14.496725"><ele>1023</ele></trkpt>
<trkpt lat="66.197019" lon="14.49709"><ele>1022</ele></trkpt>
<trkpt lat="66.197021" lon="14.497375"><ele>1022</ele></trkpt>
<trkpt lat="66.196991" lon="14.497444"><ele>1021</ele></trkpt>
<trkpt lat="66.19692" lon="14.497501"><ele>1021</ele></trkpt>
<trkpt lat="66.196881" lon="14.497685"><ele>1021</ele></trkpt>
<trkpt lat="66.196906" lon="14.497725"><ele>1021</ele></trkpt>
<trkpt lat="66.196948" lon="14.497699"><ele>1021</ele></trkpt>
<trkpt lat="66.196976" lon="14.49775"><ele>1021</ele></trkpt>
<trkpt lat="66.196944" lon="14.497951"><ele>1021</ele></trkpt>
<trkpt lat="66.196943" lon="14.49811"><ele>1021</ele></trkpt>
<trkpt lat="66.196877" lon="14.498338"><ele>1021</ele></trkpt>
<trkpt lat="66.196778" lon="14.498574"><ele>1021</ele></trkpt>
<trkpt lat="66.196721" lon="14.498759"><ele>1021</ele></trkpt>
<trkpt lat="66.196608" lon="14.498875"><ele>1021</ele></trkpt>
<trkpt lat="66.196585" lon="14.498925"><ele>1022</ele></trkpt>
<trkpt lat="66.196502" lon="14.499213"><ele>1022</ele></trkpt>
<trkpt lat="66.196429" lon="14.499617"><ele>1022</ele></trkpt>
<trkpt lat="66.19627" lon="14.50011"><ele>1022</ele></trkpt>
<trkpt lat="66.196252" lon="14.500209"><ele>1022</ele></trkpt>
<trkpt lat="66.196178" lon="14.500402"><ele>1022</ele></trkpt>
<trkpt lat="66.196034" lon="14.500732"><ele>1023</ele></trkpt>
<trkpt lat="66.195839" lon="14.501009"><ele>1022</ele></trkpt>
<trkpt lat="66.1957" lon="14.501297"><ele>1022</ele></trkpt>
<trkpt lat="66.195585" lon="14.501456"><ele>1021</ele></trkpt>
<trkpt lat="66.195461" lon="14.501686"><ele>1020</ele></trkpt>
<trkpt lat="66.19524" lon="14.502254"><ele>1017</ele></trkpt>
<trkpt lat="66.195152" lon="14.502378"><ele>1014</ele></trkpt>
<trkpt lat="66.195079" lon="14.502591"><ele>1014</ele></trkpt>
<trkpt lat="66.194993" lon="14.502757"><ele>1014</ele></trkpt>
<trkpt lat="66.194967" lon="14.502915"><ele>1015</ele></trkpt>
<trkpt lat="66.194845" lon="14.503293"><ele>1017</ele></trkpt>
<trkpt lat="66.194827" lon="14.503511"><ele>1017</ele></trkpt>
<trkpt lat="66.194801" lon="14.503601"><ele>1017</ele></trkpt>
<trkpt lat="66.194704" lon="14.503811"><ele>1014</ele></trkpt>
<trkpt lat="66.194626" lon="14.504144"><ele>1013</ele></trkpt>
<trkpt lat="66.194552" lon="14.50422"><ele>1011</ele></trkpt>
<trkpt lat="66.194516" lon="14.504222"><ele>1010</ele></trkpt>
<trkpt lat="66.194391" lon="14.5045"><ele>1008</ele></trkpt>
<trkpt lat="66.194357" lon="14.504678"><ele>1008</ele></trkpt>
<trkpt lat="66.194125" lon="14.505456"><ele>1005</ele></trkpt>
<trkpt lat="66.194038" lon="14.505681"><ele>1004</ele></trkpt>
<trkpt lat="66.193964" lon="14.506077"><ele>1002</ele></trkpt>
<trkpt lat="66.193829" lon="14.506558"><ele>1001</ele></trkpt>
<trkpt lat="66.193728" lon="14.507044"><ele>1000</ele></trkpt>
<trkpt lat="66.193605" lon="14.507306"><ele>1000</ele></trkpt>
<trkpt lat="66.193562" lon="14.507489"><ele>1000</ele></trkpt>
<trkpt lat="66.193496" lon="14.507627"><ele>1000</ele></trkpt>
<trkpt lat="66.193462" lon="14.507788"><ele>1000</ele></trkpt>
<trkpt lat="66.193389" lon="14.507873"><ele>1000</ele></trkpt>
<trkpt lat="66.193322" lon="14.508097"><ele>1000</ele></trkpt>
<trkpt lat="66.193174" lon="14.508204"><ele>999</ele></trkpt>
<trkpt lat="66.193096" lon="14.508363"><ele>999</ele></trkpt>
<trkpt lat="66.193036" lon="14.508696"><ele>999</ele></trkpt>
<trkpt lat="66.192962" lon="14.50895"><ele>999</ele></trkpt>
<trkpt lat="66.192933" lon="14.509227"><ele>999</ele></trkpt>
<trkpt lat="66.192854" lon="14.509448"><ele>999</ele></trkpt>
<trkpt lat="66.192773" lon="14.509845"><ele>998</ele></trkpt>
<trkpt lat="66.192702" lon="14.510105"><ele>997</ele></trkpt>
<trkpt lat="66.192606" lon="14.510373"><ele>995</ele></trkpt>
<trkpt lat="66.192521" lon="14.510429"><ele>993</ele></trkpt>
<trkpt lat="66.19249" lon="14.510505"><ele>992</ele></trkpt>
<trkpt lat="66.192437" lon="14.510754"><ele>991</ele></trkpt>
<trkpt lat="66.192267" lon="14.511126"><ele>989</ele></trkpt>
<trkpt lat="66.192237" lon="14.511275"><ele>989</ele></trkpt>
<trkpt lat="66.192162" lon="14.5114"><ele>988</ele></trkpt>
<trkpt lat="66.192053" lon="14.511508"><ele>987</ele></trkpt>
<trkpt lat="66.191988" lon="14.511616"><ele>987</ele></trkpt>
<trkpt lat="66.191941" lon="14.511803"><ele>986</ele></trkpt>
<trkpt lat="66.191909" lon="14.512131"><ele>986</ele></trkpt>
<trkpt lat="66.191823" lon="14.512646"><ele>985</ele></trkpt>
<trkpt lat="66.191688" lon="14.512937"><ele>984</ele></trkpt>
<trkpt lat="66.191659" lon="14.513092"><ele>984</ele></trkpt>
<trkpt lat="66.191587" lon="14.513107"><ele>983</ele></trkpt>
<trkpt lat="66.191564" lon="14.513174"><ele>983</ele></trkpt>
<trkpt lat="66.191538" lon="14.513402"><ele>983</ele></trkpt>
<trkpt lat="66.191449" lon="14.513517"><ele>982</ele></trkpt>
<trkpt lat="66.191364" lon="14.513543"><ele>980</ele></trkpt>
<trkpt lat="66.191339" lon="14.513569"><ele>980</ele></trkpt>
<trkpt lat="66.191308" lon="14.513767"><ele>979</ele></trkpt>
<trkpt lat="66.191297" lon="14.51397"><ele>979</ele></trkpt>
<trkpt lat="66.191219" lon="14.514193"><ele>977</ele></trkpt>
<trkpt lat="66.19116" lon="14.514482"><ele>976</ele></trkpt>
<trkpt lat="66.191082" lon="14.514668"><ele>973</ele></trkpt>
<trkpt lat="66.191014" lon="14.514981"><ele>971</ele></trkpt>
<trkpt lat="66.190984" lon="14.515019"><ele>970</ele></trkpt>
<trkpt lat="66.190958" lon="14.515001"><ele>969</ele></trkpt>
<trkpt lat="66.190929" lon="14.515022"><ele>968</ele></trkpt>
<trkpt lat="66.190885" lon="14.514987"><ele>967</ele></trkpt>
<trkpt lat="66.190853" lon="14.514983"><ele>965</ele></trkpt>
<trkpt lat="66.190775" lon="14.515404"><ele>963</ele></trkpt>
<trkpt lat="66.190752" lon="14.515445"><ele>962</ele></trkpt>
<trkpt lat="66.190714" lon="14.515628"><ele>962</ele></trkpt>
<trkpt lat="66.190573" lon="14.516082"><ele>960</ele></trkpt>
<trkpt lat="66.190559" lon="14.51615"><ele>960</ele></trkpt>
<trkpt lat="66.190567" lon="14.516233"><ele>960</ele></trkpt>
<trkpt lat="66.190531" lon="14.516287"><ele>960</ele></trkpt>
<trkpt lat="66.190481" lon="14.516291"><ele>959</ele></trkpt>
<trkpt lat="66.190451" lon="14.51628"><ele>959</ele></trkpt>
<trkpt lat="66.190413" lon="14.516219"><ele>958</ele></trkpt>
<trkpt lat="66.190356" lon="14.516242"><ele>958</ele></trkpt>
<trkpt lat="66.190297" lon="14.516199"><ele>958</ele></trkpt>
<trkpt lat="66.190245" lon="14.516277"><ele>957</ele></trkpt>
<trkpt lat="66.190174" lon="14.516291"><ele>957</ele></trkpt>
<trkpt lat="66.190076" lon="14.516464"><ele>956</ele></trkpt>
<trkpt lat="66.18998" lon="14.516719"><ele>955</ele></trkpt>
<trkpt lat="66.189907" lon="14.516857"><ele>954</ele></trkpt>
<trkpt lat="66.189844" lon="14.517078"><ele>953</ele></trkpt>
<trkpt lat="66.189699" lon="14.517256"><ele>951</ele></trkpt>
<trkpt lat="66.189614" lon="14.517297"><ele>950</ele></trkpt>
<trkpt lat="66.189477" lon="14.517611"><ele>949</ele></trkpt>
<trkpt lat="66.189451" lon="14.517726"><ele>949</ele></trkpt>
<trkpt lat="66.189354" lon="14.517917"><ele>948</ele></trkpt>
<trkpt lat="66.189352" lon="14.518001"><ele>948</ele></trkpt>
<trkpt lat="66.189382" lon="14.517989"><ele>948</ele></trkpt>
<trkpt lat="66.189361" lon="14.517903"><ele>948</ele></trkpt>
<trkpt lat="66.189386" lon="14.517756"><ele>948</ele></trkpt>
<trkpt lat="66.189429" lon="14.517865"><ele>949</ele></trkpt>
<trkpt lat="66.18934" lon="14.518173"><ele>948</ele></trkpt>
<trkpt lat="66.189279" lon="14.518232"><ele>947</ele></trkpt>
<trkpt lat="66.189218" lon="14.518238"><ele>947</ele></trkpt>
<trkpt lat="66.18915" lon="14.518293"><ele>946</ele></trkpt>
<trkpt lat="66.189112" lon="14.518291"><ele>946</ele></trkpt>
<trkpt lat="66.189074" lon="14.518256"><ele>946</ele></trkpt>
<trkpt lat="66.189043" lon="14.51828"><ele>945</ele></trkpt>
<trkpt lat="66.189006" lon="14.518324"><ele>945</ele></trkpt>
<trkpt lat="66.188997" lon="14.518392"><ele>945</ele></trkpt>
<trkpt lat="66.188966" lon="14.518464"><ele>945</ele></trkpt>
<trkpt lat="66.188935" lon="14.518496"><ele>944</ele></trkpt>
<trkpt lat="66.188855" lon="14.518453"><ele>944</ele></trkpt>
<trkpt lat="66.188804" lon="14.518448"><ele>943</ele></trkpt>
<trkpt lat="66.188742" lon="14.518622"><ele>943</ele></trkpt>
<trkpt lat="66.188713" lon="14.518785"><ele>942</ele></trkpt>
<trkpt lat="66.188668" lon="14.518925"><ele>941</ele></trkpt>
<trkpt lat="66.188607" lon="14.51901"><ele>940</ele></trkpt>
<trkpt lat="66.188581" lon="14.519075"><ele>939</ele></trkpt>
<trkpt lat="66.188585" lon="14.519264"><ele>938</ele></trkpt>
<trkpt lat="66.188523" lon="14.519346"><ele>937</ele></trkpt>
<trkpt lat="66.1884" lon="14.519403"><ele>934</ele></trkpt>
<trkpt lat="66.188366" lon="14.519434"><ele>933</ele></trkpt>
<trkpt lat="66.188266" lon="14.519434"><ele>931</ele></trkpt>
<trkpt lat="66.188099" lon="14.519554"><ele>927</ele></trkpt>
<trkpt lat="66.187997" lon="14.519693"><ele>924</ele></trkpt>
<trkpt lat="66.187869" lon="14.519756"><ele>921</ele></trkpt>
<trkpt lat="66.187836" lon="14.519794"><ele>921</ele></trkpt>
<trkpt lat="66.187796" lon="14.519792"><ele>920</ele></trkpt>
<trkpt lat="66.187764" lon="14.519814"><ele>919</ele></trkpt>
<trkpt lat="66.187731" lon="14.51988"><ele>919</ele></trkpt>
<trkpt lat="66.187653" lon="14.51991"><ele>917</ele></trkpt>
<trkpt lat="66.187589" lon="14.519994"><ele>916</ele></trkpt>
<trkpt lat="66.187489" lon="14.520261"><ele>915</ele></trkpt>
<trkpt lat="66.187393" lon="14.520353"><ele>913</ele></trkpt>
<trkpt lat="66.187351" lon="14.520358"><ele>913</ele></trkpt>
<trkpt lat="66.187201" lon="14.520326"><ele>911</ele></trkpt>
<trkpt lat="66.187088" lon="14.520233"><ele>910</ele></trkpt>
<trkpt lat="66.187032" lon="14.520216"><ele>910</ele></trkpt>
<trkpt lat="66.187002" lon="14.520227"><ele>910</ele></trkpt>
<trkpt lat="66.186977" lon="14.520285"><ele>910</ele></trkpt>
<trkpt lat="66.18701" lon="14.520874"><ele>909</ele></trkpt>
<trkpt lat="66.18697" lon="14.521128"><ele>909</ele></trkpt>
<trkpt lat="66.186911" lon="14.521273"><ele>908</ele></trkpt>
<trkpt lat="66.186816" lon="14.52144"><ele>907</ele></trkpt>
<trkpt lat="66.186726" lon="14.521712"><ele>906</ele></trkpt>
<trkpt lat="66.186443" lon="14.52233"><ele>904</ele></trkpt>
<trkpt lat="66.186377" lon="14.522565"><ele>903</ele></trkpt>
<trkpt lat="66.186317" lon="14.522649"><ele>903</ele></trkpt>
<trkpt lat="66.186273" lon="14.522783"><ele>902</ele></trkpt>
<trkpt lat="66.186209" lon="14.522889"><ele>902</ele></trkpt>
<trkpt lat="66.186143" lon="14.523499"><ele>900</ele></trkpt>
<trkpt lat="66.186103" lon="14.523638"><ele>899</ele></trkpt>
<trkpt lat="66.185932" lon="14.524057"><ele>897</ele></trkpt>
<trkpt lat="66.185897" lon="14.5243"><ele>895</ele></trkpt>
<trkpt lat="66.185852" lon="14.524283"><ele>897</ele></trkpt>
<trkpt lat="66.185767" lon="14.524286"><ele>899</ele></trkpt>
<trkpt lat="66.185735" lon="14.524441"><ele>898</ele></trkpt>
<trkpt lat="66.185745" lon="14.524632"><ele>895</ele></trkpt>
<trkpt lat="66.185669" lon="14.524753"><ele>895</ele></trkpt>
<trkpt lat="66.185607" lon="14.524912"><ele>895</ele></trkpt>
<trkpt lat="66.185575" lon="14.524933"><ele>894</ele></trkpt>
<trkpt lat="66.185541" lon="14.524863"><ele>896</ele></trkpt>
<trkpt lat="66.185614" lon="14.524831"><ele>895</ele></trkpt>
<trkpt lat="66.185647" lon="14.524833"><ele>895</ele></trkpt>
<trkpt lat="66.185664" lon="14.524922"><ele>893</ele></trkpt>
<trkpt lat="66.185618" lon="14.525014"><ele>893</ele></trkpt>
<trkpt lat="66.185611" lon="14.525087"><ele>892</ele></trkpt>
<trkpt lat="66.185625" lon="14.525149"><ele>891</ele></trkpt>
<trkpt lat="66.185603" lon="14.525257"><ele>891</ele></trkpt>
<trkpt lat="66.185589" lon="14.525476"><ele>890</ele></trkpt>
<trkpt lat="66.18564" lon="14.525594"><ele>890</ele></trkpt>
<trkpt lat="66.185702" lon="14.525653"><ele>889</ele></trkpt>
<trkpt lat="66.185731" lon="14.525642"><ele>889</ele></trkpt>
<trkpt lat="66.185766" lon="14.525489"><ele>890</ele></trkpt>
<trkpt lat="66.185785" lon="14.52556"><ele>889</ele></trkpt>
<trkpt lat="66.185764" lon="14.525639"><ele>889</ele></trkpt>
<trkpt lat="66.185687" lon="14.525675"><ele>889</ele></trkpt>
<trkpt lat="66.18566" lon="14.525773"><ele>889</ele></trkpt>
<trkpt lat="66.185662" lon="14.525868"><ele>888</ele></trkpt>
<trkpt lat="66.185691" lon="14.525949"><ele>888</ele></trkpt>
<trkpt lat="66.185695" lon="14.526022"><ele>887</ele></trkpt>
<trkpt lat="66.185682" lon="14.526106"><ele>887</ele></trkpt>
<trkpt lat="66.1856" lon="14.526289"><ele>885</ele></trkpt>
<trkpt lat="66.185541" lon="14.526555"><ele>883</ele></trkpt>
<trkpt lat="66.185451" lon="14.526626"><ele>882</ele></trkpt>
<trkpt lat="66.185349" lon="14.526861"><ele>880</ele></trkpt>
<trkpt lat="66.185275" lon="14.526905"><ele>880</ele></trkpt>
<trkpt lat="66.185236" lon="14.526907"><ele>880</ele></trkpt>
<trkpt lat="66.185191" lon="14.526948"><ele>879</ele></trkpt>
<trkpt lat="66.185153" lon="14.527084"><ele>879</ele></trkpt>
<trkpt lat="66.185069" lon="14.527021"><ele>880</ele></trkpt>
<trkpt lat="66.185056" lon="14.527116"><ele>880</ele></trkpt>
<trkpt lat="66.185076" lon="14.527253"><ele>880</ele></trkpt>
<trkpt lat="66.185104" lon="14.527261"><ele>880</ele></trkpt>
<trkpt lat="66.185108" lon="14.527571"><ele>880</ele></trkpt>
<trkpt lat="66.185222" lon="14.528157"><ele>879</ele></trkpt>
<trkpt lat="66.185219" lon="14.528229"><ele>879</ele></trkpt>
<trkpt lat="66.185188" lon="14.528203"><ele>880</ele></trkpt>
<trkpt lat="66.185075" lon="14.528011"><ele>881</ele></trkpt>
<trkpt lat="66.18503" lon="14.52782"><ele>881</ele></trkpt>
<trkpt lat="66.18502" lon="14.527661"><ele>881</ele></trkpt>
<trkpt lat="66.184991" lon="14.527519"><ele>880</ele></trkpt>
<trkpt lat="66.185001" lon="14.527437"><ele>880</ele></trkpt>
<trkpt lat="66.185023" lon="14.52739"><ele>880</ele></trkpt>
<trkpt lat="66.185044" lon="14.527483"><ele>880</ele></trkpt>
<trkpt lat="66.185066" lon="14.527761"><ele>881</ele></trkpt>
<trkpt lat="66.185044" lon="14.527967"><ele>881</ele></trkpt>
<trkpt lat="66.185078" lon="14.528142"><ele>881</ele></trkpt>
<trkpt lat="66.185104" lon="14.528172"><ele>881</ele></trkpt>
<trkpt lat="66.185103" lon="14.528239"><ele>881</ele></trkpt>
<trkpt lat="66.185084" lon="14.528289"><ele>881</ele></trkpt>
<trkpt lat="66.185084" lon="14.528361"><ele>881</ele></trkpt>
<trkpt lat="66.185045" lon="14.528567"><ele>882</ele></trkpt>
<trkpt lat="66.185004" lon="14.528617"><ele>883</ele></trkpt>
<trkpt lat="66.184957" lon="14.528645"><ele>884</ele></trkpt>
<trkpt lat="66.184896" lon="14.528806"><ele>886</ele></trkpt>
<trkpt lat="66.184986" lon="14.528979"><ele>886</ele></trkpt>
<trkpt lat="66.184964" lon="14.529038"><ele>886</ele></trkpt>
<trkpt lat="66.185009" lon="14.529588"><ele>887</ele></trkpt>
<trkpt lat="66.185027" lon="14.529682"><ele>886</ele></trkpt>
<trkpt lat="66.185074" lon="14.529694"><ele>885</ele></trkpt>
<trkpt lat="66.18512" lon="14.529538"><ele>884</ele></trkpt>
<trkpt lat="66.185144" lon="14.529673"><ele>883</ele></trkpt>
<trkpt lat="66.185216" lon="14.529679"><ele>880</ele></trkpt>
<trkpt lat="66.185255" lon="14.529743"><ele>879</ele></trkpt>
<trkpt lat="66.185251" lon="14.530098"><ele>877</ele></trkpt>
<trkpt lat="66.185219" lon="14.530304"><ele>877</ele></trkpt>
<trkpt lat="66.185253" lon="14.530336"><ele>876</ele></trkpt>
<trkpt lat="66.185297" lon="14.530338"><ele>874</ele></trkpt>
<trkpt lat="66.18532" lon="14.530376"><ele>873</ele></trkpt>
<trkpt lat="66.185381" lon="14.530687"><ele>871</ele></trkpt>
<trkpt lat="66.18542" lon="14.53076"><ele>870</ele></trkpt>
<trkpt lat="66.18543" lon="14.530831"><ele>870</ele></trkpt>
<trkpt lat="66.185383" lon="14.531026"><ele>870</ele></trkpt>
<trkpt lat="66.185374" lon="14.531216"><ele>869</ele></trkpt>
<trkpt lat="66.185425" lon="14.531651"><ele>868</ele></trkpt>
<trkpt lat="66.185493" lon="14.532021"><ele>866</ele></trkpt>
<trkpt lat="66.185524" lon="14.532087"><ele>866</ele></trkpt>
<trkpt lat="66.18557" lon="14.532121"><ele>866</ele></trkpt>
<trkpt lat="66.185677" lon="14.532119"><ele>866</ele></trkpt>
<trkpt lat="66.185755" lon="14.532044"><ele>865</ele></trkpt>
<trkpt lat="66.185821" lon="14.531951"><ele>865</ele></trkpt>
<trkpt lat="66.18585" lon="14.531933"><ele>865</ele></trkpt>
<trkpt lat="66.185887" lon="14.531938"><ele>865</ele></trkpt>
<trkpt lat="66.18593" lon="14.531889"><ele>865</ele></trkpt>
<trkpt lat="66.185968" lon="14.531887"><ele>865</ele></trkpt>
<trkpt lat="66.186005" lon="14.531915"><ele>865</ele></trkpt>
<trkpt lat="66.186039" lon="14.532054"><ele>864</ele></trkpt>
<trkpt lat="66.186209" lon="14.532252"><ele>862</ele></trkpt>
<trkpt lat="66.186222" lon="14.532396"><ele>862</ele></trkpt>
<trkpt lat="66.186269" lon="14.532506"><ele>861</ele></trkpt>
<trkpt lat="66.186339" lon="14.532607"><ele>860</ele></trkpt>
<trkpt lat="66.186366" lon="14.532624"><ele>860</ele></trkpt>
<trkpt lat="66.18639" lon="14.532706"><ele>859</ele></trkpt>
<trkpt lat="66.186382" lon="14.5328"><ele>859</ele></trkpt>
<trkpt lat="66.186336" lon="14.532967"><ele>858</ele></trkpt>
<trkpt lat="66.186269" lon="14.533037"><ele>858</ele></trkpt>
<trkpt lat="66.186279" lon="14.533111"><ele>857</ele></trkpt>
<trkpt lat="66.186322" lon="14.533257"><ele>855</ele></trkpt>
<trkpt lat="66.186435" lon="14.533474"><ele>852</ele></trkpt>
<trkpt lat="66.186507" lon="14.533673"><ele>849</ele></trkpt>
<trkpt lat="66.186576" lon="14.533647"><ele>848</ele></trkpt>
<trkpt lat="66.186616" lon="14.533651"><ele>847</ele></trkpt>
<trkpt lat="66.186636" lon="14.533752"><ele>846</ele></trkpt>
<trkpt lat="66.186621" lon="14.533945"><ele>845</ele></trkpt>
<trkpt lat="66.18659" lon="14.534058"><ele>845</ele></trkpt>
<trkpt lat="66.186625" lon="14.534211"><ele>844</ele></trkpt>
<trkpt lat="66.186641" lon="14.534467"><ele>843</ele></trkpt>
<trkpt lat="66.186642" lon="14.53485"><ele>841</ele></trkpt>
<trkpt lat="66.186622" lon="14.535176"><ele>839</ele></trkpt>
<trkpt lat="66.186628" lon="14.535579"><ele>837</ele></trkpt>
<trkpt lat="66.186684" lon="14.535743"><ele>835</ele></trkpt>
<trkpt lat="66.186713" lon="14.535782"><ele>834</ele></trkpt>
<trkpt lat="66.186745" lon="14.53575"><ele>834</ele></trkpt>
<trkpt lat="66.186771" lon="14.535797"><ele>833</ele></trkpt>
<trkpt lat="66.186772" lon="14.535895"><ele>833</ele></trkpt>
<trkpt lat="66.186753" lon="14.535982"><ele>832</ele></trkpt>
<trkpt lat="66.186665" lon="14.536232"><ele>832</ele></trkpt>
<trkpt lat="66.186675" lon="14.536559"><ele>830</ele></trkpt>
<trkpt lat="66.186708" lon="14.536625"><ele>829</ele></trkpt>
<trkpt lat="66.18681" lon="14.536631"><ele>827</ele></trkpt>
<trkpt lat="66.186846" lon="14.53667"><ele>826</ele></trkpt>
<trkpt lat="66.186879" lon="14.536677"><ele>825</ele></trkpt>
<trkpt lat="66.186957" lon="14.536847"><ele>823</ele></trkpt>
<trkpt lat="66.187039" lon="14.536839"><ele>822</ele></trkpt>
<trkpt lat="66.187073" lon="14.536889"><ele>821</ele></trkpt>
<trkpt lat="66.187089" lon="14.536989"><ele>820</ele></trkpt>
<trkpt lat="66.187081" lon="14.537297"><ele>817</ele></trkpt>
<trkpt lat="66.187182" lon="14.537548"><ele>813</ele></trkpt>
<trkpt lat="66.187292" lon="14.537675"><ele>811</ele></trkpt>
<trkpt lat="66.18734" lon="14.537848"><ele>809</ele></trkpt>
<trkpt lat="66.187341" lon="14.538059"><ele>808</ele></trkpt>
<trkpt lat="66.187386" lon="14.538446"><ele>806</ele></trkpt>
<trkpt lat="66.187349" lon="14.538602"><ele>806</ele></trkpt>
<trkpt lat="66.187463" lon="14.538802"><ele>805</ele></trkpt>
<trkpt lat="66.187544" lon="14.538814"><ele>805</ele></trkpt>
<trkpt lat="66.187552" lon="14.538743"><ele>805</ele></trkpt>
<trkpt lat="66.187528" lon="14.53884"><ele>805</ele></trkpt>
<trkpt lat="66.187467" lon="14.538904"><ele>804</ele></trkpt>
<trkpt lat="66.18738" lon="14.53907"><ele>804</ele></trkpt>
<trkpt lat="66.187365" lon="14.539163"><ele>804</ele></trkpt>
<trkpt lat="66.187369" lon="14.539378"><ele>803</ele></trkpt>
<trkpt lat="66.187381" lon="14.539449"><ele>802</ele></trkpt>
<trkpt lat="66.187414" lon="14.539495"><ele>802</ele></trkpt>
<trkpt lat="66.187424" lon="14.539582"><ele>802</ele></trkpt>
<trkpt lat="66.187387" lon="14.539631"><ele>802</ele></trkpt>
<trkpt lat="66.187367" lon="14.539718"><ele>801</ele></trkpt>
<trkpt lat="66.187373" lon="14.540145"><ele>799</ele></trkpt>
<trkpt lat="66.187289" lon="14.540591"><ele>795</ele></trkpt>
<trkpt lat="66.187259" lon="14.540898"><ele>793</ele></trkpt>
<trkpt lat="66.187183" lon="14.540973"><ele>793</ele></trkpt>
<trkpt lat="66.187077" lon="14.541216"><ele>791</ele></trkpt>
<trkpt lat="66.187035" lon="14.541259"><ele>791</ele></trkpt>
<trkpt lat="66.18689" lon="14.541517"><ele>789</ele></trkpt>
<trkpt lat="66.186846" lon="14.541633"><ele>789</ele></trkpt>
<trkpt lat="66.186793" lon="14.541853"><ele>788</ele></trkpt>
<trkpt lat="66.186774" lon="14.542017"><ele>787</ele></trkpt>
<trkpt lat="66.186734" lon="14.542177"><ele>786</ele></trkpt>
<trkpt lat="66.186627" lon="14.542478"><ele>785</ele></trkpt>
<trkpt lat="66.186616" lon="14.542578"><ele>785</ele></trkpt>
<trkpt lat="66.186657" lon="14.542746"><ele>784</ele></trkpt>
<trkpt lat="66.186669" lon="14.542849"><ele>783</ele></trkpt>
<trkpt lat="66.18666" lon="14.542929"><ele>783</ele></trkpt>
<trkpt lat="66.186572" lon="14.543192"><ele>782</ele></trkpt>
<trkpt lat="66.186505" lon="14.543263"><ele>781</ele></trkpt>
<trkpt lat="66.186451" lon="14.543406"><ele>781</ele></trkpt>
<trkpt lat="66.186435" lon="14.543855"><ele>779</ele></trkpt>
<trkpt lat="66.186362" lon="14.544017"><ele>778</ele></trkpt>
<trkpt lat="66.186354" lon="14.544123"><ele>778</ele></trkpt>
<trkpt lat="66.186383" lon="14.544149"><ele>777</ele></trkpt>
<trkpt lat="66.186422" lon="14.544151"><ele>777</ele></trkpt>
<trkpt lat="66.186474" lon="14.544061"><ele>778</ele></trkpt>
<trkpt lat="66.186499" lon="14.544132"><ele>777</ele></trkpt>
<trkpt lat="66.18644" lon="14.544233"><ele>776</ele></trkpt>
<trkpt lat="66.186416" lon="14.544308"><ele>776</ele></trkpt>
<trkpt lat="66.186391" lon="14.544469"><ele>775</ele></trkpt>
<trkpt lat="66.186395" lon="14.544645"><ele>773</ele></trkpt>
<trkpt lat="66.186359" lon="14.544775"><ele>773</ele></trkpt>
<trkpt lat="66.186264" lon="14.544912"><ele>772</ele></trkpt>
<trkpt lat="66.186149" lon="14.545313"><ele>769</ele></trkpt>
<trkpt lat="66.186117" lon="14.54536"><ele>768</ele></trkpt>
<trkpt lat="66.186034" lon="14.545577"><ele>766</ele></trkpt>
<trkpt lat="66.18588" lon="14.545818"><ele>762</ele></trkpt>
<trkpt lat="66.185744" lon="14.5461"><ele>759</ele></trkpt>
<trkpt lat="66.185678" lon="14.54645"><ele>756</ele></trkpt>
<trkpt lat="66.185596" lon="14.546554"><ele>753</ele></trkpt>
<trkpt lat="66.185576" lon="14.546779"><ele>751</ele></trkpt>
<trkpt lat="66.185508" lon="14.547062"><ele>750</ele></trkpt>
<trkpt lat="66.18529" lon="14.547562"><ele>747</ele></trkpt>
<trkpt lat="66.185152" lon="14.547957"><ele>743</ele></trkpt>
<trkpt lat="66.185126" lon="14.548109"><ele>742</ele></trkpt>
<trkpt lat="66.18508" lon="14.548221"><ele>740</ele></trkpt>
<trkpt lat="66.184995" lon="14.548395"><ele>738</ele></trkpt>
<trkpt lat="66.18495" lon="14.548441"><ele>737</ele></trkpt>
<trkpt lat="66.184898" lon="14.548448"><ele>736</ele></trkpt>
<trkpt lat="66.184863" lon="14.548497"><ele>735</ele></trkpt>
<trkpt lat="66.184784" lon="14.548791"><ele>732</ele></trkpt>
<trkpt lat="66.184713" lon="14.548971"><ele>729</ele></trkpt>
<trkpt lat="66.184474" lon="14.549196"><ele>723</ele></trkpt>
<trkpt lat="66.184471" lon="14.549305"><ele>722</ele></trkpt>
<trkpt lat="66.184397" lon="14.549493"><ele>719</ele></trkpt>
<trkpt lat="66.18439" lon="14.549572"><ele>718</ele></trkpt>
<trkpt lat="66.184347" lon="14.549696"><ele>715</ele></trkpt>
<trkpt lat="66.18437" lon="14.549736"><ele>715</ele></trkpt>
<trkpt lat="66.184343" lon="14.549777"><ele>714</ele></trkpt>
<trkpt lat="66.184364" lon="14.549845"><ele>714</ele></trkpt>
<trkpt lat="66.184305" lon="14.549891"><ele>712</ele></trkpt>
<trkpt lat="66.184276" lon="14.549983"><ele>710</ele></trkpt>
<trkpt lat="66.184273" lon="14.550077"><ele>709</ele></trkpt>
<trkpt lat="66.184361" lon="14.550327"><ele>705</ele></trkpt>
<trkpt lat="66.184434" lon="14.550344"><ele>706</ele></trkpt>
<trkpt lat="66.184449" lon="14.550453"><ele>704</ele></trkpt>
<trkpt lat="66.184419" lon="14.55072"><ele>699</ele></trkpt>
<trkpt lat="66.184395" lon="14.550771"><ele>698</ele></trkpt>
<trkpt lat="66.184398" lon="14.550841"><ele>697</ele></trkpt>
<trkpt lat="66.18437" lon="14.550826"><ele>697</ele></trkpt>
<trkpt lat="66.184326" lon="14.550833"><ele>697</ele></trkpt>
<trkpt lat="66.184314" lon="14.551088"><ele>693</ele></trkpt>
<trkpt lat="66.184297" lon="14.551167"><ele>692</ele></trkpt>
<trkpt lat="66.184265" lon="14.551216"><ele>691</ele></trkpt>
<trkpt lat="66.184201" lon="14.551501"><ele>687</ele></trkpt>
<trkpt lat="66.184348" lon="14.55188"><ele>686</ele></trkpt>
<trkpt lat="66.184364" lon="14.552075"><ele>685</ele></trkpt>
<trkpt lat="66.184343" lon="14.552168"><ele>684</ele></trkpt>
<trkpt lat="66.184229" lon="14.552545"><ele>679</ele></trkpt>
<trkpt lat="66.184097" lon="14.552784"><ele>675</ele></trkpt>
<trkpt lat="66.18397" lon="14.553124"><ele>671</ele></trkpt>
<trkpt lat="66.183961" lon="14.553211"><ele>670</ele></trkpt>
<trkpt lat="66.18389" lon="14.55332"><ele>669</ele></trkpt>
<trkpt lat="66.183802" lon="14.553602"><ele>666</ele></trkpt>
<trkpt lat="66.183705" lon="14.553696"><ele>665</ele></trkpt>
<trkpt lat="66.18351" lon="14.553983"><ele>662</ele></trkpt>
<trkpt lat="66.183417" lon="14.55407"><ele>661</ele></trkpt>
<trkpt lat="66.18328" lon="14.554149"><ele>660</ele></trkpt>
<trkpt lat="66.183218" lon="14.554297"><ele>659</ele></trkpt>
<trkpt lat="66.183168" lon="14.554283"><ele>659</ele></trkpt>
<trkpt lat="66.183115" lon="14.554298"><ele>659</ele></trkpt>
<trkpt lat="66.183064" lon="14.554503"><ele>658</ele></trkpt>
<trkpt lat="66.183099" lon="14.554745"><ele>657</ele></trkpt>
<trkpt lat="66.183098" lon="14.554867"><ele>656</ele></trkpt>
<trkpt lat="66.183086" lon="14.55499"><ele>656</ele></trkpt>
<trkpt lat="66.183029" lon="14.555119"><ele>655</ele></trkpt>
<trkpt lat="66.183029" lon="14.555187"><ele>655</ele></trkpt>
<trkpt lat="66.183051" lon="14.555143"><ele>655</ele></trkpt>
<trkpt lat="66.18287" lon="14.555429"><ele>653</ele></trkpt>
<trkpt lat="66.182742" lon="14.555538"><ele>653</ele></trkpt>
<trkpt lat="66.182647" lon="14.5557"><ele>651</ele></trkpt>
<trkpt lat="66.182614" lon="14.555807"><ele>651</ele></trkpt>
<trkpt lat="66.182565" lon="14.556175"><ele>649</ele></trkpt>
<trkpt lat="66.182549" lon="14.556514"><ele>647</ele></trkpt>
<trkpt lat="66.182416" lon="14.557136"><ele>645</ele></trkpt>
<trkpt lat="66.182289" lon="14.557419"><ele>645</ele></trkpt>
</trkseg>
</trk>
</gpx>
