<?xml version="1.0" encoding="UTF-8"?>
<gpx version="1.1" creator="Rana Sykkelklubb - https://ranasykkelklubb.no" xmlns="http://www.topografix.com/GPX/1/1" xmlns:xsi="http://www.w3.org/2001/XMLSchema-instance" xsi:schemaLocation="http://www.topografix.com/GPX/1/1 http://www.topografix.com/GPX/1/1/gpx.xsd">
  <metadata>
    <name>Idavollen &amp; Båsmofjellet Rundt</name>
    <desc>Idavollen &amp; Båsmofjellet Rundt</desc>
    <author>
      <name>Rana Sykkelklubb</name>
    </author>
  </metadata>
  <wpt lat="66.327500" lon="14.072000">
    <name>Start: Skillevollen Alpinsenter</name>
    <desc>Startpunkt for sti og lysløype.</desc>
  </wpt>
  <wpt lat="66.331000" lon="14.062000">
    <name>Idavollen Flytsti</name>
    <desc>Trailguide-favoritt med suveren flyt på barnålsbunn.</desc>
  </wpt>
  <wpt lat="66.338000" lon="14.055000">
    <name>Båsmofjellet Fjellrygg</name>
    <desc>Utsikt over Ranfjorden og innløpet til Mo.</desc>
  </wpt>
  <trk>
    <name>Idavollen &amp; Båsmofjellet Rundt</name>
    <trkseg>
      <trkpt lat="66.323797" lon="14.079423"></trkpt>
      <trkpt lat="66.323685" lon="14.079279"></trkpt>
      <trkpt lat="66.323625" lon="14.079270"></trkpt>
      <trkpt lat="66.323549" lon="14.079251"></trkpt>
      <trkpt lat="66.323345" lon="14.079158"></trkpt>
      <trkpt lat="66.323318" lon="14.078746"></trkpt>
      <trkpt lat="66.323275" lon="14.078406"></trkpt>
      <trkpt lat="66.323221" lon="14.078083"></trkpt>
      <trkpt lat="66.323077" lon="14.077316"></trkpt>
      <trkpt lat="66.322967" lon="14.076724"></trkpt>
      <trkpt lat="66.322918" lon="14.076417"></trkpt>
      <trkpt lat="66.322814" lon="14.075743"></trkpt>
      <trkpt lat="66.322756" lon="14.075330"></trkpt>
      <trkpt lat="66.322691" lon="14.074826"></trkpt>
      <trkpt lat="66.322648" lon="14.074257"></trkpt>
      <trkpt lat="66.322604" lon="14.073339"></trkpt>
      <trkpt lat="66.322558" lon="14.072863"></trkpt>
      <trkpt lat="66.322472" lon="14.071414"></trkpt>
      <trkpt lat="66.322427" lon="14.070986"></trkpt>
      <trkpt lat="66.322378" lon="14.070631"></trkpt>
      <trkpt lat="66.322378" lon="14.070631"></trkpt>
      <trkpt lat="66.322243" lon="14.069859"></trkpt>
      <trkpt lat="66.322093" lon="14.069061"></trkpt>
      <trkpt lat="66.321899" lon="14.068209"></trkpt>
      <trkpt lat="66.321867" lon="14.068016"></trkpt>
      <trkpt lat="66.321879" lon="14.067989"></trkpt>
      <trkpt lat="66.321962" lon="14.067538"></trkpt>
      <trkpt lat="66.321879" lon="14.067989"></trkpt>
      <trkpt lat="66.321867" lon="14.068016"></trkpt>
      <trkpt lat="66.321899" lon="14.068209"></trkpt>
      <trkpt lat="66.322093" lon="14.069061"></trkpt>
      <trkpt lat="66.322243" lon="14.069859"></trkpt>
      <trkpt lat="66.322378" lon="14.070631"></trkpt>
      <trkpt lat="66.322427" lon="14.070986"></trkpt>
      <trkpt lat="66.322472" lon="14.071414"></trkpt>
      <trkpt lat="66.322558" lon="14.072863"></trkpt>
      <trkpt lat="66.322604" lon="14.073339"></trkpt>
      <trkpt lat="66.322648" lon="14.074257"></trkpt>
      <trkpt lat="66.322691" lon="14.074826"></trkpt>
      <trkpt lat="66.322756" lon="14.075330"></trkpt>
      <trkpt lat="66.322814" lon="14.075743"></trkpt>
      <trkpt lat="66.322918" lon="14.076417"></trkpt>
      <trkpt lat="66.322967" lon="14.076724"></trkpt>
      <trkpt lat="66.323077" lon="14.077316"></trkpt>
      <trkpt lat="66.323221" lon="14.078083"></trkpt>
      <trkpt lat="66.323275" lon="14.078406"></trkpt>
      <trkpt lat="66.323318" lon="14.078746"></trkpt>
      <trkpt lat="66.323345" lon="14.079158"></trkpt>
      <trkpt lat="66.323364" lon="14.079412"></trkpt>
      <trkpt lat="66.323385" lon="14.079653"></trkpt>
      <trkpt lat="66.323439" lon="14.079916"></trkpt>
      <trkpt lat="66.323492" lon="14.080087"></trkpt>
      <trkpt lat="66.323560" lon="14.080278"></trkpt>
      <trkpt lat="66.323729" lon="14.080508"></trkpt>
      <trkpt lat="66.323919" lon="14.080749"></trkpt>
      <trkpt lat="66.324012" lon="14.080894"></trkpt>
      <trkpt lat="66.324053" lon="14.080960"></trkpt>
      <trkpt lat="66.324121" lon="14.081099"></trkpt>
      <trkpt lat="66.324215" lon="14.081306"></trkpt>
      <trkpt lat="66.324301" lon="14.081535"></trkpt>
      <trkpt lat="66.324358" lon="14.081746"></trkpt>
      <trkpt lat="66.324393" lon="14.081859"></trkpt>
      <trkpt lat="66.324601" lon="14.082773"></trkpt>
      <trkpt lat="66.324738" lon="14.083138"></trkpt>
      <trkpt lat="66.324833" lon="14.083336"></trkpt>
      <trkpt lat="66.325113" lon="14.083777"></trkpt>
      <trkpt lat="66.325213" lon="14.084014"></trkpt>
      <trkpt lat="66.325289" lon="14.084274"></trkpt>
      <trkpt lat="66.325357" lon="14.084467"></trkpt>
      <trkpt lat="66.325502" lon="14.084797"></trkpt>
      <trkpt lat="66.325616" lon="14.085163"></trkpt>
      <trkpt lat="66.325683" lon="14.085480"></trkpt>
      <trkpt lat="66.325728" lon="14.085733"></trkpt>
      <trkpt lat="66.325773" lon="14.086009"></trkpt>
      <trkpt lat="66.325813" lon="14.086378"></trkpt>
      <trkpt lat="66.325862" lon="14.086869"></trkpt>
      <trkpt lat="66.325882" lon="14.087207"></trkpt>
      <trkpt lat="66.325903" lon="14.087598"></trkpt>
      <trkpt lat="66.325920" lon="14.088234"></trkpt>
      <trkpt lat="66.325930" lon="14.088981"></trkpt>
      <trkpt lat="66.325916" lon="14.089770"></trkpt>
      <trkpt lat="66.325928" lon="14.090106"></trkpt>
      <trkpt lat="66.325954" lon="14.090374"></trkpt>
      <trkpt lat="66.325989" lon="14.090634"></trkpt>
      <trkpt lat="66.326045" lon="14.090936"></trkpt>
      <trkpt lat="66.326105" lon="14.091202"></trkpt>
      <trkpt lat="66.326175" lon="14.091447"></trkpt>
      <trkpt lat="66.326259" lon="14.091664"></trkpt>
      <trkpt lat="66.326458" lon="14.092121"></trkpt>
      <trkpt lat="66.326552" lon="14.092352"></trkpt>
      <trkpt lat="66.326637" lon="14.092626"></trkpt>
      <trkpt lat="66.326705" lon="14.093008"></trkpt>
      <trkpt lat="66.326830" lon="14.093693"></trkpt>
      <trkpt lat="66.326876" lon="14.093883"></trkpt>
      <trkpt lat="66.326903" lon="14.093970"></trkpt>
      <trkpt lat="66.327150" lon="14.094548"></trkpt>
      <trkpt lat="66.327211" lon="14.094651"></trkpt>
      <trkpt lat="66.327272" lon="14.094713"></trkpt>
      <trkpt lat="66.327395" lon="14.094773"></trkpt>
      <trkpt lat="66.327765" lon="14.094762"></trkpt>
      <trkpt lat="66.327877" lon="14.094767"></trkpt>
      <trkpt lat="66.327927" lon="14.094792"></trkpt>
      <trkpt lat="66.327994" lon="14.094864"></trkpt>
      <trkpt lat="66.328180" lon="14.095172"></trkpt>
      <trkpt lat="66.328325" lon="14.095376"></trkpt>
      <trkpt lat="66.328782" lon="14.095842"></trkpt>
      <trkpt lat="66.328857" lon="14.095908"></trkpt>
      <trkpt lat="66.329204" lon="14.096021"></trkpt>
      <trkpt lat="66.329387" lon="14.096164"></trkpt>
      <trkpt lat="66.329510" lon="14.096287"></trkpt>
      <trkpt lat="66.329603" lon="14.096413"></trkpt>
      <trkpt lat="66.329650" lon="14.096480"></trkpt>
      <trkpt lat="66.329873" lon="14.096834"></trkpt>
      <trkpt lat="66.330045" lon="14.097145"></trkpt>
      <trkpt lat="66.330143" lon="14.097282"></trkpt>
      <trkpt lat="66.330227" lon="14.097453"></trkpt>
      <trkpt lat="66.330323" lon="14.097686"></trkpt>
      <trkpt lat="66.330379" lon="14.097870"></trkpt>
      <trkpt lat="66.330438" lon="14.098071"></trkpt>
      <trkpt lat="66.330499" lon="14.098430"></trkpt>
      <trkpt lat="66.330534" lon="14.098887"></trkpt>
      <trkpt lat="66.330558" lon="14.099475"></trkpt>
      <trkpt lat="66.330596" lon="14.099928"></trkpt>
      <trkpt lat="66.330642" lon="14.100439"></trkpt>
      <trkpt lat="66.330690" lon="14.100919"></trkpt>
      <trkpt lat="66.330732" lon="14.101221"></trkpt>
      <trkpt lat="66.330758" lon="14.101368"></trkpt>
      <trkpt lat="66.330862" lon="14.101821"></trkpt>
      <trkpt lat="66.330960" lon="14.102150"></trkpt>
      <trkpt lat="66.331026" lon="14.102365"></trkpt>
      <trkpt lat="66.331090" lon="14.102517"></trkpt>
      <trkpt lat="66.331351" lon="14.103277"></trkpt>
      <trkpt lat="66.331474" lon="14.103657"></trkpt>
      <trkpt lat="66.331535" lon="14.103904"></trkpt>
      <trkpt lat="66.331549" lon="14.103966"></trkpt>
      <trkpt lat="66.331657" lon="14.104287"></trkpt>
      <trkpt lat="66.331717" lon="14.104528"></trkpt>
      <trkpt lat="66.331755" lon="14.104692"></trkpt>
      <trkpt lat="66.331906" lon="14.105135"></trkpt>
      <trkpt lat="66.331993" lon="14.105429"></trkpt>
      <trkpt lat="66.332665" lon="14.107514"></trkpt>
      <trkpt lat="66.332821" lon="14.107973"></trkpt>
      <trkpt lat="66.333025" lon="14.108519"></trkpt>
      <trkpt lat="66.333037" lon="14.108595"></trkpt>
      <trkpt lat="66.333035" lon="14.108744"></trkpt>
      <trkpt lat="66.332987" lon="14.109027"></trkpt>
      <trkpt lat="66.333112" lon="14.109202"></trkpt>
      <trkpt lat="66.334313" lon="14.110782"></trkpt>
      <trkpt lat="66.334722" lon="14.111329"></trkpt>
      <trkpt lat="66.334937" lon="14.111605"></trkpt>
      <trkpt lat="66.336402" lon="14.113438"></trkpt>
      <trkpt lat="66.336989" lon="14.114153"></trkpt>
      <trkpt lat="66.337120" lon="14.114329"></trkpt>
      <trkpt lat="66.337240" lon="14.114482"></trkpt>
      <trkpt lat="66.337564" lon="14.114917"></trkpt>
      <trkpt lat="66.337673" lon="14.115077"></trkpt>
      <trkpt lat="66.337768" lon="14.115230"></trkpt>
      <trkpt lat="66.337908" lon="14.115472"></trkpt>
      <trkpt lat="66.337990" lon="14.115630"></trkpt>
      <trkpt lat="66.338119" lon="14.115902"></trkpt>
      <trkpt lat="66.338196" lon="14.116079"></trkpt>
      <trkpt lat="66.338296" lon="14.116327"></trkpt>
      <trkpt lat="66.338376" lon="14.116545"></trkpt>
      <trkpt lat="66.338469" lon="14.116824"></trkpt>
      <trkpt lat="66.338537" lon="14.117046"></trkpt>
      <trkpt lat="66.338632" lon="14.117384"></trkpt>
      <trkpt lat="66.338862" lon="14.118269"></trkpt>
      <trkpt lat="66.338928" lon="14.118547"></trkpt>
      <trkpt lat="66.339007" lon="14.118368"></trkpt>
      <trkpt lat="66.339043" lon="14.118247"></trkpt>
      <trkpt lat="66.339096" lon="14.118041"></trkpt>
      <trkpt lat="66.339124" lon="14.117964"></trkpt>
      <trkpt lat="66.339284" lon="14.117592"></trkpt>
      <trkpt lat="66.339435" lon="14.117270"></trkpt>
      <trkpt lat="66.339532" lon="14.117079"></trkpt>
      <trkpt lat="66.339579" lon="14.116983"></trkpt>
      <trkpt lat="66.339696" lon="14.116726"></trkpt>
      <trkpt lat="66.339784" lon="14.116528"></trkpt>
      <trkpt lat="66.339919" lon="14.116122"></trkpt>
      <trkpt lat="66.339992" lon="14.115723"></trkpt>
      <trkpt lat="66.340006" lon="14.115620"></trkpt>
      <trkpt lat="66.340022" lon="14.115391"></trkpt>
      <trkpt lat="66.340013" lon="14.115031"></trkpt>
      <trkpt lat="66.339993" lon="14.114846"></trkpt>
      <trkpt lat="66.339956" lon="14.114621"></trkpt>
      <trkpt lat="66.339901" lon="14.114411"></trkpt>
      <trkpt lat="66.339791" lon="14.114102"></trkpt>
      <trkpt lat="66.339645" lon="14.113752"></trkpt>
      <trkpt lat="66.339523" lon="14.113377"></trkpt>
      <trkpt lat="66.339428" lon="14.113045"></trkpt>
      <trkpt lat="66.339278" lon="14.112447"></trkpt>
      <trkpt lat="66.339231" lon="14.112204"></trkpt>
      <trkpt lat="66.339182" lon="14.111786"></trkpt>
      <trkpt lat="66.339167" lon="14.111449"></trkpt>
      <trkpt lat="66.339163" lon="14.110842"></trkpt>
      <trkpt lat="66.339170" lon="14.110466"></trkpt>
      <trkpt lat="66.339176" lon="14.110004"></trkpt>
      <trkpt lat="66.339182" lon="14.109749"></trkpt>
      <trkpt lat="66.339188" lon="14.109482"></trkpt>
      <trkpt lat="66.339176" lon="14.108382"></trkpt>
      <trkpt lat="66.339113" lon="14.107418"></trkpt>
      <trkpt lat="66.339029" lon="14.106436"></trkpt>
      <trkpt lat="66.338993" lon="14.106089"></trkpt>
      <trkpt lat="66.338838" lon="14.104290"></trkpt>
      <trkpt lat="66.338806" lon="14.103751"></trkpt>
      <trkpt lat="66.338798" lon="14.103377"></trkpt>
      <trkpt lat="66.338814" lon="14.102636"></trkpt>
      <trkpt lat="66.338814" lon="14.102331"></trkpt>
      <trkpt lat="66.338803" lon="14.102100"></trkpt>
      <trkpt lat="66.338784" lon="14.101929"></trkpt>
      <trkpt lat="66.338730" lon="14.101645"></trkpt>
      <trkpt lat="66.338600" lon="14.101089"></trkpt>
      <trkpt lat="66.338521" lon="14.100748"></trkpt>
      <trkpt lat="66.338442" lon="14.100204"></trkpt>
      <trkpt lat="66.338393" lon="14.099665"></trkpt>
      <trkpt lat="66.338376" lon="14.099329"></trkpt>
      <trkpt lat="66.338375" lon="14.098955"></trkpt>
      <trkpt lat="66.338468" lon="14.097912"></trkpt>
      <trkpt lat="66.338488" lon="14.097706"></trkpt>
      <trkpt lat="66.338537" lon="14.097380"></trkpt>
      <trkpt lat="66.338556" lon="14.097149"></trkpt>
      <trkpt lat="66.338567" lon="14.095905"></trkpt>
      <trkpt lat="66.338577" lon="14.095618"></trkpt>
      <trkpt lat="66.338584" lon="14.095420"></trkpt>
      <trkpt lat="66.338616" lon="14.095172"></trkpt>
      <trkpt lat="66.338714" lon="14.094822"></trkpt>
      <trkpt lat="66.339030" lon="14.094156"></trkpt>
      <trkpt lat="66.339608" lon="14.092923"></trkpt>
      <trkpt lat="66.339668" lon="14.092687"></trkpt>
      <trkpt lat="66.339738" lon="14.092203"></trkpt>
      <trkpt lat="66.339746" lon="14.091794"></trkpt>
      <trkpt lat="66.339736" lon="14.090861"></trkpt>
      <trkpt lat="66.339753" lon="14.090594"></trkpt>
      <trkpt lat="66.339758" lon="14.090208"></trkpt>
      <trkpt lat="66.339810" lon="14.089855"></trkpt>
      <trkpt lat="66.339901" lon="14.089396"></trkpt>
      <trkpt lat="66.340001" lon="14.089057"></trkpt>
      <trkpt lat="66.340017" lon="14.089008"></trkpt>
      <trkpt lat="66.340376" lon="14.088012"></trkpt>
      <trkpt lat="66.340488" lon="14.087836"></trkpt>
      <trkpt lat="66.340652" lon="14.087692"></trkpt>
      <trkpt lat="66.341063" lon="14.087402"></trkpt>
      <trkpt lat="66.341190" lon="14.087275"></trkpt>
      <trkpt lat="66.341415" lon="14.086923"></trkpt>
      <trkpt lat="66.341469" lon="14.086811"></trkpt>
      <trkpt lat="66.341565" lon="14.086567"></trkpt>
      <trkpt lat="66.341933" lon="14.085419"></trkpt>
      <trkpt lat="66.342189" lon="14.084697"></trkpt>
      <trkpt lat="66.342323" lon="14.084364"></trkpt>
      <trkpt lat="66.342529" lon="14.083796"></trkpt>
      <trkpt lat="66.342757" lon="14.083220"></trkpt>
      <trkpt lat="66.342966" lon="14.082810"></trkpt>
      <trkpt lat="66.343151" lon="14.082500"></trkpt>
      <trkpt lat="66.343264" lon="14.082357"></trkpt>
      <trkpt lat="66.343653" lon="14.081957"></trkpt>
      <trkpt lat="66.344369" lon="14.081310"></trkpt>
      <trkpt lat="66.344510" lon="14.081150"></trkpt>
      <trkpt lat="66.344656" lon="14.080935"></trkpt>
      <trkpt lat="66.344796" lon="14.080671"></trkpt>
      <trkpt lat="66.344855" lon="14.080523"></trkpt>
      <trkpt lat="66.345012" lon="14.079881"></trkpt>
      <trkpt lat="66.345068" lon="14.079560"></trkpt>
      <trkpt lat="66.345101" lon="14.079208"></trkpt>
      <trkpt lat="66.345124" lon="14.078753"></trkpt>
      <trkpt lat="66.345127" lon="14.078347"></trkpt>
      <trkpt lat="66.345093" lon="14.078033"></trkpt>
      <trkpt lat="66.345006" lon="14.077607"></trkpt>
      <trkpt lat="66.344853" lon="14.077014"></trkpt>
      <trkpt lat="66.344838" lon="14.076805"></trkpt>
      <trkpt lat="66.344836" lon="14.076477"></trkpt>
      <trkpt lat="66.344842" lon="14.076284"></trkpt>
      <trkpt lat="66.344877" lon="14.075919"></trkpt>
      <trkpt lat="66.344877" lon="14.075778"></trkpt>
      <trkpt lat="66.344874" lon="14.075689"></trkpt>
      <trkpt lat="66.344810" lon="14.075220"></trkpt>
      <trkpt lat="66.344806" lon="14.074970"></trkpt>
      <trkpt lat="66.344826" lon="14.074727"></trkpt>
      <trkpt lat="66.344849" lon="14.074603"></trkpt>
      <trkpt lat="66.344877" lon="14.074467"></trkpt>
      <trkpt lat="66.344931" lon="14.074298"></trkpt>
      <trkpt lat="66.344987" lon="14.074172"></trkpt>
      <trkpt lat="66.345061" lon="14.074039"></trkpt>
      <trkpt lat="66.345012" lon="14.073796"></trkpt>
      <trkpt lat="66.344937" lon="14.073449"></trkpt>
      <trkpt lat="66.344909" lon="14.073314"></trkpt>
      <trkpt lat="66.344848" lon="14.073078"></trkpt>
      <trkpt lat="66.344792" lon="14.072863"></trkpt>
      <trkpt lat="66.344734" lon="14.072679"></trkpt>
      <trkpt lat="66.344648" lon="14.072454"></trkpt>
      <trkpt lat="66.344547" lon="14.072263"></trkpt>
      <trkpt lat="66.344308" lon="14.071827"></trkpt>
      <trkpt lat="66.344260" lon="14.071726"></trkpt>
      <trkpt lat="66.344225" lon="14.071591"></trkpt>
      <trkpt lat="66.344157" lon="14.071183"></trkpt>
      <trkpt lat="66.344129" lon="14.070919"></trkpt>
      <trkpt lat="66.344092" lon="14.070402"></trkpt>
      <trkpt lat="66.344069" lon="14.070179"></trkpt>
      <trkpt lat="66.344030" lon="14.069946"></trkpt>
      <trkpt lat="66.343970" lon="14.069781"></trkpt>
      <trkpt lat="66.343612" lon="14.069204"></trkpt>
      <trkpt lat="66.343551" lon="14.069048"></trkpt>
      <trkpt lat="66.343413" lon="14.068604"></trkpt>
      <trkpt lat="66.343376" lon="14.068454"></trkpt>
      <trkpt lat="66.343360" lon="14.067976"></trkpt>
      <trkpt lat="66.343291" lon="14.067003"></trkpt>
      <trkpt lat="66.343193" lon="14.066468"></trkpt>
      <trkpt lat="66.343164" lon="14.066217"></trkpt>
      <trkpt lat="66.343135" lon="14.065776"></trkpt>
      <trkpt lat="66.343097" lon="14.065359"></trkpt>
      <trkpt lat="66.343035" lon="14.065011"></trkpt>
      <trkpt lat="66.342988" lon="14.064798"></trkpt>
      <trkpt lat="66.342900" lon="14.064279"></trkpt>
      <trkpt lat="66.342889" lon="14.064163"></trkpt>
      <trkpt lat="66.342884" lon="14.063862"></trkpt>
      <trkpt lat="66.342892" lon="14.063808"></trkpt>
      <trkpt lat="66.342892" lon="14.063808"></trkpt>
      <trkpt lat="66.342922" lon="14.063720"></trkpt>
      <trkpt lat="66.343122" lon="14.063335"></trkpt>
      <trkpt lat="66.343316" lon="14.063006"></trkpt>
      <trkpt lat="66.343404" lon="14.062779"></trkpt>
      <trkpt lat="66.343490" lon="14.062560"></trkpt>
      <trkpt lat="66.343552" lon="14.062418"></trkpt>
      <trkpt lat="66.343591" lon="14.062299"></trkpt>
      <trkpt lat="66.343728" lon="14.062135"></trkpt>
      <trkpt lat="66.343788" lon="14.062021"></trkpt>
      <trkpt lat="66.343812" lon="14.061940"></trkpt>
      <trkpt lat="66.343818" lon="14.061857"></trkpt>
      <trkpt lat="66.343813" lon="14.061708"></trkpt>
      <trkpt lat="66.343797" lon="14.061650"></trkpt>
      <trkpt lat="66.343764" lon="14.061610"></trkpt>
      <trkpt lat="66.343697" lon="14.061620"></trkpt>
      <trkpt lat="66.343663" lon="14.061657"></trkpt>
      <trkpt lat="66.343615" lon="14.061775"></trkpt>
      <trkpt lat="66.343584" lon="14.061933"></trkpt>
      <trkpt lat="66.343591" lon="14.062299"></trkpt>
      <trkpt lat="66.343552" lon="14.062418"></trkpt>
      <trkpt lat="66.343490" lon="14.062560"></trkpt>
      <trkpt lat="66.343404" lon="14.062779"></trkpt>
      <trkpt lat="66.343316" lon="14.063006"></trkpt>
      <trkpt lat="66.343122" lon="14.063335"></trkpt>
      <trkpt lat="66.342922" lon="14.063720"></trkpt>
      <trkpt lat="66.342892" lon="14.063808"></trkpt>
      <trkpt lat="66.342884" lon="14.063862"></trkpt>
      <trkpt lat="66.342889" lon="14.064163"></trkpt>
      <trkpt lat="66.342900" lon="14.064279"></trkpt>
      <trkpt lat="66.342988" lon="14.064798"></trkpt>
      <trkpt lat="66.343035" lon="14.065011"></trkpt>
      <trkpt lat="66.343097" lon="14.065359"></trkpt>
      <trkpt lat="66.343135" lon="14.065776"></trkpt>
      <trkpt lat="66.343164" lon="14.066217"></trkpt>
      <trkpt lat="66.343193" lon="14.066468"></trkpt>
      <trkpt lat="66.343291" lon="14.067003"></trkpt>
      <trkpt lat="66.343360" lon="14.067976"></trkpt>
      <trkpt lat="66.343376" lon="14.068454"></trkpt>
      <trkpt lat="66.343413" lon="14.068604"></trkpt>
      <trkpt lat="66.343551" lon="14.069048"></trkpt>
      <trkpt lat="66.343612" lon="14.069204"></trkpt>
      <trkpt lat="66.343970" lon="14.069781"></trkpt>
      <trkpt lat="66.344030" lon="14.069946"></trkpt>
      <trkpt lat="66.344069" lon="14.070179"></trkpt>
      <trkpt lat="66.344092" lon="14.070402"></trkpt>
      <trkpt lat="66.344129" lon="14.070919"></trkpt>
      <trkpt lat="66.344157" lon="14.071183"></trkpt>
      <trkpt lat="66.344225" lon="14.071591"></trkpt>
      <trkpt lat="66.344260" lon="14.071726"></trkpt>
      <trkpt lat="66.344308" lon="14.071827"></trkpt>
      <trkpt lat="66.344547" lon="14.072263"></trkpt>
      <trkpt lat="66.344648" lon="14.072454"></trkpt>
      <trkpt lat="66.344734" lon="14.072679"></trkpt>
      <trkpt lat="66.344792" lon="14.072863"></trkpt>
      <trkpt lat="66.344848" lon="14.073078"></trkpt>
      <trkpt lat="66.344909" lon="14.073314"></trkpt>
      <trkpt lat="66.344937" lon="14.073449"></trkpt>
      <trkpt lat="66.345012" lon="14.073796"></trkpt>
      <trkpt lat="66.345061" lon="14.074039"></trkpt>
      <trkpt lat="66.344987" lon="14.074172"></trkpt>
      <trkpt lat="66.344931" lon="14.074298"></trkpt>
      <trkpt lat="66.344877" lon="14.074467"></trkpt>
      <trkpt lat="66.344849" lon="14.074603"></trkpt>
      <trkpt lat="66.344826" lon="14.074727"></trkpt>
      <trkpt lat="66.344806" lon="14.074970"></trkpt>
      <trkpt lat="66.344810" lon="14.075220"></trkpt>
      <trkpt lat="66.344874" lon="14.075689"></trkpt>
      <trkpt lat="66.344877" lon="14.075778"></trkpt>
      <trkpt lat="66.344877" lon="14.075919"></trkpt>
      <trkpt lat="66.344842" lon="14.076284"></trkpt>
      <trkpt lat="66.344836" lon="14.076477"></trkpt>
      <trkpt lat="66.344838" lon="14.076805"></trkpt>
      <trkpt lat="66.344853" lon="14.077014"></trkpt>
      <trkpt lat="66.345006" lon="14.077607"></trkpt>
      <trkpt lat="66.345093" lon="14.078033"></trkpt>
      <trkpt lat="66.345127" lon="14.078347"></trkpt>
      <trkpt lat="66.345124" lon="14.078753"></trkpt>
      <trkpt lat="66.345101" lon="14.079208"></trkpt>
      <trkpt lat="66.345068" lon="14.079560"></trkpt>
      <trkpt lat="66.345012" lon="14.079881"></trkpt>
      <trkpt lat="66.344855" lon="14.080523"></trkpt>
      <trkpt lat="66.344796" lon="14.080671"></trkpt>
      <trkpt lat="66.344656" lon="14.080935"></trkpt>
      <trkpt lat="66.344510" lon="14.081150"></trkpt>
      <trkpt lat="66.344369" lon="14.081310"></trkpt>
      <trkpt lat="66.343653" lon="14.081957"></trkpt>
      <trkpt lat="66.343264" lon="14.082357"></trkpt>
      <trkpt lat="66.343151" lon="14.082500"></trkpt>
      <trkpt lat="66.342966" lon="14.082810"></trkpt>
      <trkpt lat="66.342757" lon="14.083220"></trkpt>
      <trkpt lat="66.342529" lon="14.083796"></trkpt>
      <trkpt lat="66.342323" lon="14.084364"></trkpt>
      <trkpt lat="66.342189" lon="14.084697"></trkpt>
      <trkpt lat="66.341933" lon="14.085419"></trkpt>
      <trkpt lat="66.341565" lon="14.086567"></trkpt>
      <trkpt lat="66.341469" lon="14.086811"></trkpt>
      <trkpt lat="66.341415" lon="14.086923"></trkpt>
      <trkpt lat="66.341190" lon="14.087275"></trkpt>
      <trkpt lat="66.341063" lon="14.087402"></trkpt>
      <trkpt lat="66.340652" lon="14.087692"></trkpt>
      <trkpt lat="66.340488" lon="14.087836"></trkpt>
      <trkpt lat="66.340376" lon="14.088012"></trkpt>
      <trkpt lat="66.340017" lon="14.089008"></trkpt>
      <trkpt lat="66.340001" lon="14.089057"></trkpt>
      <trkpt lat="66.339901" lon="14.089396"></trkpt>
      <trkpt lat="66.339810" lon="14.089855"></trkpt>
      <trkpt lat="66.339758" lon="14.090208"></trkpt>
      <trkpt lat="66.339753" lon="14.090594"></trkpt>
      <trkpt lat="66.339736" lon="14.090861"></trkpt>
      <trkpt lat="66.339746" lon="14.091794"></trkpt>
      <trkpt lat="66.339738" lon="14.092203"></trkpt>
      <trkpt lat="66.339668" lon="14.092687"></trkpt>
      <trkpt lat="66.339608" lon="14.092923"></trkpt>
      <trkpt lat="66.339030" lon="14.094156"></trkpt>
      <trkpt lat="66.338714" lon="14.094822"></trkpt>
      <trkpt lat="66.338616" lon="14.095172"></trkpt>
      <trkpt lat="66.338584" lon="14.095420"></trkpt>
      <trkpt lat="66.338554" lon="14.095417"></trkpt>
      <trkpt lat="66.338516" lon="14.095396"></trkpt>
      <trkpt lat="66.338497" lon="14.095363"></trkpt>
      <trkpt lat="66.338425" lon="14.095140"></trkpt>
      <trkpt lat="66.338357" lon="14.094914"></trkpt>
      <trkpt lat="66.338215" lon="14.094539"></trkpt>
      <trkpt lat="66.338157" lon="14.094385"></trkpt>
      <trkpt lat="66.337964" lon="14.094070"></trkpt>
      <trkpt lat="66.337889" lon="14.093965"></trkpt>
      <trkpt lat="66.337736" lon="14.093713"></trkpt>
      <trkpt lat="66.337574" lon="14.093344"></trkpt>
      <trkpt lat="66.337425" lon="14.093063"></trkpt>
      <trkpt lat="66.337356" lon="14.092901"></trkpt>
      <trkpt lat="66.337335" lon="14.092867"></trkpt>
      <trkpt lat="66.337304" lon="14.092828"></trkpt>
      <trkpt lat="66.337265" lon="14.092801"></trkpt>
      <trkpt lat="66.337222" lon="14.092776"></trkpt>
      <trkpt lat="66.337135" lon="14.092758"></trkpt>
      <trkpt lat="66.337014" lon="14.092768"></trkpt>
      <trkpt lat="66.336803" lon="14.092925"></trkpt>
      <trkpt lat="66.336716" lon="14.092879"></trkpt>
      <trkpt lat="66.336648" lon="14.092689"></trkpt>
      <trkpt lat="66.336564" lon="14.092565"></trkpt>
      <trkpt lat="66.336430" lon="14.092455"></trkpt>
      <trkpt lat="66.336195" lon="14.092390"></trkpt>
      <trkpt lat="66.336126" lon="14.092347"></trkpt>
      <trkpt lat="66.336079" lon="14.092294"></trkpt>
      <trkpt lat="66.335997" lon="14.092177"></trkpt>
      <trkpt lat="66.335841" lon="14.092008"></trkpt>
      <trkpt lat="66.335680" lon="14.091867"></trkpt>
      <trkpt lat="66.335287" lon="14.091575"></trkpt>
      <trkpt lat="66.334877" lon="14.091345"></trkpt>
      <trkpt lat="66.334435" lon="14.091265"></trkpt>
      <trkpt lat="66.334142" lon="14.090931"></trkpt>
      <trkpt lat="66.334134" lon="14.090903"></trkpt>
      <trkpt lat="66.334054" lon="14.090713"></trkpt>
      <trkpt lat="66.333967" lon="14.090181"></trkpt>
      <trkpt lat="66.333879" lon="14.089715"></trkpt>
      <trkpt lat="66.333858" lon="14.089651"></trkpt>
      <trkpt lat="66.333803" lon="14.089553"></trkpt>
      <trkpt lat="66.333754" lon="14.089501"></trkpt>
      <trkpt lat="66.333705" lon="14.089530"></trkpt>
      <trkpt lat="66.333635" lon="14.089668"></trkpt>
      <trkpt lat="66.333602" lon="14.089780"></trkpt>
      <trkpt lat="66.333558" lon="14.089862"></trkpt>
      <trkpt lat="66.333487" lon="14.089858"></trkpt>
      <trkpt lat="66.333372" lon="14.089674"></trkpt>
      <trkpt lat="66.333291" lon="14.089644"></trkpt>
      <trkpt lat="66.333200" lon="14.089721"></trkpt>
      <trkpt lat="66.333078" lon="14.089876"></trkpt>
      <trkpt lat="66.332937" lon="14.089999"></trkpt>
      <trkpt lat="66.332624" lon="14.090040"></trkpt>
      <trkpt lat="66.332499" lon="14.089998"></trkpt>
      <trkpt lat="66.332056" lon="14.089786"></trkpt>
      <trkpt lat="66.331833" lon="14.089529"></trkpt>
      <trkpt lat="66.331656" lon="14.089240"></trkpt>
      <trkpt lat="66.331618" lon="14.089127"></trkpt>
      <trkpt lat="66.331519" lon="14.089007"></trkpt>
      <trkpt lat="66.331276" lon="14.088811"></trkpt>
      <trkpt lat="66.331174" lon="14.088680"></trkpt>
      <trkpt lat="66.331101" lon="14.088639"></trkpt>
      <trkpt lat="66.331035" lon="14.088632"></trkpt>
      <trkpt lat="66.331035" lon="14.088632"></trkpt>
      <trkpt lat="66.330963" lon="14.088728"></trkpt>
      <trkpt lat="66.330823" lon="14.088837"></trkpt>
      <trkpt lat="66.330470" lon="14.089273"></trkpt>
      <trkpt lat="66.330373" lon="14.089363"></trkpt>
      <trkpt lat="66.330204" lon="14.089376"></trkpt>
      <trkpt lat="66.330023" lon="14.089318"></trkpt>
      <trkpt lat="66.329975" lon="14.089354"></trkpt>
      <trkpt lat="66.329965" lon="14.089454"></trkpt>
      <trkpt lat="66.330081" lon="14.089874"></trkpt>
      <trkpt lat="66.330181" lon="14.090314"></trkpt>
      <trkpt lat="66.330266" lon="14.090783"></trkpt>
      <trkpt lat="66.330347" lon="14.091538"></trkpt>
      <trkpt lat="66.330389" lon="14.091762"></trkpt>
      <trkpt lat="66.330490" lon="14.092084"></trkpt>
      <trkpt lat="66.330525" lon="14.092217"></trkpt>
      <trkpt lat="66.330536" lon="14.092322"></trkpt>
      <trkpt lat="66.330528" lon="14.092426"></trkpt>
      <trkpt lat="66.330488" lon="14.092609"></trkpt>
      <trkpt lat="66.330466" lon="14.092762"></trkpt>
      <trkpt lat="66.330475" lon="14.092870"></trkpt>
      <trkpt lat="66.330506" lon="14.092951"></trkpt>
      <trkpt lat="66.330556" lon="14.092965"></trkpt>
      <trkpt lat="66.330701" lon="14.092906"></trkpt>
      <trkpt lat="66.330822" lon="14.092865"></trkpt>
      <trkpt lat="66.330891" lon="14.093509"></trkpt>
      <trkpt lat="66.330902" lon="14.093775"></trkpt>
      <trkpt lat="66.330776" lon="14.093889"></trkpt>
      <trkpt lat="66.330608" lon="14.094124"></trkpt>
      <trkpt lat="66.330507" lon="14.094308"></trkpt>
      <trkpt lat="66.330430" lon="14.094478"></trkpt>
      <trkpt lat="66.330330" lon="14.094764"></trkpt>
      <trkpt lat="66.330269" lon="14.095036"></trkpt>
      <trkpt lat="66.330256" lon="14.095171"></trkpt>
      <trkpt lat="66.330250" lon="14.095381"></trkpt>
      <trkpt lat="66.330254" lon="14.095467"></trkpt>
      <trkpt lat="66.330283" lon="14.095618"></trkpt>
      <trkpt lat="66.330328" lon="14.095708"></trkpt>
      <trkpt lat="66.330673" lon="14.096033"></trkpt>
      <trkpt lat="66.330753" lon="14.096151"></trkpt>
      <trkpt lat="66.330897" lon="14.096427"></trkpt>
      <trkpt lat="66.330973" lon="14.096602"></trkpt>
      <trkpt lat="66.331028" lon="14.096770"></trkpt>
      <trkpt lat="66.331091" lon="14.096902"></trkpt>
      <trkpt lat="66.331155" lon="14.097170"></trkpt>
      <trkpt lat="66.331228" lon="14.097560"></trkpt>
      <trkpt lat="66.331297" lon="14.098071"></trkpt>
      <trkpt lat="66.331385" lon="14.098898"></trkpt>
      <trkpt lat="66.331421" lon="14.099274"></trkpt>
      <trkpt lat="66.331428" lon="14.099466"></trkpt>
      <trkpt lat="66.331447" lon="14.099704"></trkpt>
      <trkpt lat="66.331476" lon="14.099888"></trkpt>
      <trkpt lat="66.331541" lon="14.100205"></trkpt>
      <trkpt lat="66.331610" lon="14.100489"></trkpt>
      <trkpt lat="66.331676" lon="14.100875"></trkpt>
      <trkpt lat="66.331708" lon="14.100979"></trkpt>
      <trkpt lat="66.331909" lon="14.101826"></trkpt>
      <trkpt lat="66.332053" lon="14.102350"></trkpt>
      <trkpt lat="66.332089" lon="14.102539"></trkpt>
      <trkpt lat="66.332164" lon="14.102911"></trkpt>
      <trkpt lat="66.332203" lon="14.103258"></trkpt>
      <trkpt lat="66.332208" lon="14.103283"></trkpt>
      <trkpt lat="66.332012" lon="14.103712"></trkpt>
      <trkpt lat="66.331926" lon="14.103945"></trkpt>
      <trkpt lat="66.331906" lon="14.104023"></trkpt>
      <trkpt lat="66.331838" lon="14.104162"></trkpt>
      <trkpt lat="66.331774" lon="14.104325"></trkpt>
      <trkpt lat="66.331717" lon="14.104528"></trkpt>
      <trkpt lat="66.331657" lon="14.104287"></trkpt>
      <trkpt lat="66.331549" lon="14.103966"></trkpt>
      <trkpt lat="66.331535" lon="14.103904"></trkpt>
      <trkpt lat="66.331474" lon="14.103657"></trkpt>
      <trkpt lat="66.331351" lon="14.103277"></trkpt>
      <trkpt lat="66.331090" lon="14.102517"></trkpt>
      <trkpt lat="66.331026" lon="14.102365"></trkpt>
      <trkpt lat="66.330960" lon="14.102150"></trkpt>
      <trkpt lat="66.330862" lon="14.101821"></trkpt>
      <trkpt lat="66.330758" lon="14.101368"></trkpt>
      <trkpt lat="66.330732" lon="14.101221"></trkpt>
      <trkpt lat="66.330690" lon="14.100919"></trkpt>
      <trkpt lat="66.330642" lon="14.100439"></trkpt>
      <trkpt lat="66.330596" lon="14.099928"></trkpt>
      <trkpt lat="66.330558" lon="14.099475"></trkpt>
      <trkpt lat="66.330534" lon="14.098887"></trkpt>
      <trkpt lat="66.330499" lon="14.098430"></trkpt>
      <trkpt lat="66.330438" lon="14.098071"></trkpt>
      <trkpt lat="66.330379" lon="14.097870"></trkpt>
      <trkpt lat="66.330323" lon="14.097686"></trkpt>
      <trkpt lat="66.330227" lon="14.097453"></trkpt>
      <trkpt lat="66.330143" lon="14.097282"></trkpt>
      <trkpt lat="66.330045" lon="14.097145"></trkpt>
      <trkpt lat="66.329873" lon="14.096834"></trkpt>
      <trkpt lat="66.329650" lon="14.096480"></trkpt>
      <trkpt lat="66.329603" lon="14.096413"></trkpt>
      <trkpt lat="66.329510" lon="14.096287"></trkpt>
      <trkpt lat="66.329387" lon="14.096164"></trkpt>
      <trkpt lat="66.329204" lon="14.096021"></trkpt>
      <trkpt lat="66.328857" lon="14.095908"></trkpt>
      <trkpt lat="66.328782" lon="14.095842"></trkpt>
      <trkpt lat="66.328325" lon="14.095376"></trkpt>
      <trkpt lat="66.328180" lon="14.095172"></trkpt>
      <trkpt lat="66.327994" lon="14.094864"></trkpt>
      <trkpt lat="66.327927" lon="14.094792"></trkpt>
      <trkpt lat="66.327877" lon="14.094767"></trkpt>
      <trkpt lat="66.327765" lon="14.094762"></trkpt>
      <trkpt lat="66.327395" lon="14.094773"></trkpt>
      <trkpt lat="66.327272" lon="14.094713"></trkpt>
      <trkpt lat="66.327211" lon="14.094651"></trkpt>
      <trkpt lat="66.327150" lon="14.094548"></trkpt>
      <trkpt lat="66.326903" lon="14.093970"></trkpt>
      <trkpt lat="66.326876" lon="14.093883"></trkpt>
      <trkpt lat="66.326830" lon="14.093693"></trkpt>
      <trkpt lat="66.326705" lon="14.093008"></trkpt>
      <trkpt lat="66.326637" lon="14.092626"></trkpt>
      <trkpt lat="66.326552" lon="14.092352"></trkpt>
      <trkpt lat="66.326458" lon="14.092121"></trkpt>
      <trkpt lat="66.326259" lon="14.091664"></trkpt>
      <trkpt lat="66.326175" lon="14.091447"></trkpt>
      <trkpt lat="66.326105" lon="14.091202"></trkpt>
      <trkpt lat="66.326045" lon="14.090936"></trkpt>
      <trkpt lat="66.325989" lon="14.090634"></trkpt>
      <trkpt lat="66.325954" lon="14.090374"></trkpt>
      <trkpt lat="66.325928" lon="14.090106"></trkpt>
      <trkpt lat="66.325916" lon="14.089770"></trkpt>
      <trkpt lat="66.325930" lon="14.088981"></trkpt>
      <trkpt lat="66.325920" lon="14.088234"></trkpt>
      <trkpt lat="66.325903" lon="14.087598"></trkpt>
      <trkpt lat="66.325882" lon="14.087207"></trkpt>
      <trkpt lat="66.325862" lon="14.086869"></trkpt>
      <trkpt lat="66.325813" lon="14.086378"></trkpt>
      <trkpt lat="66.325773" lon="14.086009"></trkpt>
      <trkpt lat="66.325728" lon="14.085733"></trkpt>
      <trkpt lat="66.325683" lon="14.085480"></trkpt>
      <trkpt lat="66.325616" lon="14.085163"></trkpt>
      <trkpt lat="66.325502" lon="14.084797"></trkpt>
      <trkpt lat="66.325357" lon="14.084467"></trkpt>
      <trkpt lat="66.325289" lon="14.084274"></trkpt>
      <trkpt lat="66.325213" lon="14.084014"></trkpt>
      <trkpt lat="66.325113" lon="14.083777"></trkpt>
      <trkpt lat="66.324833" lon="14.083336"></trkpt>
      <trkpt lat="66.324738" lon="14.083138"></trkpt>
      <trkpt lat="66.324601" lon="14.082773"></trkpt>
      <trkpt lat="66.324393" lon="14.081859"></trkpt>
      <trkpt lat="66.324358" lon="14.081746"></trkpt>
      <trkpt lat="66.324301" lon="14.081535"></trkpt>
      <trkpt lat="66.324215" lon="14.081306"></trkpt>
      <trkpt lat="66.324121" lon="14.081099"></trkpt>
      <trkpt lat="66.324053" lon="14.080960"></trkpt>
      <trkpt lat="66.324012" lon="14.080894"></trkpt>
      <trkpt lat="66.323919" lon="14.080749"></trkpt>
      <trkpt lat="66.323729" lon="14.080508"></trkpt>
      <trkpt lat="66.323560" lon="14.080278"></trkpt>
      <trkpt lat="66.323492" lon="14.080087"></trkpt>
      <trkpt lat="66.323439" lon="14.079916"></trkpt>
      <trkpt lat="66.323385" lon="14.079653"></trkpt>
      <trkpt lat="66.323364" lon="14.079412"></trkpt>
      <trkpt lat="66.323345" lon="14.079158"></trkpt>
      <trkpt lat="66.323549" lon="14.079251"></trkpt>
      <trkpt lat="66.323625" lon="14.079270"></trkpt>
      <trkpt lat="66.323685" lon="14.079279"></trkpt>
      <trkpt lat="66.323797" lon="14.079423"></trkpt>
    </trkseg>
  </trk>
</gpx>