<?xml version="1.0" encoding="UTF-8"?>
<gpx version="1.1" creator="Rana Sykkelklubb - https://ranasykkelklubb.no" xmlns="http://www.topografix.com/GPX/1/1" xmlns:xsi="http://www.w3.org/2001/XMLSchema-instance" xsi:schemaLocation="http://www.topografix.com/GPX/1/1 http://www.topografix.com/GPX/1/1/gpx.xsd">
  <metadata>
    <name>Klokkerhagen &amp; Revelen Elvelangs</name>
    <desc>Klokkerhagen &amp; Revelen Elvelangs</desc>
    <author>
      <name>Rana Sykkelklubb</name>
    </author>
  </metadata>
  <wpt lat="66.319000" lon="14.155000">
    <name>Start: Klokkerhagen Friluftsområde</name>
    <desc>Barnevennlig start med lekeplass og gapahuk.</desc>
  </wpt>
  <wpt lat="66.336000" lon="14.205000">
    <name>Revelen Gangbru</name>
    <desc>Krysningspunkt over elva med fine fiske- og bålplasser.</desc>
  </wpt>
  <trk>
    <name>Klokkerhagen &amp; Revelen Elvelangs</name>
    <trkseg>
      <trkpt lat="66.319039" lon="14.154478"></trkpt>
      <trkpt lat="66.318912" lon="14.154418"></trkpt>
      <trkpt lat="66.318373" lon="14.154265"></trkpt>
      <trkpt lat="66.318230" lon="14.154203"></trkpt>
      <trkpt lat="66.318100" lon="14.154111"></trkpt>
      <trkpt lat="66.317740" lon="14.153768"></trkpt>
      <trkpt lat="66.317469" lon="14.153460"></trkpt>
      <trkpt lat="66.317439" lon="14.153417"></trkpt>
      <trkpt lat="66.317406" lon="14.153304"></trkpt>
      <trkpt lat="66.317398" lon="14.153134"></trkpt>
      <trkpt lat="66.317530" lon="14.153141"></trkpt>
      <trkpt lat="66.317644" lon="14.153088"></trkpt>
      <trkpt lat="66.317853" lon="14.152922"></trkpt>
      <trkpt lat="66.318007" lon="14.152725"></trkpt>
      <trkpt lat="66.318130" lon="14.152507"></trkpt>
      <trkpt lat="66.318198" lon="14.152340"></trkpt>
      <trkpt lat="66.318268" lon="14.152116"></trkpt>
      <trkpt lat="66.318300" lon="14.151964"></trkpt>
      <trkpt lat="66.318324" lon="14.151853"></trkpt>
      <trkpt lat="66.318350" lon="14.151652"></trkpt>
      <trkpt lat="66.318368" lon="14.151422"></trkpt>
      <trkpt lat="66.318352" lon="14.150183"></trkpt>
      <trkpt lat="66.318343" lon="14.149958"></trkpt>
      <trkpt lat="66.318294" lon="14.149262"></trkpt>
      <trkpt lat="66.318279" lon="14.148611"></trkpt>
      <trkpt lat="66.318234" lon="14.147905"></trkpt>
      <trkpt lat="66.318205" lon="14.147216"></trkpt>
      <trkpt lat="66.318179" lon="14.146471"></trkpt>
      <trkpt lat="66.318170" lon="14.145989"></trkpt>
      <trkpt lat="66.318192" lon="14.145810"></trkpt>
      <trkpt lat="66.318253" lon="14.145646"></trkpt>
      <trkpt lat="66.318269" lon="14.145599"></trkpt>
      <trkpt lat="66.318303" lon="14.145696"></trkpt>
      <trkpt lat="66.318377" lon="14.145730"></trkpt>
      <trkpt lat="66.318507" lon="14.145789"></trkpt>
      <trkpt lat="66.318508" lon="14.146677"></trkpt>
      <trkpt lat="66.318487" lon="14.148074"></trkpt>
      <trkpt lat="66.318486" lon="14.148360"></trkpt>
      <trkpt lat="66.318485" lon="14.148417"></trkpt>
      <trkpt lat="66.318483" lon="14.148519"></trkpt>
      <trkpt lat="66.318457" lon="14.148872"></trkpt>
      <trkpt lat="66.318445" lon="14.148890"></trkpt>
      <trkpt lat="66.318413" lon="14.149008"></trkpt>
      <trkpt lat="66.318403" lon="14.149174"></trkpt>
      <trkpt lat="66.318421" lon="14.149318"></trkpt>
      <trkpt lat="66.318495" lon="14.149826"></trkpt>
      <trkpt lat="66.318499" lon="14.149872"></trkpt>
      <trkpt lat="66.318503" lon="14.149913"></trkpt>
      <trkpt lat="66.318519" lon="14.150332"></trkpt>
      <trkpt lat="66.318545" lon="14.150524"></trkpt>
      <trkpt lat="66.318568" lon="14.150839"></trkpt>
      <trkpt lat="66.318600" lon="14.151138"></trkpt>
      <trkpt lat="66.318612" lon="14.151256"></trkpt>
      <trkpt lat="66.318635" lon="14.151416"></trkpt>
      <trkpt lat="66.318680" lon="14.151698"></trkpt>
      <trkpt lat="66.318764" lon="14.152140"></trkpt>
      <trkpt lat="66.318853" lon="14.152524"></trkpt>
      <trkpt lat="66.318930" lon="14.152821"></trkpt>
      <trkpt lat="66.318972" lon="14.152968"></trkpt>
      <trkpt lat="66.319105" lon="14.153354"></trkpt>
      <trkpt lat="66.319213" lon="14.153636"></trkpt>
      <trkpt lat="66.319282" lon="14.153799"></trkpt>
      <trkpt lat="66.319344" lon="14.153930"></trkpt>
      <trkpt lat="66.319496" lon="14.154210"></trkpt>
      <trkpt lat="66.319647" lon="14.154442"></trkpt>
      <trkpt lat="66.319747" lon="14.154582"></trkpt>
      <trkpt lat="66.319926" lon="14.154804"></trkpt>
      <trkpt lat="66.320192" lon="14.155096"></trkpt>
      <trkpt lat="66.320675" lon="14.155603"></trkpt>
      <trkpt lat="66.321120" lon="14.156057"></trkpt>
      <trkpt lat="66.321544" lon="14.156483"></trkpt>
      <trkpt lat="66.321734" lon="14.156656"></trkpt>
      <trkpt lat="66.321982" lon="14.156889"></trkpt>
      <trkpt lat="66.322387" lon="14.157234"></trkpt>
      <trkpt lat="66.322799" lon="14.157548"></trkpt>
      <trkpt lat="66.323002" lon="14.157686"></trkpt>
      <trkpt lat="66.323191" lon="14.157803"></trkpt>
      <trkpt lat="66.323333" lon="14.157878"></trkpt>
      <trkpt lat="66.323479" lon="14.157921"></trkpt>
      <trkpt lat="66.323637" lon="14.157935"></trkpt>
      <trkpt lat="66.323906" lon="14.157918"></trkpt>
      <trkpt lat="66.323991" lon="14.157920"></trkpt>
      <trkpt lat="66.324046" lon="14.157928"></trkpt>
      <trkpt lat="66.324126" lon="14.158078"></trkpt>
      <trkpt lat="66.324179" lon="14.158134"></trkpt>
      <trkpt lat="66.324315" lon="14.158305"></trkpt>
      <trkpt lat="66.324334" lon="14.158370"></trkpt>
      <trkpt lat="66.324322" lon="14.158552"></trkpt>
      <trkpt lat="66.324305" lon="14.158822"></trkpt>
      <trkpt lat="66.324276" lon="14.159467"></trkpt>
      <trkpt lat="66.324184" lon="14.160174"></trkpt>
      <trkpt lat="66.324122" lon="14.160607"></trkpt>
      <trkpt lat="66.324044" lon="14.161118"></trkpt>
      <trkpt lat="66.323912" lon="14.161918"></trkpt>
      <trkpt lat="66.323824" lon="14.162405"></trkpt>
      <trkpt lat="66.323731" lon="14.162892"></trkpt>
      <trkpt lat="66.323559" lon="14.163726"></trkpt>
      <trkpt lat="66.323459" lon="14.164182"></trkpt>
      <trkpt lat="66.323333" lon="14.164720"></trkpt>
      <trkpt lat="66.323125" lon="14.165550"></trkpt>
      <trkpt lat="66.323050" lon="14.165834"></trkpt>
      <trkpt lat="66.322857" lon="14.166526"></trkpt>
      <trkpt lat="66.322548" lon="14.167524"></trkpt>
      <trkpt lat="66.322417" lon="14.167936"></trkpt>
      <trkpt lat="66.322196" lon="14.168594"></trkpt>
      <trkpt lat="66.322187" lon="14.168618"></trkpt>
      <trkpt lat="66.322022" lon="14.168963"></trkpt>
      <trkpt lat="66.321970" lon="14.169058"></trkpt>
      <trkpt lat="66.321871" lon="14.169237"></trkpt>
      <trkpt lat="66.321800" lon="14.169350"></trkpt>
      <trkpt lat="66.321696" lon="14.169474"></trkpt>
      <trkpt lat="66.321639" lon="14.169532"></trkpt>
      <trkpt lat="66.321520" lon="14.169638"></trkpt>
      <trkpt lat="66.321304" lon="14.169803"></trkpt>
      <trkpt lat="66.321243" lon="14.169864"></trkpt>
      <trkpt lat="66.321123" lon="14.169985"></trkpt>
      <trkpt lat="66.321032" lon="14.170076"></trkpt>
      <trkpt lat="66.320675" lon="14.170514"></trkpt>
      <trkpt lat="66.320475" lon="14.170757"></trkpt>
      <trkpt lat="66.320425" lon="14.170796"></trkpt>
      <trkpt lat="66.320374" lon="14.170831"></trkpt>
      <trkpt lat="66.320315" lon="14.170854"></trkpt>
      <trkpt lat="66.320221" lon="14.170891"></trkpt>
      <trkpt lat="66.320202" lon="14.170878"></trkpt>
      <trkpt lat="66.320162" lon="14.170870"></trkpt>
      <trkpt lat="66.320142" lon="14.170875"></trkpt>
      <trkpt lat="66.320105" lon="14.170904"></trkpt>
      <trkpt lat="66.320071" lon="14.170956"></trkpt>
      <trkpt lat="66.320043" lon="14.171027"></trkpt>
      <trkpt lat="66.320024" lon="14.171112"></trkpt>
      <trkpt lat="66.320018" lon="14.171159"></trkpt>
      <trkpt lat="66.320012" lon="14.171257"></trkpt>
      <trkpt lat="66.320013" lon="14.171306"></trkpt>
      <trkpt lat="66.320017" lon="14.171355"></trkpt>
      <trkpt lat="66.320031" lon="14.171447"></trkpt>
      <trkpt lat="66.320055" lon="14.171526"></trkpt>
      <trkpt lat="66.320085" lon="14.171589"></trkpt>
      <trkpt lat="66.320102" lon="14.171613"></trkpt>
      <trkpt lat="66.320140" lon="14.171644"></trkpt>
      <trkpt lat="66.320180" lon="14.171650"></trkpt>
      <trkpt lat="66.320218" lon="14.171631"></trkpt>
      <trkpt lat="66.320267" lon="14.171782"></trkpt>
      <trkpt lat="66.320305" lon="14.171913"></trkpt>
      <trkpt lat="66.320420" lon="14.172355"></trkpt>
      <trkpt lat="66.320458" lon="14.172454"></trkpt>
      <trkpt lat="66.320514" lon="14.172575"></trkpt>
      <trkpt lat="66.320541" lon="14.172654"></trkpt>
      <trkpt lat="66.320600" lon="14.172807"></trkpt>
      <trkpt lat="66.320663" lon="14.172943"></trkpt>
      <trkpt lat="66.320698" lon="14.173009"></trkpt>
      <trkpt lat="66.320811" lon="14.173194"></trkpt>
      <trkpt lat="66.320899" lon="14.173310"></trkpt>
      <trkpt lat="66.320995" lon="14.173412"></trkpt>
      <trkpt lat="66.321111" lon="14.173506"></trkpt>
      <trkpt lat="66.321222" lon="14.173580"></trkpt>
      <trkpt lat="66.321467" lon="14.173727"></trkpt>
      <trkpt lat="66.321562" lon="14.173778"></trkpt>
      <trkpt lat="66.321719" lon="14.173942"></trkpt>
      <trkpt lat="66.321744" lon="14.173967"></trkpt>
      <trkpt lat="66.321815" lon="14.174048"></trkpt>
      <trkpt lat="66.321879" lon="14.174131"></trkpt>
      <trkpt lat="66.321897" lon="14.174202"></trkpt>
      <trkpt lat="66.321914" lon="14.174238"></trkpt>
      <trkpt lat="66.321935" lon="14.174262"></trkpt>
      <trkpt lat="66.321957" lon="14.174273"></trkpt>
      <trkpt lat="66.321991" lon="14.174262"></trkpt>
      <trkpt lat="66.322011" lon="14.174238"></trkpt>
      <trkpt lat="66.322076" lon="14.174306"></trkpt>
      <trkpt lat="66.322183" lon="14.174349"></trkpt>
      <trkpt lat="66.322275" lon="14.174348"></trkpt>
      <trkpt lat="66.323512" lon="14.175238"></trkpt>
      <trkpt lat="66.323550" lon="14.175267"></trkpt>
      <trkpt lat="66.323591" lon="14.175301"></trkpt>
      <trkpt lat="66.323633" lon="14.175340"></trkpt>
      <trkpt lat="66.323761" lon="14.175640"></trkpt>
      <trkpt lat="66.323841" lon="14.175864"></trkpt>
      <trkpt lat="66.323898" lon="14.176066"></trkpt>
      <trkpt lat="66.323907" lon="14.176113"></trkpt>
      <trkpt lat="66.323924" lon="14.176166"></trkpt>
      <trkpt lat="66.323945" lon="14.176205"></trkpt>
      <trkpt lat="66.323971" lon="14.176229"></trkpt>
      <trkpt lat="66.323998" lon="14.176235"></trkpt>
      <trkpt lat="66.324024" lon="14.176222"></trkpt>
      <trkpt lat="66.324048" lon="14.176193"></trkpt>
      <trkpt lat="66.324057" lon="14.176176"></trkpt>
      <trkpt lat="66.324160" lon="14.176156"></trkpt>
      <trkpt lat="66.324303" lon="14.176143"></trkpt>
      <trkpt lat="66.324435" lon="14.176137"></trkpt>
      <trkpt lat="66.324513" lon="14.176142"></trkpt>
      <trkpt lat="66.324584" lon="14.176156"></trkpt>
      <trkpt lat="66.324643" lon="14.176154"></trkpt>
      <trkpt lat="66.324818" lon="14.176183"></trkpt>
      <trkpt lat="66.324646" lon="14.176069"></trkpt>
      <trkpt lat="66.324578" lon="14.176030"></trkpt>
      <trkpt lat="66.324429" lon="14.175982"></trkpt>
      <trkpt lat="66.324433" lon="14.175927"></trkpt>
      <trkpt lat="66.324446" lon="14.175820"></trkpt>
      <trkpt lat="66.324534" lon="14.175117"></trkpt>
      <trkpt lat="66.324600" lon="14.174454"></trkpt>
      <trkpt lat="66.324764" lon="14.172847"></trkpt>
      <trkpt lat="66.324785" lon="14.172601"></trkpt>
      <trkpt lat="66.324769" lon="14.172587"></trkpt>
      <trkpt lat="66.324706" lon="14.172454"></trkpt>
      <trkpt lat="66.324543" lon="14.172241"></trkpt>
      <trkpt lat="66.324459" lon="14.172176"></trkpt>
      <trkpt lat="66.324363" lon="14.172109"></trkpt>
      <trkpt lat="66.324276" lon="14.172043"></trkpt>
      <trkpt lat="66.324144" lon="14.171912"></trkpt>
      <trkpt lat="66.324122" lon="14.171829"></trkpt>
      <trkpt lat="66.324122" lon="14.171829"></trkpt>
      <trkpt lat="66.324128" lon="14.171693"></trkpt>
      <trkpt lat="66.324141" lon="14.171594"></trkpt>
      <trkpt lat="66.324215" lon="14.171214"></trkpt>
      <trkpt lat="66.324244" lon="14.171062"></trkpt>
      <trkpt lat="66.324349" lon="14.170643"></trkpt>
      <trkpt lat="66.324244" lon="14.171062"></trkpt>
      <trkpt lat="66.324215" lon="14.171214"></trkpt>
      <trkpt lat="66.324141" lon="14.171594"></trkpt>
      <trkpt lat="66.324128" lon="14.171693"></trkpt>
      <trkpt lat="66.324122" lon="14.171829"></trkpt>
      <trkpt lat="66.324144" lon="14.171912"></trkpt>
      <trkpt lat="66.324276" lon="14.172043"></trkpt>
      <trkpt lat="66.324363" lon="14.172109"></trkpt>
      <trkpt lat="66.324459" lon="14.172176"></trkpt>
      <trkpt lat="66.324543" lon="14.172241"></trkpt>
      <trkpt lat="66.324706" lon="14.172454"></trkpt>
      <trkpt lat="66.324769" lon="14.172587"></trkpt>
      <trkpt lat="66.324785" lon="14.172601"></trkpt>
      <trkpt lat="66.324764" lon="14.172847"></trkpt>
      <trkpt lat="66.324943" lon="14.173072"></trkpt>
      <trkpt lat="66.325128" lon="14.173298"></trkpt>
      <trkpt lat="66.325475" lon="14.173820"></trkpt>
      <trkpt lat="66.325542" lon="14.173909"></trkpt>
      <trkpt lat="66.325700" lon="14.174169"></trkpt>
      <trkpt lat="66.325667" lon="14.174465"></trkpt>
      <trkpt lat="66.325644" lon="14.174739"></trkpt>
      <trkpt lat="66.325533" lon="14.175607"></trkpt>
      <trkpt lat="66.325485" lon="14.176044"></trkpt>
      <trkpt lat="66.325451" lon="14.176441"></trkpt>
      <trkpt lat="66.325780" lon="14.176550"></trkpt>
      <trkpt lat="66.326319" lon="14.176706"></trkpt>
      <trkpt lat="66.326617" lon="14.176801"></trkpt>
      <trkpt lat="66.327355" lon="14.177024"></trkpt>
      <trkpt lat="66.327513" lon="14.177065"></trkpt>
      <trkpt lat="66.327613" lon="14.177099"></trkpt>
      <trkpt lat="66.328237" lon="14.177293"></trkpt>
      <trkpt lat="66.328246" lon="14.177490"></trkpt>
      <trkpt lat="66.328266" lon="14.177639"></trkpt>
      <trkpt lat="66.328299" lon="14.177772"></trkpt>
      <trkpt lat="66.328512" lon="14.178401"></trkpt>
      <trkpt lat="66.328661" lon="14.178811"></trkpt>
      <trkpt lat="66.328923" lon="14.179638"></trkpt>
      <trkpt lat="66.329347" lon="14.180885"></trkpt>
      <trkpt lat="66.329570" lon="14.181465"></trkpt>
      <trkpt lat="66.329575" lon="14.181512"></trkpt>
      <trkpt lat="66.329602" lon="14.181580"></trkpt>
      <trkpt lat="66.329833" lon="14.182106"></trkpt>
      <trkpt lat="66.329932" lon="14.182368"></trkpt>
      <trkpt lat="66.329967" lon="14.182510"></trkpt>
      <trkpt lat="66.330031" lon="14.182634"></trkpt>
      <trkpt lat="66.330127" lon="14.182960"></trkpt>
      <trkpt lat="66.330237" lon="14.183289"></trkpt>
      <trkpt lat="66.330288" lon="14.183404"></trkpt>
      <trkpt lat="66.330352" lon="14.183623"></trkpt>
      <trkpt lat="66.330743" lon="14.185164"></trkpt>
      <trkpt lat="66.330842" lon="14.185663"></trkpt>
      <trkpt lat="66.330869" lon="14.185884"></trkpt>
      <trkpt lat="66.330934" lon="14.186792"></trkpt>
      <trkpt lat="66.330960" lon="14.187332"></trkpt>
      <trkpt lat="66.330996" lon="14.188434"></trkpt>
      <trkpt lat="66.331002" lon="14.189419"></trkpt>
      <trkpt lat="66.330991" lon="14.190350"></trkpt>
      <trkpt lat="66.330975" lon="14.190758"></trkpt>
      <trkpt lat="66.330941" lon="14.191088"></trkpt>
      <trkpt lat="66.330906" lon="14.191392"></trkpt>
      <trkpt lat="66.330916" lon="14.191721"></trkpt>
      <trkpt lat="66.330927" lon="14.191878"></trkpt>
      <trkpt lat="66.330938" lon="14.192219"></trkpt>
      <trkpt lat="66.330935" lon="14.192382"></trkpt>
      <trkpt lat="66.330924" lon="14.192510"></trkpt>
      <trkpt lat="66.330849" lon="14.193129"></trkpt>
      <trkpt lat="66.330740" lon="14.193868"></trkpt>
      <trkpt lat="66.330713" lon="14.194498"></trkpt>
      <trkpt lat="66.330687" lon="14.194696"></trkpt>
      <trkpt lat="66.330626" lon="14.194813"></trkpt>
      <trkpt lat="66.330581" lon="14.194854"></trkpt>
      <trkpt lat="66.330490" lon="14.194993"></trkpt>
      <trkpt lat="66.330457" lon="14.195057"></trkpt>
      <trkpt lat="66.330490" lon="14.194993"></trkpt>
      <trkpt lat="66.330581" lon="14.194854"></trkpt>
      <trkpt lat="66.330626" lon="14.194813"></trkpt>
      <trkpt lat="66.330687" lon="14.194696"></trkpt>
      <trkpt lat="66.330713" lon="14.194498"></trkpt>
      <trkpt lat="66.330740" lon="14.193868"></trkpt>
      <trkpt lat="66.330849" lon="14.193129"></trkpt>
      <trkpt lat="66.330924" lon="14.192510"></trkpt>
      <trkpt lat="66.330935" lon="14.192382"></trkpt>
      <trkpt lat="66.330938" lon="14.192219"></trkpt>
      <trkpt lat="66.330927" lon="14.191878"></trkpt>
      <trkpt lat="66.330916" lon="14.191721"></trkpt>
      <trkpt lat="66.330906" lon="14.191392"></trkpt>
      <trkpt lat="66.330941" lon="14.191088"></trkpt>
      <trkpt lat="66.330975" lon="14.190758"></trkpt>
      <trkpt lat="66.330991" lon="14.190350"></trkpt>
      <trkpt lat="66.331002" lon="14.189419"></trkpt>
      <trkpt lat="66.330999" lon="14.189000"></trkpt>
      <trkpt lat="66.330996" lon="14.188434"></trkpt>
      <trkpt lat="66.330960" lon="14.187332"></trkpt>
      <trkpt lat="66.330934" lon="14.186792"></trkpt>
      <trkpt lat="66.330869" lon="14.185884"></trkpt>
      <trkpt lat="66.330842" lon="14.185663"></trkpt>
      <trkpt lat="66.330743" lon="14.185164"></trkpt>
      <trkpt lat="66.330352" lon="14.183623"></trkpt>
      <trkpt lat="66.330288" lon="14.183404"></trkpt>
      <trkpt lat="66.330237" lon="14.183289"></trkpt>
      <trkpt lat="66.330127" lon="14.182960"></trkpt>
      <trkpt lat="66.330031" lon="14.182634"></trkpt>
      <trkpt lat="66.329967" lon="14.182510"></trkpt>
      <trkpt lat="66.329932" lon="14.182368"></trkpt>
      <trkpt lat="66.329833" lon="14.182106"></trkpt>
      <trkpt lat="66.329602" lon="14.181580"></trkpt>
      <trkpt lat="66.329575" lon="14.181512"></trkpt>
      <trkpt lat="66.329570" lon="14.181465"></trkpt>
      <trkpt lat="66.329347" lon="14.180885"></trkpt>
      <trkpt lat="66.329219" lon="14.181193"></trkpt>
      <trkpt lat="66.329071" lon="14.181671"></trkpt>
      <trkpt lat="66.328998" lon="14.181870"></trkpt>
      <trkpt lat="66.328902" lon="14.182081"></trkpt>
      <trkpt lat="66.328759" lon="14.182358"></trkpt>
      <trkpt lat="66.328512" lon="14.182712"></trkpt>
      <trkpt lat="66.328347" lon="14.182902"></trkpt>
      <trkpt lat="66.327963" lon="14.183412"></trkpt>
      <trkpt lat="66.327906" lon="14.183472"></trkpt>
      <trkpt lat="66.327444" lon="14.184108"></trkpt>
      <trkpt lat="66.327270" lon="14.184288"></trkpt>
      <trkpt lat="66.327182" lon="14.184319"></trkpt>
      <trkpt lat="66.327074" lon="14.184312"></trkpt>
      <trkpt lat="66.326967" lon="14.184300"></trkpt>
      <trkpt lat="66.326858" lon="14.184259"></trkpt>
      <trkpt lat="66.326842" lon="14.184484"></trkpt>
      <trkpt lat="66.326774" lon="14.185467"></trkpt>
      <trkpt lat="66.326745" lon="14.186026"></trkpt>
      <trkpt lat="66.326719" lon="14.186283"></trkpt>
      <trkpt lat="66.326688" lon="14.186878"></trkpt>
      <trkpt lat="66.326674" lon="14.187020"></trkpt>
      <trkpt lat="66.326650" lon="14.187158"></trkpt>
      <trkpt lat="66.326648" lon="14.187301"></trkpt>
      <trkpt lat="66.326641" lon="14.187337"></trkpt>
      <trkpt lat="66.326625" lon="14.187703"></trkpt>
      <trkpt lat="66.326545" lon="14.188764"></trkpt>
      <trkpt lat="66.326534" lon="14.188872"></trkpt>
      <trkpt lat="66.326521" lon="14.188928"></trkpt>
      <trkpt lat="66.326456" lon="14.188921"></trkpt>
      <trkpt lat="66.326140" lon="14.188802"></trkpt>
      <trkpt lat="66.325956" lon="14.188767"></trkpt>
      <trkpt lat="66.325867" lon="14.188755"></trkpt>
      <trkpt lat="66.325694" lon="14.188872"></trkpt>
      <trkpt lat="66.325527" lon="14.189029"></trkpt>
      <trkpt lat="66.325454" lon="14.189125"></trkpt>
      <trkpt lat="66.325242" lon="14.189268"></trkpt>
      <trkpt lat="66.325180" lon="14.189370"></trkpt>
      <trkpt lat="66.325168" lon="14.189387"></trkpt>
      <trkpt lat="66.325032" lon="14.189435"></trkpt>
      <trkpt lat="66.324949" lon="14.189463"></trkpt>
      <trkpt lat="66.324908" lon="14.189498"></trkpt>
      <trkpt lat="66.324942" lon="14.189707"></trkpt>
      <trkpt lat="66.325038" lon="14.190308"></trkpt>
      <trkpt lat="66.325061" lon="14.190463"></trkpt>
      <trkpt lat="66.325071" lon="14.190554"></trkpt>
      <trkpt lat="66.325146" lon="14.191044"></trkpt>
      <trkpt lat="66.325540" lon="14.193520"></trkpt>
      <trkpt lat="66.325582" lon="14.193796"></trkpt>
      <trkpt lat="66.325623" lon="14.194121"></trkpt>
      <trkpt lat="66.325653" lon="14.194351"></trkpt>
      <trkpt lat="66.325769" lon="14.194270"></trkpt>
      <trkpt lat="66.325894" lon="14.194140"></trkpt>
      <trkpt lat="66.326043" lon="14.194089"></trkpt>
      <trkpt lat="66.326200" lon="14.194029"></trkpt>
      <trkpt lat="66.326273" lon="14.194050"></trkpt>
      <trkpt lat="66.326325" lon="14.194099"></trkpt>
      <trkpt lat="66.326391" lon="14.194240"></trkpt>
      <trkpt lat="66.326421" lon="14.194378"></trkpt>
      <trkpt lat="66.326452" lon="14.194639"></trkpt>
      <trkpt lat="66.326549" lon="14.195695"></trkpt>
      <trkpt lat="66.326588" lon="14.196200"></trkpt>
      <trkpt lat="66.326639" lon="14.196682"></trkpt>
      <trkpt lat="66.326657" lon="14.196968"></trkpt>
      <trkpt lat="66.326701" lon="14.197267"></trkpt>
      <trkpt lat="66.326735" lon="14.197653"></trkpt>
      <trkpt lat="66.326811" lon="14.198163"></trkpt>
      <trkpt lat="66.326804" lon="14.198179"></trkpt>
      <trkpt lat="66.326806" lon="14.198429"></trkpt>
      <trkpt lat="66.326834" lon="14.198567"></trkpt>
      <trkpt lat="66.326894" lon="14.198694"></trkpt>
      <trkpt lat="66.327140" lon="14.198965"></trkpt>
      <trkpt lat="66.327197" lon="14.199080"></trkpt>
      <trkpt lat="66.327256" lon="14.199261"></trkpt>
      <trkpt lat="66.327340" lon="14.199676"></trkpt>
      <trkpt lat="66.327441" lon="14.199918"></trkpt>
      <trkpt lat="66.327508" lon="14.200032"></trkpt>
      <trkpt lat="66.327785" lon="14.200461"></trkpt>
      <trkpt lat="66.327967" lon="14.200825"></trkpt>
      <trkpt lat="66.328004" lon="14.200788"></trkpt>
      <trkpt lat="66.328012" lon="14.200717"></trkpt>
      <trkpt lat="66.328011" lon="14.200554"></trkpt>
      <trkpt lat="66.327965" lon="14.200439"></trkpt>
      <trkpt lat="66.327856" lon="14.200253"></trkpt>
      <trkpt lat="66.327783" lon="14.200025"></trkpt>
      <trkpt lat="66.327759" lon="14.199861"></trkpt>
      <trkpt lat="66.327760" lon="14.199573"></trkpt>
      <trkpt lat="66.327767" lon="14.199528"></trkpt>
      <trkpt lat="66.327796" lon="14.199445"></trkpt>
      <trkpt lat="66.327851" lon="14.199356"></trkpt>
      <trkpt lat="66.327946" lon="14.199337"></trkpt>
      <trkpt lat="66.328025" lon="14.199359"></trkpt>
      <trkpt lat="66.328086" lon="14.199415"></trkpt>
      <trkpt lat="66.328279" lon="14.199732"></trkpt>
      <trkpt lat="66.328347" lon="14.199847"></trkpt>
      <trkpt lat="66.328369" lon="14.199864"></trkpt>
      <trkpt lat="66.328450" lon="14.199867"></trkpt>
      <trkpt lat="66.328537" lon="14.199827"></trkpt>
      <trkpt lat="66.328885" lon="14.199531"></trkpt>
      <trkpt lat="66.329275" lon="14.199255"></trkpt>
      <trkpt lat="66.329455" lon="14.199182"></trkpt>
      <trkpt lat="66.329608" lon="14.199133"></trkpt>
      <trkpt lat="66.329776" lon="14.199138"></trkpt>
      <trkpt lat="66.329984" lon="14.199193"></trkpt>
      <trkpt lat="66.330169" lon="14.199282"></trkpt>
      <trkpt lat="66.330268" lon="14.199370"></trkpt>
      <trkpt lat="66.330445" lon="14.199595"></trkpt>
      <trkpt lat="66.330646" lon="14.199905"></trkpt>
      <trkpt lat="66.330809" lon="14.200082"></trkpt>
      <trkpt lat="66.331155" lon="14.200434"></trkpt>
      <trkpt lat="66.331349" lon="14.200539"></trkpt>
      <trkpt lat="66.331504" lon="14.200655"></trkpt>
      <trkpt lat="66.331683" lon="14.200861"></trkpt>
      <trkpt lat="66.331847" lon="14.201142"></trkpt>
      <trkpt lat="66.331901" lon="14.201272"></trkpt>
      <trkpt lat="66.332006" lon="14.201784"></trkpt>
      <trkpt lat="66.332051" lon="14.202127"></trkpt>
      <trkpt lat="66.332114" lon="14.202466"></trkpt>
      <trkpt lat="66.332203" lon="14.202657"></trkpt>
      <trkpt lat="66.332271" lon="14.202655"></trkpt>
      <trkpt lat="66.332364" lon="14.202503"></trkpt>
      <trkpt lat="66.332409" lon="14.202276"></trkpt>
      <trkpt lat="66.332435" lon="14.202114"></trkpt>
      <trkpt lat="66.332604" lon="14.200789"></trkpt>
      <trkpt lat="66.332710" lon="14.200199"></trkpt>
      <trkpt lat="66.332753" lon="14.199999"></trkpt>
      <trkpt lat="66.332813" lon="14.199468"></trkpt>
      <trkpt lat="66.332845" lon="14.199340"></trkpt>
      <trkpt lat="66.332880" lon="14.199265"></trkpt>
      <trkpt lat="66.332911" lon="14.199239"></trkpt>
      <trkpt lat="66.332968" lon="14.199240"></trkpt>
      <trkpt lat="66.332998" lon="14.199270"></trkpt>
      <trkpt lat="66.333037" lon="14.199351"></trkpt>
      <trkpt lat="66.333098" lon="14.199588"></trkpt>
      <trkpt lat="66.333163" lon="14.199975"></trkpt>
      <trkpt lat="66.333291" lon="14.200323"></trkpt>
      <trkpt lat="66.333402" lon="14.200715"></trkpt>
      <trkpt lat="66.333477" lon="14.201117"></trkpt>
      <trkpt lat="66.333543" lon="14.201637"></trkpt>
      <trkpt lat="66.333566" lon="14.201741"></trkpt>
      <trkpt lat="66.333602" lon="14.201832"></trkpt>
      <trkpt lat="66.333646" lon="14.201819"></trkpt>
      <trkpt lat="66.333667" lon="14.201787"></trkpt>
      <trkpt lat="66.333710" lon="14.201627"></trkpt>
      <trkpt lat="66.333755" lon="14.201391"></trkpt>
      <trkpt lat="66.333849" lon="14.200625"></trkpt>
      <trkpt lat="66.333893" lon="14.200340"></trkpt>
      <trkpt lat="66.333906" lon="14.200237"></trkpt>
      <trkpt lat="66.333918" lon="14.200068"></trkpt>
      <trkpt lat="66.333984" lon="14.199120"></trkpt>
      <trkpt lat="66.334020" lon="14.198929"></trkpt>
      <trkpt lat="66.334076" lon="14.198751"></trkpt>
      <trkpt lat="66.334165" lon="14.198617"></trkpt>
      <trkpt lat="66.334247" lon="14.198594"></trkpt>
      <trkpt lat="66.334278" lon="14.198613"></trkpt>
      <trkpt lat="66.334344" lon="14.198763"></trkpt>
      <trkpt lat="66.334345" lon="14.198873"></trkpt>
      <trkpt lat="66.334326" lon="14.199475"></trkpt>
      <trkpt lat="66.334330" lon="14.199800"></trkpt>
      <trkpt lat="66.334336" lon="14.199976"></trkpt>
      <trkpt lat="66.334370" lon="14.200563"></trkpt>
      <trkpt lat="66.334379" lon="14.200832"></trkpt>
      <trkpt lat="66.334377" lon="14.201005"></trkpt>
      <trkpt lat="66.334349" lon="14.201708"></trkpt>
      <trkpt lat="66.334352" lon="14.202018"></trkpt>
      <trkpt lat="66.334365" lon="14.202164"></trkpt>
      <trkpt lat="66.334383" lon="14.202283"></trkpt>
      <trkpt lat="66.334401" lon="14.202349"></trkpt>
      <trkpt lat="66.334426" lon="14.202400"></trkpt>
      <trkpt lat="66.334462" lon="14.202430"></trkpt>
      <trkpt lat="66.334499" lon="14.202433"></trkpt>
      <trkpt lat="66.334526" lon="14.202404"></trkpt>
      <trkpt lat="66.334560" lon="14.202312"></trkpt>
      <trkpt lat="66.334589" lon="14.202175"></trkpt>
      <trkpt lat="66.334602" lon="14.202077"></trkpt>
      <trkpt lat="66.334641" lon="14.201695"></trkpt>
      <trkpt lat="66.334656" lon="14.201591"></trkpt>
      <trkpt lat="66.334681" lon="14.201502"></trkpt>
      <trkpt lat="66.334724" lon="14.201413"></trkpt>
      <trkpt lat="66.334855" lon="14.201226"></trkpt>
      <trkpt lat="66.334913" lon="14.201113"></trkpt>
      <trkpt lat="66.334991" lon="14.200909"></trkpt>
      <trkpt lat="66.335047" lon="14.200748"></trkpt>
      <trkpt lat="66.335092" lon="14.200671"></trkpt>
      <trkpt lat="66.335128" lon="14.200633"></trkpt>
      <trkpt lat="66.335168" lon="14.200609"></trkpt>
      <trkpt lat="66.335191" lon="14.200606"></trkpt>
      <trkpt lat="66.335220" lon="14.200633"></trkpt>
      <trkpt lat="66.335376" lon="14.200954"></trkpt>
      <trkpt lat="66.335421" lon="14.201002"></trkpt>
      <trkpt lat="66.335451" lon="14.201017"></trkpt>
      <trkpt lat="66.335485" lon="14.201017"></trkpt>
      <trkpt lat="66.335511" lon="14.200997"></trkpt>
      <trkpt lat="66.335537" lon="14.200946"></trkpt>
      <trkpt lat="66.335568" lon="14.200857"></trkpt>
      <trkpt lat="66.335600" lon="14.200705"></trkpt>
      <trkpt lat="66.335702" lon="14.199970"></trkpt>
      <trkpt lat="66.335719" lon="14.199815"></trkpt>
      <trkpt lat="66.335724" lon="14.199687"></trkpt>
      <trkpt lat="66.335712" lon="14.199156"></trkpt>
      <trkpt lat="66.335710" lon="14.198924"></trkpt>
      <trkpt lat="66.335765" lon="14.198250"></trkpt>
      <trkpt lat="66.335775" lon="14.197881"></trkpt>
      <trkpt lat="66.335785" lon="14.197183"></trkpt>
      <trkpt lat="66.335797" lon="14.196933"></trkpt>
      <trkpt lat="66.335803" lon="14.196498"></trkpt>
      <trkpt lat="66.335799" lon="14.195869"></trkpt>
      <trkpt lat="66.335812" lon="14.195422"></trkpt>
      <trkpt lat="66.335821" lon="14.194975"></trkpt>
      <trkpt lat="66.335819" lon="14.194748"></trkpt>
      <trkpt lat="66.335812" lon="14.194593"></trkpt>
      <trkpt lat="66.335825" lon="14.194456"></trkpt>
      <trkpt lat="66.335855" lon="14.194308"></trkpt>
      <trkpt lat="66.335920" lon="14.194024"></trkpt>
      <trkpt lat="66.335986" lon="14.193743"></trkpt>
      <trkpt lat="66.336059" lon="14.193451"></trkpt>
      <trkpt lat="66.336091" lon="14.193380"></trkpt>
      <trkpt lat="66.336118" lon="14.193339"></trkpt>
      <trkpt lat="66.336148" lon="14.193333"></trkpt>
      <trkpt lat="66.336169" lon="14.193342"></trkpt>
      <trkpt lat="66.336200" lon="14.193426"></trkpt>
      <trkpt lat="66.336232" lon="14.193664"></trkpt>
      <trkpt lat="66.336246" lon="14.193811"></trkpt>
      <trkpt lat="66.336257" lon="14.194213"></trkpt>
      <trkpt lat="66.336266" lon="14.194306"></trkpt>
      <trkpt lat="66.336287" lon="14.194368"></trkpt>
      <trkpt lat="66.336310" lon="14.194387"></trkpt>
      <trkpt lat="66.336358" lon="14.194390"></trkpt>
      <trkpt lat="66.336392" lon="14.194381"></trkpt>
      <trkpt lat="66.336410" lon="14.194358"></trkpt>
      <trkpt lat="66.336437" lon="14.194298"></trkpt>
      <trkpt lat="66.336464" lon="14.194194"></trkpt>
      <trkpt lat="66.336500" lon="14.193875"></trkpt>
      <trkpt lat="66.336532" lon="14.193646"></trkpt>
      <trkpt lat="66.336572" lon="14.193444"></trkpt>
      <trkpt lat="66.336615" lon="14.193295"></trkpt>
      <trkpt lat="66.336688" lon="14.193096"></trkpt>
      <trkpt lat="66.336827" lon="14.192787"></trkpt>
      <trkpt lat="66.336907" lon="14.192597"></trkpt>
      <trkpt lat="66.336983" lon="14.192404"></trkpt>
      <trkpt lat="66.337135" lon="14.191892"></trkpt>
      <trkpt lat="66.337165" lon="14.191827"></trkpt>
      <trkpt lat="66.337227" lon="14.191780"></trkpt>
      <trkpt lat="66.337288" lon="14.191795"></trkpt>
      <trkpt lat="66.337319" lon="14.191831"></trkpt>
      <trkpt lat="66.337343" lon="14.191891"></trkpt>
      <trkpt lat="66.337369" lon="14.191975"></trkpt>
      <trkpt lat="66.337424" lon="14.192238"></trkpt>
      <trkpt lat="66.337461" lon="14.192456"></trkpt>
      <trkpt lat="66.337501" lon="14.192637"></trkpt>
      <trkpt lat="66.337561" lon="14.192916"></trkpt>
      <trkpt lat="66.337629" lon="14.193323"></trkpt>
      <trkpt lat="66.337646" lon="14.193695"></trkpt>
      <trkpt lat="66.337639" lon="14.194233"></trkpt>
      <trkpt lat="66.337613" lon="14.194505"></trkpt>
      <trkpt lat="66.337582" lon="14.194845"></trkpt>
      <trkpt lat="66.337578" lon="14.195041"></trkpt>
      <trkpt lat="66.337591" lon="14.195316"></trkpt>
      <trkpt lat="66.337612" lon="14.195522"></trkpt>
      <trkpt lat="66.337633" lon="14.195671"></trkpt>
      <trkpt lat="66.337764" lon="14.196277"></trkpt>
      <trkpt lat="66.337811" lon="14.196573"></trkpt>
      <trkpt lat="66.337845" lon="14.196984"></trkpt>
      <trkpt lat="66.337883" lon="14.197593"></trkpt>
      <trkpt lat="66.337891" lon="14.197822"></trkpt>
      <trkpt lat="66.337887" lon="14.198097"></trkpt>
      <trkpt lat="66.337862" lon="14.198317"></trkpt>
      <trkpt lat="66.337836" lon="14.198433"></trkpt>
      <trkpt lat="66.337773" lon="14.198617"></trkpt>
      <trkpt lat="66.337650" lon="14.198941"></trkpt>
      <trkpt lat="66.337591" lon="14.199117"></trkpt>
      <trkpt lat="66.337550" lon="14.199352"></trkpt>
      <trkpt lat="66.337531" lon="14.199551"></trkpt>
      <trkpt lat="66.337535" lon="14.199727"></trkpt>
      <trkpt lat="66.337567" lon="14.200595"></trkpt>
      <trkpt lat="66.337573" lon="14.200855"></trkpt>
      <trkpt lat="66.337569" lon="14.201090"></trkpt>
      <trkpt lat="66.337546" lon="14.201367"></trkpt>
      <trkpt lat="66.337511" lon="14.201566"></trkpt>
      <trkpt lat="66.337496" lon="14.201697"></trkpt>
      <trkpt lat="66.337498" lon="14.201826"></trkpt>
      <trkpt lat="66.337517" lon="14.201999"></trkpt>
      <trkpt lat="66.337580" lon="14.202360"></trkpt>
      <trkpt lat="66.337634" lon="14.202637"></trkpt>
      <trkpt lat="66.337661" lon="14.202855"></trkpt>
      <trkpt lat="66.337672" lon="14.202980"></trkpt>
      <trkpt lat="66.337673" lon="14.203132"></trkpt>
      <trkpt lat="66.337663" lon="14.203260"></trkpt>
      <trkpt lat="66.337648" lon="14.203353"></trkpt>
      <trkpt lat="66.337626" lon="14.203433"></trkpt>
      <trkpt lat="66.337593" lon="14.203510"></trkpt>
      <trkpt lat="66.337561" lon="14.203564"></trkpt>
      <trkpt lat="66.337518" lon="14.203608"></trkpt>
      <trkpt lat="66.337471" lon="14.203634"></trkpt>
      <trkpt lat="66.337399" lon="14.203652"></trkpt>
      <trkpt lat="66.337283" lon="14.203657"></trkpt>
      <trkpt lat="66.337216" lon="14.203680"></trkpt>
      <trkpt lat="66.337177" lon="14.203721"></trkpt>
      <trkpt lat="66.337110" lon="14.203843"></trkpt>
      <trkpt lat="66.336929" lon="14.204244"></trkpt>
      <trkpt lat="66.336907" lon="14.204336"></trkpt>
      <trkpt lat="66.336890" lon="14.204553"></trkpt>
      <trkpt lat="66.336870" lon="14.205066"></trkpt>
      <trkpt lat="66.336870" lon="14.205085"></trkpt>
      <trkpt lat="66.336867" lon="14.205257"></trkpt>
      <trkpt lat="66.336921" lon="14.206029"></trkpt>
      <trkpt lat="66.336944" lon="14.206292"></trkpt>
      <trkpt lat="66.336955" lon="14.206504"></trkpt>
      <trkpt lat="66.336964" lon="14.206688"></trkpt>
      <trkpt lat="66.336963" lon="14.206858"></trkpt>
      <trkpt lat="66.336957" lon="14.207082"></trkpt>
      <trkpt lat="66.336835" lon="14.208512"></trkpt>
      <trkpt lat="66.336799" lon="14.208881"></trkpt>
      <trkpt lat="66.336766" lon="14.209307"></trkpt>
      <trkpt lat="66.336735" lon="14.209560"></trkpt>
      <trkpt lat="66.336733" lon="14.209804"></trkpt>
      <trkpt lat="66.336756" lon="14.210091"></trkpt>
      <trkpt lat="66.336768" lon="14.210389"></trkpt>
      <trkpt lat="66.336799" lon="14.210702"></trkpt>
      <trkpt lat="66.336861" lon="14.211466"></trkpt>
      <trkpt lat="66.336932" lon="14.212683"></trkpt>
      <trkpt lat="66.336954" lon="14.213357"></trkpt>
      <trkpt lat="66.336944" lon="14.213485"></trkpt>
      <trkpt lat="66.336885" lon="14.213875"></trkpt>
      <trkpt lat="66.336878" lon="14.213982"></trkpt>
      <trkpt lat="66.336879" lon="14.214072"></trkpt>
      <trkpt lat="66.336892" lon="14.214343"></trkpt>
      <trkpt lat="66.336872" lon="14.215112"></trkpt>
      <trkpt lat="66.336850" lon="14.215559"></trkpt>
      <trkpt lat="66.336853" lon="14.215985"></trkpt>
      <trkpt lat="66.336891" lon="14.217032"></trkpt>
      <trkpt lat="66.336926" lon="14.217363"></trkpt>
      <trkpt lat="66.336973" lon="14.217647"></trkpt>
      <trkpt lat="66.337000" lon="14.217778"></trkpt>
      <trkpt lat="66.337057" lon="14.217955"></trkpt>
      <trkpt lat="66.337122" lon="14.218099"></trkpt>
      <trkpt lat="66.337200" lon="14.218245"></trkpt>
      <trkpt lat="66.337280" lon="14.218344"></trkpt>
      <trkpt lat="66.337354" lon="14.218411"></trkpt>
      <trkpt lat="66.337482" lon="14.218466"></trkpt>
      <trkpt lat="66.337637" lon="14.218500"></trkpt>
      <trkpt lat="66.337716" lon="14.218560"></trkpt>
      <trkpt lat="66.337859" lon="14.218702"></trkpt>
      <trkpt lat="66.337878" lon="14.218705"></trkpt>
      <trkpt lat="66.337905" lon="14.218687"></trkpt>
      <trkpt lat="66.337924" lon="14.218646"></trkpt>
      <trkpt lat="66.337946" lon="14.218571"></trkpt>
      <trkpt lat="66.338025" lon="14.218191"></trkpt>
      <trkpt lat="66.338042" lon="14.218084"></trkpt>
      <trkpt lat="66.338052" lon="14.217973"></trkpt>
      <trkpt lat="66.338065" lon="14.217628"></trkpt>
      <trkpt lat="66.338073" lon="14.217523"></trkpt>
      <trkpt lat="66.338138" lon="14.217235"></trkpt>
      <trkpt lat="66.338186" lon="14.217056"></trkpt>
      <trkpt lat="66.338259" lon="14.216887"></trkpt>
      <trkpt lat="66.338399" lon="14.216623"></trkpt>
      <trkpt lat="66.338428" lon="14.216555"></trkpt>
      <trkpt lat="66.338455" lon="14.216445"></trkpt>
      <trkpt lat="66.338487" lon="14.216105"></trkpt>
      <trkpt lat="66.338527" lon="14.215801"></trkpt>
      <trkpt lat="66.338552" lon="14.215659"></trkpt>
      <trkpt lat="66.338586" lon="14.215572"></trkpt>
      <trkpt lat="66.338619" lon="14.215522"></trkpt>
      <trkpt lat="66.338672" lon="14.215484"></trkpt>
      <trkpt lat="66.338772" lon="14.215476"></trkpt>
      <trkpt lat="66.338825" lon="14.215459"></trkpt>
      <trkpt lat="66.338865" lon="14.215417"></trkpt>
      <trkpt lat="66.338913" lon="14.215343"></trkpt>
      <trkpt lat="66.338956" lon="14.215266"></trkpt>
      <trkpt lat="66.339000" lon="14.215219"></trkpt>
      <trkpt lat="66.339099" lon="14.215163"></trkpt>
      <trkpt lat="66.339241" lon="14.215060"></trkpt>
      <trkpt lat="66.339275" lon="14.215003"></trkpt>
      <trkpt lat="66.339304" lon="14.214920"></trkpt>
      <trkpt lat="66.339333" lon="14.214691"></trkpt>
      <trkpt lat="66.339361" lon="14.214512"></trkpt>
      <trkpt lat="66.339388" lon="14.214396"></trkpt>
      <trkpt lat="66.339412" lon="14.214322"></trkpt>
      <trkpt lat="66.339458" lon="14.214257"></trkpt>
      <trkpt lat="66.339487" lon="14.214245"></trkpt>
      <trkpt lat="66.339508" lon="14.214257"></trkpt>
      <trkpt lat="66.339529" lon="14.214308"></trkpt>
      <trkpt lat="66.339539" lon="14.214386"></trkpt>
      <trkpt lat="66.339539" lon="14.214758"></trkpt>
      <trkpt lat="66.339549" lon="14.214941"></trkpt>
      <trkpt lat="66.339623" lon="14.215391"></trkpt>
      <trkpt lat="66.339729" lon="14.215962"></trkpt>
      <trkpt lat="66.339844" lon="14.216526"></trkpt>
      <trkpt lat="66.339881" lon="14.216685"></trkpt>
      <trkpt lat="66.339946" lon="14.216867"></trkpt>
      <trkpt lat="66.339881" lon="14.216685"></trkpt>
      <trkpt lat="66.339844" lon="14.216526"></trkpt>
      <trkpt lat="66.339729" lon="14.215962"></trkpt>
      <trkpt lat="66.339623" lon="14.215391"></trkpt>
      <trkpt lat="66.339549" lon="14.214941"></trkpt>
      <trkpt lat="66.339539" lon="14.214758"></trkpt>
      <trkpt lat="66.339539" lon="14.214386"></trkpt>
      <trkpt lat="66.339529" lon="14.214308"></trkpt>
      <trkpt lat="66.339508" lon="14.214257"></trkpt>
      <trkpt lat="66.339487" lon="14.214245"></trkpt>
      <trkpt lat="66.339458" lon="14.214257"></trkpt>
      <trkpt lat="66.339412" lon="14.214322"></trkpt>
      <trkpt lat="66.339388" lon="14.214396"></trkpt>
      <trkpt lat="66.339361" lon="14.214512"></trkpt>
      <trkpt lat="66.339333" lon="14.214691"></trkpt>
      <trkpt lat="66.339304" lon="14.214920"></trkpt>
      <trkpt lat="66.339275" lon="14.215003"></trkpt>
      <trkpt lat="66.339241" lon="14.215060"></trkpt>
      <trkpt lat="66.339099" lon="14.215163"></trkpt>
      <trkpt lat="66.339000" lon="14.215219"></trkpt>
      <trkpt lat="66.338956" lon="14.215266"></trkpt>
      <trkpt lat="66.338913" lon="14.215343"></trkpt>
      <trkpt lat="66.338865" lon="14.215417"></trkpt>
      <trkpt lat="66.338825" lon="14.215459"></trkpt>
      <trkpt lat="66.338772" lon="14.215476"></trkpt>
      <trkpt lat="66.338672" lon="14.215484"></trkpt>
      <trkpt lat="66.338619" lon="14.215522"></trkpt>
      <trkpt lat="66.338586" lon="14.215572"></trkpt>
      <trkpt lat="66.338552" lon="14.215659"></trkpt>
      <trkpt lat="66.338527" lon="14.215801"></trkpt>
      <trkpt lat="66.338487" lon="14.216105"></trkpt>
      <trkpt lat="66.338455" lon="14.216445"></trkpt>
      <trkpt lat="66.338428" lon="14.216555"></trkpt>
      <trkpt lat="66.338399" lon="14.216623"></trkpt>
      <trkpt lat="66.338259" lon="14.216887"></trkpt>
      <trkpt lat="66.338186" lon="14.217056"></trkpt>
      <trkpt lat="66.338138" lon="14.217235"></trkpt>
      <trkpt lat="66.338073" lon="14.217523"></trkpt>
      <trkpt lat="66.338065" lon="14.217628"></trkpt>
      <trkpt lat="66.338052" lon="14.217973"></trkpt>
      <trkpt lat="66.338042" lon="14.218084"></trkpt>
      <trkpt lat="66.338025" lon="14.218191"></trkpt>
      <trkpt lat="66.337946" lon="14.218571"></trkpt>
      <trkpt lat="66.337924" lon="14.218646"></trkpt>
      <trkpt lat="66.337905" lon="14.218687"></trkpt>
      <trkpt lat="66.337878" lon="14.218705"></trkpt>
      <trkpt lat="66.337859" lon="14.218702"></trkpt>
      <trkpt lat="66.337716" lon="14.218560"></trkpt>
      <trkpt lat="66.337637" lon="14.218500"></trkpt>
      <trkpt lat="66.337482" lon="14.218466"></trkpt>
      <trkpt lat="66.337354" lon="14.218411"></trkpt>
      <trkpt lat="66.337280" lon="14.218344"></trkpt>
      <trkpt lat="66.337200" lon="14.218245"></trkpt>
      <trkpt lat="66.337122" lon="14.218099"></trkpt>
      <trkpt lat="66.337057" lon="14.217955"></trkpt>
      <trkpt lat="66.337000" lon="14.217778"></trkpt>
      <trkpt lat="66.336973" lon="14.217647"></trkpt>
      <trkpt lat="66.336926" lon="14.217363"></trkpt>
      <trkpt lat="66.336891" lon="14.217032"></trkpt>
      <trkpt lat="66.336853" lon="14.215985"></trkpt>
      <trkpt lat="66.336850" lon="14.215559"></trkpt>
      <trkpt lat="66.336872" lon="14.215112"></trkpt>
      <trkpt lat="66.336892" lon="14.214343"></trkpt>
      <trkpt lat="66.336879" lon="14.214072"></trkpt>
      <trkpt lat="66.336878" lon="14.213982"></trkpt>
      <trkpt lat="66.336885" lon="14.213875"></trkpt>
      <trkpt lat="66.336944" lon="14.213485"></trkpt>
      <trkpt lat="66.336954" lon="14.213357"></trkpt>
      <trkpt lat="66.336932" lon="14.212683"></trkpt>
      <trkpt lat="66.336861" lon="14.211466"></trkpt>
      <trkpt lat="66.336799" lon="14.210702"></trkpt>
      <trkpt lat="66.336768" lon="14.210389"></trkpt>
      <trkpt lat="66.336756" lon="14.210091"></trkpt>
      <trkpt lat="66.336733" lon="14.209804"></trkpt>
      <trkpt lat="66.336735" lon="14.209560"></trkpt>
      <trkpt lat="66.336766" lon="14.209307"></trkpt>
      <trkpt lat="66.336799" lon="14.208881"></trkpt>
      <trkpt lat="66.336835" lon="14.208512"></trkpt>
      <trkpt lat="66.336957" lon="14.207082"></trkpt>
      <trkpt lat="66.336963" lon="14.206858"></trkpt>
      <trkpt lat="66.336964" lon="14.206688"></trkpt>
      <trkpt lat="66.336955" lon="14.206504"></trkpt>
      <trkpt lat="66.336944" lon="14.206292"></trkpt>
      <trkpt lat="66.336921" lon="14.206029"></trkpt>
      <trkpt lat="66.336867" lon="14.205257"></trkpt>
      <trkpt lat="66.336870" lon="14.205066"></trkpt>
      <trkpt lat="66.336890" lon="14.204553"></trkpt>
      <trkpt lat="66.336907" lon="14.204336"></trkpt>
      <trkpt lat="66.336929" lon="14.204244"></trkpt>
      <trkpt lat="66.337110" lon="14.203843"></trkpt>
      <trkpt lat="66.337177" lon="14.203721"></trkpt>
      <trkpt lat="66.337216" lon="14.203680"></trkpt>
      <trkpt lat="66.337283" lon="14.203657"></trkpt>
      <trkpt lat="66.337399" lon="14.203652"></trkpt>
      <trkpt lat="66.337471" lon="14.203634"></trkpt>
      <trkpt lat="66.337518" lon="14.203608"></trkpt>
      <trkpt lat="66.337561" lon="14.203564"></trkpt>
      <trkpt lat="66.337593" lon="14.203510"></trkpt>
      <trkpt lat="66.337626" lon="14.203433"></trkpt>
      <trkpt lat="66.337648" lon="14.203353"></trkpt>
      <trkpt lat="66.337663" lon="14.203260"></trkpt>
      <trkpt lat="66.337673" lon="14.203132"></trkpt>
      <trkpt lat="66.337672" lon="14.202980"></trkpt>
      <trkpt lat="66.337661" lon="14.202855"></trkpt>
      <trkpt lat="66.337634" lon="14.202637"></trkpt>
      <trkpt lat="66.337580" lon="14.202360"></trkpt>
      <trkpt lat="66.337517" lon="14.201999"></trkpt>
      <trkpt lat="66.337498" lon="14.201826"></trkpt>
      <trkpt lat="66.337496" lon="14.201697"></trkpt>
      <trkpt lat="66.337511" lon="14.201566"></trkpt>
      <trkpt lat="66.337546" lon="14.201367"></trkpt>
      <trkpt lat="66.337569" lon="14.201090"></trkpt>
      <trkpt lat="66.337573" lon="14.200855"></trkpt>
      <trkpt lat="66.337567" lon="14.200595"></trkpt>
      <trkpt lat="66.337535" lon="14.199727"></trkpt>
      <trkpt lat="66.337531" lon="14.199551"></trkpt>
      <trkpt lat="66.337550" lon="14.199352"></trkpt>
      <trkpt lat="66.337591" lon="14.199117"></trkpt>
      <trkpt lat="66.337650" lon="14.198941"></trkpt>
      <trkpt lat="66.337773" lon="14.198617"></trkpt>
      <trkpt lat="66.337836" lon="14.198433"></trkpt>
      <trkpt lat="66.337862" lon="14.198317"></trkpt>
      <trkpt lat="66.337887" lon="14.198097"></trkpt>
      <trkpt lat="66.337891" lon="14.197822"></trkpt>
      <trkpt lat="66.337883" lon="14.197593"></trkpt>
      <trkpt lat="66.337845" lon="14.196984"></trkpt>
      <trkpt lat="66.337811" lon="14.196573"></trkpt>
      <trkpt lat="66.337764" lon="14.196277"></trkpt>
      <trkpt lat="66.337633" lon="14.195671"></trkpt>
      <trkpt lat="66.337612" lon="14.195522"></trkpt>
      <trkpt lat="66.337591" lon="14.195316"></trkpt>
      <trkpt lat="66.337578" lon="14.195041"></trkpt>
      <trkpt lat="66.337582" lon="14.194845"></trkpt>
      <trkpt lat="66.337613" lon="14.194505"></trkpt>
      <trkpt lat="66.337639" lon="14.194233"></trkpt>
      <trkpt lat="66.337646" lon="14.193695"></trkpt>
      <trkpt lat="66.337629" lon="14.193323"></trkpt>
      <trkpt lat="66.337561" lon="14.192916"></trkpt>
      <trkpt lat="66.337501" lon="14.192637"></trkpt>
      <trkpt lat="66.337461" lon="14.192456"></trkpt>
      <trkpt lat="66.337424" lon="14.192238"></trkpt>
      <trkpt lat="66.337369" lon="14.191975"></trkpt>
      <trkpt lat="66.337343" lon="14.191891"></trkpt>
      <trkpt lat="66.337319" lon="14.191831"></trkpt>
      <trkpt lat="66.337288" lon="14.191795"></trkpt>
      <trkpt lat="66.337227" lon="14.191780"></trkpt>
      <trkpt lat="66.337165" lon="14.191827"></trkpt>
      <trkpt lat="66.337135" lon="14.191892"></trkpt>
      <trkpt lat="66.336983" lon="14.192404"></trkpt>
      <trkpt lat="66.336907" lon="14.192597"></trkpt>
      <trkpt lat="66.336827" lon="14.192787"></trkpt>
      <trkpt lat="66.336688" lon="14.193096"></trkpt>
      <trkpt lat="66.336615" lon="14.193295"></trkpt>
      <trkpt lat="66.336572" lon="14.193444"></trkpt>
      <trkpt lat="66.336532" lon="14.193646"></trkpt>
      <trkpt lat="66.336500" lon="14.193875"></trkpt>
      <trkpt lat="66.336464" lon="14.194194"></trkpt>
      <trkpt lat="66.336437" lon="14.194298"></trkpt>
      <trkpt lat="66.336410" lon="14.194358"></trkpt>
      <trkpt lat="66.336392" lon="14.194381"></trkpt>
      <trkpt lat="66.336358" lon="14.194390"></trkpt>
      <trkpt lat="66.336310" lon="14.194387"></trkpt>
      <trkpt lat="66.336287" lon="14.194368"></trkpt>
      <trkpt lat="66.336266" lon="14.194306"></trkpt>
      <trkpt lat="66.336257" lon="14.194213"></trkpt>
      <trkpt lat="66.336246" lon="14.193811"></trkpt>
      <trkpt lat="66.336232" lon="14.193664"></trkpt>
      <trkpt lat="66.336200" lon="14.193426"></trkpt>
      <trkpt lat="66.336169" lon="14.193342"></trkpt>
      <trkpt lat="66.336148" lon="14.193333"></trkpt>
      <trkpt lat="66.336118" lon="14.193339"></trkpt>
      <trkpt lat="66.336091" lon="14.193380"></trkpt>
      <trkpt lat="66.336059" lon="14.193451"></trkpt>
      <trkpt lat="66.335986" lon="14.193743"></trkpt>
      <trkpt lat="66.335920" lon="14.194024"></trkpt>
      <trkpt lat="66.335855" lon="14.194308"></trkpt>
      <trkpt lat="66.335825" lon="14.194456"></trkpt>
      <trkpt lat="66.335812" lon="14.194593"></trkpt>
      <trkpt lat="66.335819" lon="14.194748"></trkpt>
      <trkpt lat="66.335821" lon="14.194975"></trkpt>
      <trkpt lat="66.335812" lon="14.195422"></trkpt>
      <trkpt lat="66.335799" lon="14.195869"></trkpt>
      <trkpt lat="66.335803" lon="14.196498"></trkpt>
      <trkpt lat="66.335797" lon="14.196933"></trkpt>
      <trkpt lat="66.335785" lon="14.197183"></trkpt>
      <trkpt lat="66.335775" lon="14.197881"></trkpt>
      <trkpt lat="66.335765" lon="14.198250"></trkpt>
      <trkpt lat="66.335710" lon="14.198924"></trkpt>
      <trkpt lat="66.335712" lon="14.199156"></trkpt>
      <trkpt lat="66.335724" lon="14.199687"></trkpt>
      <trkpt lat="66.335719" lon="14.199815"></trkpt>
      <trkpt lat="66.335702" lon="14.199970"></trkpt>
      <trkpt lat="66.335600" lon="14.200705"></trkpt>
      <trkpt lat="66.335568" lon="14.200857"></trkpt>
      <trkpt lat="66.335537" lon="14.200946"></trkpt>
      <trkpt lat="66.335511" lon="14.200997"></trkpt>
      <trkpt lat="66.335485" lon="14.201017"></trkpt>
      <trkpt lat="66.335451" lon="14.201017"></trkpt>
      <trkpt lat="66.335421" lon="14.201002"></trkpt>
      <trkpt lat="66.335376" lon="14.200954"></trkpt>
      <trkpt lat="66.335220" lon="14.200633"></trkpt>
      <trkpt lat="66.335191" lon="14.200606"></trkpt>
      <trkpt lat="66.335168" lon="14.200609"></trkpt>
      <trkpt lat="66.335128" lon="14.200633"></trkpt>
      <trkpt lat="66.335092" lon="14.200671"></trkpt>
      <trkpt lat="66.335047" lon="14.200748"></trkpt>
      <trkpt lat="66.334991" lon="14.200909"></trkpt>
      <trkpt lat="66.334913" lon="14.201113"></trkpt>
      <trkpt lat="66.334855" lon="14.201226"></trkpt>
      <trkpt lat="66.334724" lon="14.201413"></trkpt>
      <trkpt lat="66.334681" lon="14.201502"></trkpt>
      <trkpt lat="66.334656" lon="14.201591"></trkpt>
      <trkpt lat="66.334641" lon="14.201695"></trkpt>
      <trkpt lat="66.334602" lon="14.202077"></trkpt>
      <trkpt lat="66.334589" lon="14.202175"></trkpt>
      <trkpt lat="66.334560" lon="14.202312"></trkpt>
      <trkpt lat="66.334526" lon="14.202404"></trkpt>
      <trkpt lat="66.334499" lon="14.202433"></trkpt>
      <trkpt lat="66.334462" lon="14.202430"></trkpt>
      <trkpt lat="66.334426" lon="14.202400"></trkpt>
      <trkpt lat="66.334401" lon="14.202349"></trkpt>
      <trkpt lat="66.334383" lon="14.202283"></trkpt>
      <trkpt lat="66.334365" lon="14.202164"></trkpt>
      <trkpt lat="66.334352" lon="14.202018"></trkpt>
      <trkpt lat="66.334349" lon="14.201708"></trkpt>
      <trkpt lat="66.334377" lon="14.201005"></trkpt>
      <trkpt lat="66.334379" lon="14.200832"></trkpt>
      <trkpt lat="66.334370" lon="14.200563"></trkpt>
      <trkpt lat="66.334336" lon="14.199976"></trkpt>
      <trkpt lat="66.334330" lon="14.199800"></trkpt>
      <trkpt lat="66.334326" lon="14.199475"></trkpt>
      <trkpt lat="66.334345" lon="14.198873"></trkpt>
      <trkpt lat="66.334344" lon="14.198763"></trkpt>
      <trkpt lat="66.334278" lon="14.198613"></trkpt>
      <trkpt lat="66.334247" lon="14.198594"></trkpt>
      <trkpt lat="66.334165" lon="14.198617"></trkpt>
      <trkpt lat="66.334076" lon="14.198751"></trkpt>
      <trkpt lat="66.334020" lon="14.198929"></trkpt>
      <trkpt lat="66.333984" lon="14.199120"></trkpt>
      <trkpt lat="66.333918" lon="14.200068"></trkpt>
      <trkpt lat="66.333906" lon="14.200237"></trkpt>
      <trkpt lat="66.333893" lon="14.200340"></trkpt>
      <trkpt lat="66.333849" lon="14.200625"></trkpt>
      <trkpt lat="66.333755" lon="14.201391"></trkpt>
      <trkpt lat="66.333710" lon="14.201627"></trkpt>
      <trkpt lat="66.333667" lon="14.201787"></trkpt>
      <trkpt lat="66.333646" lon="14.201819"></trkpt>
      <trkpt lat="66.333602" lon="14.201832"></trkpt>
      <trkpt lat="66.333566" lon="14.201741"></trkpt>
      <trkpt lat="66.333543" lon="14.201637"></trkpt>
      <trkpt lat="66.333477" lon="14.201117"></trkpt>
      <trkpt lat="66.333402" lon="14.200715"></trkpt>
      <trkpt lat="66.333291" lon="14.200323"></trkpt>
      <trkpt lat="66.333163" lon="14.199975"></trkpt>
      <trkpt lat="66.333098" lon="14.199588"></trkpt>
      <trkpt lat="66.333037" lon="14.199351"></trkpt>
      <trkpt lat="66.332998" lon="14.199270"></trkpt>
      <trkpt lat="66.332968" lon="14.199240"></trkpt>
      <trkpt lat="66.332911" lon="14.199239"></trkpt>
      <trkpt lat="66.332880" lon="14.199265"></trkpt>
      <trkpt lat="66.332845" lon="14.199340"></trkpt>
      <trkpt lat="66.332813" lon="14.199468"></trkpt>
      <trkpt lat="66.332753" lon="14.199999"></trkpt>
      <trkpt lat="66.332710" lon="14.200199"></trkpt>
      <trkpt lat="66.332604" lon="14.200789"></trkpt>
      <trkpt lat="66.332435" lon="14.202114"></trkpt>
      <trkpt lat="66.332409" lon="14.202276"></trkpt>
      <trkpt lat="66.332364" lon="14.202503"></trkpt>
      <trkpt lat="66.332271" lon="14.202655"></trkpt>
      <trkpt lat="66.332203" lon="14.202657"></trkpt>
      <trkpt lat="66.332114" lon="14.202466"></trkpt>
      <trkpt lat="66.332051" lon="14.202127"></trkpt>
      <trkpt lat="66.332006" lon="14.201784"></trkpt>
      <trkpt lat="66.331901" lon="14.201272"></trkpt>
      <trkpt lat="66.331847" lon="14.201142"></trkpt>
      <trkpt lat="66.331683" lon="14.200861"></trkpt>
      <trkpt lat="66.331504" lon="14.200655"></trkpt>
      <trkpt lat="66.331349" lon="14.200539"></trkpt>
      <trkpt lat="66.331155" lon="14.200434"></trkpt>
      <trkpt lat="66.330809" lon="14.200082"></trkpt>
      <trkpt lat="66.330646" lon="14.199905"></trkpt>
      <trkpt lat="66.330445" lon="14.199595"></trkpt>
      <trkpt lat="66.330268" lon="14.199370"></trkpt>
      <trkpt lat="66.330169" lon="14.199282"></trkpt>
      <trkpt lat="66.329984" lon="14.199193"></trkpt>
      <trkpt lat="66.329776" lon="14.199138"></trkpt>
      <trkpt lat="66.329608" lon="14.199133"></trkpt>
      <trkpt lat="66.329455" lon="14.199182"></trkpt>
      <trkpt lat="66.329275" lon="14.199255"></trkpt>
      <trkpt lat="66.328885" lon="14.199531"></trkpt>
      <trkpt lat="66.328537" lon="14.199827"></trkpt>
      <trkpt lat="66.328450" lon="14.199867"></trkpt>
      <trkpt lat="66.328369" lon="14.199864"></trkpt>
      <trkpt lat="66.328347" lon="14.199847"></trkpt>
      <trkpt lat="66.328279" lon="14.199732"></trkpt>
      <trkpt lat="66.328086" lon="14.199415"></trkpt>
      <trkpt lat="66.328025" lon="14.199359"></trkpt>
      <trkpt lat="66.327946" lon="14.199337"></trkpt>
      <trkpt lat="66.327851" lon="14.199356"></trkpt>
      <trkpt lat="66.327796" lon="14.199445"></trkpt>
      <trkpt lat="66.327767" lon="14.199528"></trkpt>
      <trkpt lat="66.327760" lon="14.199573"></trkpt>
      <trkpt lat="66.327759" lon="14.199861"></trkpt>
      <trkpt lat="66.327783" lon="14.200025"></trkpt>
      <trkpt lat="66.327856" lon="14.200253"></trkpt>
      <trkpt lat="66.327965" lon="14.200439"></trkpt>
      <trkpt lat="66.328011" lon="14.200554"></trkpt>
      <trkpt lat="66.328012" lon="14.200717"></trkpt>
      <trkpt lat="66.328004" lon="14.200788"></trkpt>
      <trkpt lat="66.327967" lon="14.200825"></trkpt>
      <trkpt lat="66.327785" lon="14.200461"></trkpt>
      <trkpt lat="66.327508" lon="14.200032"></trkpt>
      <trkpt lat="66.327441" lon="14.199918"></trkpt>
      <trkpt lat="66.327340" lon="14.199676"></trkpt>
      <trkpt lat="66.327256" lon="14.199261"></trkpt>
      <trkpt lat="66.327197" lon="14.199080"></trkpt>
      <trkpt lat="66.327140" lon="14.198965"></trkpt>
      <trkpt lat="66.326894" lon="14.198694"></trkpt>
      <trkpt lat="66.326834" lon="14.198567"></trkpt>
      <trkpt lat="66.326806" lon="14.198429"></trkpt>
      <trkpt lat="66.326804" lon="14.198179"></trkpt>
      <trkpt lat="66.326811" lon="14.198163"></trkpt>
      <trkpt lat="66.326735" lon="14.197653"></trkpt>
      <trkpt lat="66.326701" lon="14.197267"></trkpt>
      <trkpt lat="66.326657" lon="14.196968"></trkpt>
      <trkpt lat="66.326639" lon="14.196682"></trkpt>
      <trkpt lat="66.326588" lon="14.196200"></trkpt>
      <trkpt lat="66.326549" lon="14.195695"></trkpt>
      <trkpt lat="66.326452" lon="14.194639"></trkpt>
      <trkpt lat="66.326421" lon="14.194378"></trkpt>
      <trkpt lat="66.326391" lon="14.194240"></trkpt>
      <trkpt lat="66.326325" lon="14.194099"></trkpt>
      <trkpt lat="66.326273" lon="14.194050"></trkpt>
      <trkpt lat="66.326200" lon="14.194029"></trkpt>
      <trkpt lat="66.326043" lon="14.194089"></trkpt>
      <trkpt lat="66.325894" lon="14.194140"></trkpt>
      <trkpt lat="66.325759" lon="14.194132"></trkpt>
      <trkpt lat="66.325668" lon="14.194113"></trkpt>
      <trkpt lat="66.325623" lon="14.194121"></trkpt>
      <trkpt lat="66.325582" lon="14.193796"></trkpt>
      <trkpt lat="66.325540" lon="14.193520"></trkpt>
      <trkpt lat="66.325146" lon="14.191044"></trkpt>
      <trkpt lat="66.325071" lon="14.190554"></trkpt>
      <trkpt lat="66.325061" lon="14.190463"></trkpt>
      <trkpt lat="66.325038" lon="14.190308"></trkpt>
      <trkpt lat="66.324942" lon="14.189707"></trkpt>
      <trkpt lat="66.325054" lon="14.189591"></trkpt>
      <trkpt lat="66.325168" lon="14.189387"></trkpt>
      <trkpt lat="66.325180" lon="14.189370"></trkpt>
      <trkpt lat="66.325242" lon="14.189268"></trkpt>
      <trkpt lat="66.325454" lon="14.189125"></trkpt>
      <trkpt lat="66.325527" lon="14.189029"></trkpt>
      <trkpt lat="66.325694" lon="14.188872"></trkpt>
      <trkpt lat="66.325867" lon="14.188755"></trkpt>
      <trkpt lat="66.325956" lon="14.188767"></trkpt>
      <trkpt lat="66.326140" lon="14.188802"></trkpt>
      <trkpt lat="66.326456" lon="14.188921"></trkpt>
      <trkpt lat="66.326521" lon="14.188928"></trkpt>
      <trkpt lat="66.326534" lon="14.188872"></trkpt>
      <trkpt lat="66.326545" lon="14.188764"></trkpt>
      <trkpt lat="66.326589" lon="14.188776"></trkpt>
      <trkpt lat="66.326810" lon="14.188791"></trkpt>
      <trkpt lat="66.326966" lon="14.188750"></trkpt>
      <trkpt lat="66.327122" lon="14.188638"></trkpt>
      <trkpt lat="66.327125" lon="14.188663"></trkpt>
      <trkpt lat="66.327165" lon="14.188905"></trkpt>
      <trkpt lat="66.327197" lon="14.189047"></trkpt>
      <trkpt lat="66.327275" lon="14.189609"></trkpt>
      <trkpt lat="66.327288" lon="14.189805"></trkpt>
      <trkpt lat="66.327289" lon="14.191102"></trkpt>
      <trkpt lat="66.327354" lon="14.191383"></trkpt>
      <trkpt lat="66.327383" lon="14.191427"></trkpt>
      <trkpt lat="66.327442" lon="14.191454"></trkpt>
      <trkpt lat="66.327505" lon="14.191454"></trkpt>
      <trkpt lat="66.327667" lon="14.191377"></trkpt>
      <trkpt lat="66.327723" lon="14.191353"></trkpt>
      <trkpt lat="66.328038" lon="14.191104"></trkpt>
      <trkpt lat="66.328315" lon="14.190986"></trkpt>
      <trkpt lat="66.328422" lon="14.190974"></trkpt>
      <trkpt lat="66.328628" lon="14.190994"></trkpt>
      <trkpt lat="66.328828" lon="14.191054"></trkpt>
      <trkpt lat="66.328828" lon="14.191054"></trkpt>
      <trkpt lat="66.328628" lon="14.190994"></trkpt>
      <trkpt lat="66.328422" lon="14.190974"></trkpt>
      <trkpt lat="66.328315" lon="14.190986"></trkpt>
      <trkpt lat="66.328038" lon="14.191104"></trkpt>
      <trkpt lat="66.327723" lon="14.191353"></trkpt>
      <trkpt lat="66.327667" lon="14.191377"></trkpt>
      <trkpt lat="66.327505" lon="14.191454"></trkpt>
      <trkpt lat="66.327442" lon="14.191454"></trkpt>
      <trkpt lat="66.327383" lon="14.191427"></trkpt>
      <trkpt lat="66.327354" lon="14.191383"></trkpt>
      <trkpt lat="66.327289" lon="14.191102"></trkpt>
      <trkpt lat="66.327288" lon="14.189805"></trkpt>
      <trkpt lat="66.327275" lon="14.189609"></trkpt>
      <trkpt lat="66.327197" lon="14.189047"></trkpt>
      <trkpt lat="66.327165" lon="14.188905"></trkpt>
      <trkpt lat="66.327125" lon="14.188663"></trkpt>
      <trkpt lat="66.327122" lon="14.188638"></trkpt>
      <trkpt lat="66.326966" lon="14.188750"></trkpt>
      <trkpt lat="66.326810" lon="14.188791"></trkpt>
      <trkpt lat="66.326589" lon="14.188776"></trkpt>
      <trkpt lat="66.326545" lon="14.188764"></trkpt>
      <trkpt lat="66.326534" lon="14.188872"></trkpt>
      <trkpt lat="66.326521" lon="14.188928"></trkpt>
      <trkpt lat="66.326456" lon="14.188921"></trkpt>
      <trkpt lat="66.326140" lon="14.188802"></trkpt>
      <trkpt lat="66.325956" lon="14.188767"></trkpt>
      <trkpt lat="66.325867" lon="14.188755"></trkpt>
      <trkpt lat="66.325694" lon="14.188872"></trkpt>
      <trkpt lat="66.325527" lon="14.189029"></trkpt>
      <trkpt lat="66.325454" lon="14.189125"></trkpt>
      <trkpt lat="66.325242" lon="14.189268"></trkpt>
      <trkpt lat="66.325180" lon="14.189370"></trkpt>
      <trkpt lat="66.325168" lon="14.189387"></trkpt>
      <trkpt lat="66.325032" lon="14.189435"></trkpt>
      <trkpt lat="66.324949" lon="14.189463"></trkpt>
      <trkpt lat="66.324908" lon="14.189498"></trkpt>
      <trkpt lat="66.324863" lon="14.189207"></trkpt>
      <trkpt lat="66.324607" lon="14.187471"></trkpt>
      <trkpt lat="66.324356" lon="14.185709"></trkpt>
      <trkpt lat="66.324177" lon="14.184399"></trkpt>
      <trkpt lat="66.324054" lon="14.183485"></trkpt>
      <trkpt lat="66.323908" lon="14.182345"></trkpt>
      <trkpt lat="66.323863" lon="14.181932"></trkpt>
      <trkpt lat="66.323838" lon="14.181647"></trkpt>
      <trkpt lat="66.323818" lon="14.181367"></trkpt>
      <trkpt lat="66.323798" lon="14.180977"></trkpt>
      <trkpt lat="66.323785" lon="14.180576"></trkpt>
      <trkpt lat="66.323782" lon="14.180232"></trkpt>
      <trkpt lat="66.323783" lon="14.179888"></trkpt>
      <trkpt lat="66.323788" lon="14.179653"></trkpt>
      <trkpt lat="66.323802" lon="14.179278"></trkpt>
      <trkpt lat="66.323819" lon="14.178905"></trkpt>
      <trkpt lat="66.323852" lon="14.178298"></trkpt>
      <trkpt lat="66.323892" lon="14.177620"></trkpt>
      <trkpt lat="66.323912" lon="14.177161"></trkpt>
      <trkpt lat="66.323967" lon="14.176758"></trkpt>
      <trkpt lat="66.323985" lon="14.176600"></trkpt>
      <trkpt lat="66.324022" lon="14.176364"></trkpt>
      <trkpt lat="66.324048" lon="14.176193"></trkpt>
      <trkpt lat="66.324057" lon="14.176176"></trkpt>
      <trkpt lat="66.324076" lon="14.176123"></trkpt>
      <trkpt lat="66.324088" lon="14.176058"></trkpt>
      <trkpt lat="66.324093" lon="14.175988"></trkpt>
      <trkpt lat="66.324089" lon="14.175917"></trkpt>
      <trkpt lat="66.324077" lon="14.175852"></trkpt>
      <trkpt lat="66.324059" lon="14.175798"></trkpt>
      <trkpt lat="66.324035" lon="14.175760"></trkpt>
      <trkpt lat="66.324006" lon="14.175739"></trkpt>
      <trkpt lat="66.323886" lon="14.175613"></trkpt>
      <trkpt lat="66.323807" lon="14.175498"></trkpt>
      <trkpt lat="66.323743" lon="14.175445"></trkpt>
      <trkpt lat="66.323633" lon="14.175340"></trkpt>
      <trkpt lat="66.323591" lon="14.175301"></trkpt>
      <trkpt lat="66.323550" lon="14.175267"></trkpt>
      <trkpt lat="66.323512" lon="14.175238"></trkpt>
      <trkpt lat="66.322275" lon="14.174348"></trkpt>
      <trkpt lat="66.322202" lon="14.174230"></trkpt>
      <trkpt lat="66.322102" lon="14.174081"></trkpt>
      <trkpt lat="66.322050" lon="14.174000"></trkpt>
      <trkpt lat="66.322042" lon="14.173947"></trkpt>
      <trkpt lat="66.322029" lon="14.173901"></trkpt>
      <trkpt lat="66.322012" lon="14.173864"></trkpt>
      <trkpt lat="66.321992" lon="14.173839"></trkpt>
      <trkpt lat="66.321970" lon="14.173827"></trkpt>
      <trkpt lat="66.321947" lon="14.173830"></trkpt>
      <trkpt lat="66.321936" lon="14.173838"></trkpt>
      <trkpt lat="66.321926" lon="14.173846"></trkpt>
      <trkpt lat="66.321829" lon="14.173813"></trkpt>
      <trkpt lat="66.321757" lon="14.173793"></trkpt>
      <trkpt lat="66.321724" lon="14.173785"></trkpt>
      <trkpt lat="66.321592" lon="14.173779"></trkpt>
      <trkpt lat="66.321562" lon="14.173778"></trkpt>
      <trkpt lat="66.321467" lon="14.173727"></trkpt>
      <trkpt lat="66.321222" lon="14.173580"></trkpt>
      <trkpt lat="66.321111" lon="14.173506"></trkpt>
      <trkpt lat="66.320995" lon="14.173412"></trkpt>
      <trkpt lat="66.320899" lon="14.173310"></trkpt>
      <trkpt lat="66.320811" lon="14.173194"></trkpt>
      <trkpt lat="66.320698" lon="14.173009"></trkpt>
      <trkpt lat="66.320663" lon="14.172943"></trkpt>
      <trkpt lat="66.320600" lon="14.172807"></trkpt>
      <trkpt lat="66.320541" lon="14.172654"></trkpt>
      <trkpt lat="66.320514" lon="14.172575"></trkpt>
      <trkpt lat="66.320486" lon="14.172399"></trkpt>
      <trkpt lat="66.320400" lon="14.171967"></trkpt>
      <trkpt lat="66.320349" lon="14.171591"></trkpt>
      <trkpt lat="66.320322" lon="14.171353"></trkpt>
      <trkpt lat="66.320325" lon="14.171304"></trkpt>
      <trkpt lat="66.320325" lon="14.171222"></trkpt>
      <trkpt lat="66.320358" lon="14.171170"></trkpt>
      <trkpt lat="66.320511" lon="14.170947"></trkpt>
      <trkpt lat="66.320613" lon="14.170820"></trkpt>
      <trkpt lat="66.320914" lon="14.170445"></trkpt>
      <trkpt lat="66.321081" lon="14.170259"></trkpt>
      <trkpt lat="66.321215" lon="14.170124"></trkpt>
      <trkpt lat="66.321243" lon="14.169864"></trkpt>
      <trkpt lat="66.321208" lon="14.169697"></trkpt>
      <trkpt lat="66.321144" lon="14.169390"></trkpt>
      <trkpt lat="66.321074" lon="14.169089"></trkpt>
      <trkpt lat="66.321175" lon="14.168865"></trkpt>
      <trkpt lat="66.321246" lon="14.168690"></trkpt>
      <trkpt lat="66.321290" lon="14.168545"></trkpt>
      <trkpt lat="66.321503" lon="14.167843"></trkpt>
      <trkpt lat="66.321551" lon="14.167662"></trkpt>
      <trkpt lat="66.321613" lon="14.167785"></trkpt>
      <trkpt lat="66.321539" lon="14.168105"></trkpt>
      <trkpt lat="66.321640" lon="14.168291"></trkpt>
      <trkpt lat="66.321529" lon="14.168732"></trkpt>
      <trkpt lat="66.321246" lon="14.168690"></trkpt>
      <trkpt lat="66.321175" lon="14.168865"></trkpt>
      <trkpt lat="66.321074" lon="14.169089"></trkpt>
      <trkpt lat="66.321003" lon="14.169220"></trkpt>
      <trkpt lat="66.321044" lon="14.169482"></trkpt>
      <trkpt lat="66.321075" lon="14.169640"></trkpt>
      <trkpt lat="66.321123" lon="14.169985"></trkpt>
      <trkpt lat="66.321215" lon="14.170124"></trkpt>
      <trkpt lat="66.321351" lon="14.169996"></trkpt>
      <trkpt lat="66.321443" lon="14.169925"></trkpt>
      <trkpt lat="66.321642" lon="14.169787"></trkpt>
      <trkpt lat="66.321726" lon="14.169709"></trkpt>
      <trkpt lat="66.321816" lon="14.169594"></trkpt>
      <trkpt lat="66.321867" lon="14.169514"></trkpt>
      <trkpt lat="66.321921" lon="14.169417"></trkpt>
      <trkpt lat="66.321970" lon="14.169311"></trkpt>
      <trkpt lat="66.322036" lon="14.169139"></trkpt>
      <trkpt lat="66.322081" lon="14.169005"></trkpt>
      <trkpt lat="66.322187" lon="14.168618"></trkpt>
      <trkpt lat="66.322196" lon="14.168594"></trkpt>
      <trkpt lat="66.322417" lon="14.167936"></trkpt>
      <trkpt lat="66.322548" lon="14.167524"></trkpt>
      <trkpt lat="66.322857" lon="14.166526"></trkpt>
      <trkpt lat="66.323050" lon="14.165834"></trkpt>
      <trkpt lat="66.323125" lon="14.165550"></trkpt>
      <trkpt lat="66.323333" lon="14.164720"></trkpt>
      <trkpt lat="66.323459" lon="14.164182"></trkpt>
      <trkpt lat="66.323559" lon="14.163726"></trkpt>
      <trkpt lat="66.323731" lon="14.162892"></trkpt>
      <trkpt lat="66.323824" lon="14.162405"></trkpt>
      <trkpt lat="66.323912" lon="14.161918"></trkpt>
      <trkpt lat="66.324044" lon="14.161118"></trkpt>
      <trkpt lat="66.324122" lon="14.160607"></trkpt>
      <trkpt lat="66.324184" lon="14.160174"></trkpt>
      <trkpt lat="66.324276" lon="14.159467"></trkpt>
      <trkpt lat="66.324336" lon="14.159189"></trkpt>
      <trkpt lat="66.324392" lon="14.158894"></trkpt>
      <trkpt lat="66.324451" lon="14.158642"></trkpt>
      <trkpt lat="66.324498" lon="14.158421"></trkpt>
      <trkpt lat="66.324511" lon="14.158397"></trkpt>
      <trkpt lat="66.324523" lon="14.158369"></trkpt>
      <trkpt lat="66.324542" lon="14.158303"></trkpt>
      <trkpt lat="66.324553" lon="14.158228"></trkpt>
      <trkpt lat="66.324557" lon="14.158121"></trkpt>
      <trkpt lat="66.324549" lon="14.158042"></trkpt>
      <trkpt lat="66.324534" lon="14.157970"></trkpt>
      <trkpt lat="66.324513" lon="14.157910"></trkpt>
      <trkpt lat="66.324486" lon="14.157865"></trkpt>
      <trkpt lat="66.324455" lon="14.157838"></trkpt>
      <trkpt lat="66.324423" lon="14.157832"></trkpt>
      <trkpt lat="66.324391" lon="14.157846"></trkpt>
      <trkpt lat="66.324361" lon="14.157879"></trkpt>
      <trkpt lat="66.324336" lon="14.157930"></trkpt>
      <trkpt lat="66.324242" lon="14.157914"></trkpt>
      <trkpt lat="66.324151" lon="14.157893"></trkpt>
      <trkpt lat="66.324046" lon="14.157928"></trkpt>
      <trkpt lat="66.323991" lon="14.157920"></trkpt>
      <trkpt lat="66.323906" lon="14.157918"></trkpt>
      <trkpt lat="66.323637" lon="14.157935"></trkpt>
      <trkpt lat="66.323479" lon="14.157921"></trkpt>
      <trkpt lat="66.323333" lon="14.157878"></trkpt>
      <trkpt lat="66.323191" lon="14.157803"></trkpt>
      <trkpt lat="66.323002" lon="14.157686"></trkpt>
      <trkpt lat="66.322799" lon="14.157548"></trkpt>
      <trkpt lat="66.322387" lon="14.157234"></trkpt>
      <trkpt lat="66.321982" lon="14.156889"></trkpt>
      <trkpt lat="66.321734" lon="14.156656"></trkpt>
      <trkpt lat="66.321544" lon="14.156483"></trkpt>
      <trkpt lat="66.321120" lon="14.156057"></trkpt>
      <trkpt lat="66.320675" lon="14.155603"></trkpt>
      <trkpt lat="66.320192" lon="14.155096"></trkpt>
      <trkpt lat="66.319926" lon="14.154804"></trkpt>
      <trkpt lat="66.319747" lon="14.154582"></trkpt>
      <trkpt lat="66.319647" lon="14.154442"></trkpt>
      <trkpt lat="66.319496" lon="14.154210"></trkpt>
      <trkpt lat="66.319344" lon="14.153930"></trkpt>
      <trkpt lat="66.319282" lon="14.153799"></trkpt>
      <trkpt lat="66.319213" lon="14.153636"></trkpt>
      <trkpt lat="66.319105" lon="14.153354"></trkpt>
      <trkpt lat="66.318972" lon="14.152968"></trkpt>
      <trkpt lat="66.318930" lon="14.152821"></trkpt>
      <trkpt lat="66.318853" lon="14.152524"></trkpt>
      <trkpt lat="66.318764" lon="14.152140"></trkpt>
      <trkpt lat="66.318680" lon="14.151698"></trkpt>
      <trkpt lat="66.318635" lon="14.151416"></trkpt>
      <trkpt lat="66.318612" lon="14.151256"></trkpt>
      <trkpt lat="66.318600" lon="14.151138"></trkpt>
      <trkpt lat="66.318568" lon="14.150839"></trkpt>
      <trkpt lat="66.318545" lon="14.150524"></trkpt>
      <trkpt lat="66.318560" lon="14.150342"></trkpt>
      <trkpt lat="66.318577" lon="14.149870"></trkpt>
      <trkpt lat="66.318602" lon="14.149462"></trkpt>
      <trkpt lat="66.318629" lon="14.149433"></trkpt>
      <trkpt lat="66.318666" lon="14.149337"></trkpt>
      <trkpt lat="66.318672" lon="14.149302"></trkpt>
      <trkpt lat="66.318685" lon="14.149223"></trkpt>
      <trkpt lat="66.318687" lon="14.149094"></trkpt>
      <trkpt lat="66.318679" lon="14.149018"></trkpt>
      <trkpt lat="66.318659" lon="14.148930"></trkpt>
      <trkpt lat="66.318621" lon="14.148842"></trkpt>
      <trkpt lat="66.318582" lon="14.148695"></trkpt>
      <trkpt lat="66.318570" lon="14.148569"></trkpt>
      <trkpt lat="66.318563" lon="14.148430"></trkpt>
      <trkpt lat="66.318569" lon="14.148017"></trkpt>
      <trkpt lat="66.318571" lon="14.147924"></trkpt>
      <trkpt lat="66.318580" lon="14.147097"></trkpt>
      <trkpt lat="66.318584" lon="14.146438"></trkpt>
      <trkpt lat="66.318584" lon="14.145660"></trkpt>
      <trkpt lat="66.318505" lon="14.145529"></trkpt>
      <trkpt lat="66.318437" lon="14.145518"></trkpt>
      <trkpt lat="66.318367" lon="14.145494"></trkpt>
      <trkpt lat="66.318312" lon="14.145526"></trkpt>
      <trkpt lat="66.318269" lon="14.145599"></trkpt>
      <trkpt lat="66.318253" lon="14.145646"></trkpt>
      <trkpt lat="66.318192" lon="14.145810"></trkpt>
      <trkpt lat="66.318170" lon="14.145989"></trkpt>
      <trkpt lat="66.318179" lon="14.146471"></trkpt>
      <trkpt lat="66.318205" lon="14.147216"></trkpt>
      <trkpt lat="66.318234" lon="14.147905"></trkpt>
      <trkpt lat="66.318279" lon="14.148611"></trkpt>
      <trkpt lat="66.318294" lon="14.149262"></trkpt>
      <trkpt lat="66.318343" lon="14.149958"></trkpt>
      <trkpt lat="66.318352" lon="14.150183"></trkpt>
      <trkpt lat="66.318368" lon="14.151422"></trkpt>
      <trkpt lat="66.318350" lon="14.151652"></trkpt>
      <trkpt lat="66.318324" lon="14.151853"></trkpt>
      <trkpt lat="66.318300" lon="14.151964"></trkpt>
      <trkpt lat="66.318268" lon="14.152116"></trkpt>
      <trkpt lat="66.318198" lon="14.152340"></trkpt>
      <trkpt lat="66.318130" lon="14.152507"></trkpt>
      <trkpt lat="66.318007" lon="14.152725"></trkpt>
      <trkpt lat="66.317853" lon="14.152922"></trkpt>
      <trkpt lat="66.317644" lon="14.153088"></trkpt>
      <trkpt lat="66.317530" lon="14.153141"></trkpt>
      <trkpt lat="66.317398" lon="14.153134"></trkpt>
      <trkpt lat="66.317406" lon="14.153304"></trkpt>
      <trkpt lat="66.317439" lon="14.153417"></trkpt>
      <trkpt lat="66.317469" lon="14.153460"></trkpt>
      <trkpt lat="66.317740" lon="14.153768"></trkpt>
      <trkpt lat="66.318100" lon="14.154111"></trkpt>
      <trkpt lat="66.318230" lon="14.154203"></trkpt>
      <trkpt lat="66.318373" lon="14.154265"></trkpt>
      <trkpt lat="66.318912" lon="14.154418"></trkpt>
      <trkpt lat="66.319039" lon="14.154478"></trkpt>
    </trkseg>
  </trk>
</gpx>