<?xml version="1.0" encoding="UTF-8"?>
<gpx version="1.1" creator="Rana Sykkelklubb - https://ranasykkelklubb.no" xmlns="http://www.topografix.com/GPX/1/1" xmlns:xsi="http://www.w3.org/2001/XMLSchema-instance" xsi:schemaLocation="http://www.topografix.com/GPX/1/1 http://www.topografix.com/GPX/1/1/gpx.xsd">
  <metadata>
    <name>Korgen og Vesterfjell</name>
    <desc>Landeveistur langs Ranfjorden mot Finneidfjord, videre til Korgen og over Vesterfjellet.</desc>
    <author>
      <name>Rana Sykkelklubb</name>
    </author>
  </metadata>
  <wpt lat="66.3125" lon="14.1428">
    <name>Start: Mo i Rana</name>
    <ele>12</ele>
  </wpt>
  <wpt lat="66.0760" lon="13.8240">
    <name>Korgen Sentrum</name>
    <ele>25</ele>
  </wpt>
  <trk>
    <name>Korgen og Vesterfjell</name>
    <type>Cycling - Road</type>
    <trkseg>
      <trkpt lat="66.3125" lon="14.1428"><ele>12</ele></trkpt>
      <trkpt lat="66.2410" lon="13.9850"><ele>18</ele></trkpt>
      <trkpt lat="66.1850" lon="13.7920"><ele>35</ele></trkpt>
      <trkpt lat="66.1210" lon="13.8100"><ele>85</ele></trkpt>
      <trkpt lat="66.0760" lon="13.8240"><ele>25</ele></trkpt>
      <trkpt lat="66.1150" lon="13.7500"><ele>210</ele></trkpt>
      <trkpt lat="66.1820" lon="13.7850"><ele>45</ele></trkpt>
      <trkpt lat="66.2410" lon="13.9850"><ele>18</ele></trkpt>
      <trkpt lat="66.3125" lon="14.1428"><ele>12</ele></trkpt>
    </trkseg>
  </trk>
</gpx>
