<?xml version="1.0" encoding="utf-8"?>
<gpx version="1.1" creator="Trailguide" xmlns="http://www.topografix.com/GPX/1/1" xmlns:xsi="http://www.w3.org/2001/XMLSchema-instance" xmlns:gpxtpx="http://www.garmin.com/xmlschemas/TrackPointExtension/v1" xsi:schemaLocation="http://www.topografix.com/GPX/1/1 http://www.topografix.com/GPX/1/1/gpx.xsd http://www.cluetrust.com/XML/GPXDATA/1/0 http://www.cluetrust.com/Schemas/gpxdata10.xsd http://www.garmin.com/xmlschemas/TrackPointExtension/v1 http://www.garmin.com/xmlschemas/TrackPointExtensionv1.xsd" xmlns:gpxdata="http://www.cluetrust.com/XML/GPXDATA/1/0">
<metadata>
<name>Kubben</name>
<author><name>Andreas Bjørnådal</name></author>
<copyright author="Trailguide"><year>2020</year></copyright>
<keywords>trail,red</keywords>
</metadata>
<trk>
<name>Kubben</name>
<trkseg><trkpt lat="66.200102" lon="14.599215"><ele>1010</ele></trkpt>
<trkpt lat="66.200174" lon="14.599305"><ele>1009</ele></trkpt>
<trkpt lat="66.200186" lon="14.599399"><ele>1009</ele></trkpt>
<trkpt lat="66.200158" lon="14.59944"><ele>1009</ele></trkpt>
<trkpt lat="66.200057" lon="14.599511"><ele>1009</ele></trkpt>
<trkpt lat="66.200017" lon="14.599526"><ele>1009</ele></trkpt>
<trkpt lat="66.199859" lon="14.599455"><ele>1008</ele></trkpt>
<trkpt lat="66.199453" lon="14.59917"><ele>999</ele></trkpt>
<trkpt lat="66.199352" lon="14.599045"><ele>998</ele></trkpt>
<trkpt lat="66.199294" lon="14.599019"><ele>996</ele></trkpt>
<trkpt lat="66.199219" lon="14.598935"><ele>995</ele></trkpt>
<trkpt lat="66.199169" lon="14.598909"><ele>994</ele></trkpt>
<trkpt lat="66.199062" lon="14.598889"><ele>991</ele></trkpt>
<trkpt lat="66.198985" lon="14.598817"><ele>989</ele></trkpt>
<trkpt lat="66.19894" lon="14.598795"><ele>989</ele></trkpt>
<trkpt lat="66.198908" lon="14.598752"><ele>988</ele></trkpt>
<trkpt lat="66.198801" lon="14.598493"><ele>988</ele></trkpt>
<trkpt lat="66.198737" lon="14.598475"><ele>985</ele></trkpt>
<trkpt lat="66.19863" lon="14.598512"><ele>980</ele></trkpt>
<trkpt lat="66.198493" lon="14.598452"><ele>974</ele></trkpt>
<trkpt lat="66.198412" lon="14.598446"><ele>970</ele></trkpt>
<trkpt lat="66.198338" lon="14.598245"><ele>969</ele></trkpt>
<trkpt lat="66.198274" lon="14.59821"><ele>967</ele></trkpt>
<trkpt lat="66.198179" lon="14.59809"><ele>965</ele></trkpt>
<trkpt lat="66.197874" lon="14.597526"><ele>963</ele></trkpt>
<trkpt lat="66.197663" lon="14.597216"><ele>960</ele></trkpt>
<trkpt lat="66.197548" lon="14.597083"><ele>958</ele></trkpt>
<trkpt lat="66.197462" lon="14.597055"><ele>956</ele></trkpt>
<trkpt lat="66.197412" lon="14.597009"><ele>956</ele></trkpt>
<trkpt lat="66.197228" lon="14.596733"><ele>956</ele></trkpt>
<trkpt lat="66.197176" lon="14.596681"><ele>955</ele></trkpt>
<trkpt lat="66.197125" lon="14.596579"><ele>956</ele></trkpt>
<trkpt lat="66.196866" lon="14.596181"><ele>953</ele></trkpt>
<trkpt lat="66.196687" lon="14.595998"><ele>947</ele></trkpt>
<trkpt lat="66.196538" lon="14.595752"><ele>942</ele></trkpt>
<trkpt lat="66.196389" lon="14.595554"><ele>939</ele></trkpt>
<trkpt lat="66.196343" lon="14.595481"><ele>940</ele></trkpt>
<trkpt lat="66.196224" lon="14.595169"><ele>940</ele></trkpt>
<trkpt lat="66.196154" lon="14.595065"><ele>939</ele></trkpt>
<trkpt lat="66.196092" lon="14.595033"><ele>938</ele></trkpt>
<trkpt lat="66.196024" lon="14.594972"><ele>936</ele></trkpt>
<trkpt lat="66.195991" lon="14.594827"><ele>937</ele></trkpt>
<trkpt lat="66.195915" lon="14.594678"><ele>937</ele></trkpt>
<trkpt lat="66.195677" lon="14.594309"><ele>932</ele></trkpt>
<trkpt lat="66.195589" lon="14.594109"><ele>929</ele></trkpt>
<trkpt lat="66.195494" lon="14.593959"><ele>926</ele></trkpt>
<trkpt lat="66.195316" lon="14.593764"><ele>919</ele></trkpt>
<trkpt lat="66.195226" lon="14.593635"><ele>916</ele></trkpt>
<trkpt lat="66.195194" lon="14.593631"><ele>915</ele></trkpt>
<trkpt lat="66.195139" lon="14.593848"><ele>911</ele></trkpt>
<trkpt lat="66.195107" lon="14.593885"><ele>909</ele></trkpt>
<trkpt lat="66.19507" lon="14.593884"><ele>907</ele></trkpt>
<trkpt lat="66.195027" lon="14.593851"><ele>906</ele></trkpt>
<trkpt lat="66.194873" lon="14.593537"><ele>901</ele></trkpt>
<trkpt lat="66.19475" lon="14.593153"><ele>896</ele></trkpt>
<trkpt lat="66.194598" lon="14.592828"><ele>890</ele></trkpt>
<trkpt lat="66.194363" lon="14.592449"><ele>884</ele></trkpt>
<trkpt lat="66.194336" lon="14.592381"><ele>883</ele></trkpt>
<trkpt lat="66.194385" lon="14.592363"><ele>884</ele></trkpt>
<trkpt lat="66.194424" lon="14.592397"><ele>885</ele></trkpt>
<trkpt lat="66.194397" lon="14.592235"><ele>884</ele></trkpt>
<trkpt lat="66.194374" lon="14.592186"><ele>884</ele></trkpt>
<trkpt lat="66.194313" lon="14.592124"><ele>882</ele></trkpt>
<trkpt lat="66.194216" lon="14.591941"><ele>879</ele></trkpt>
<trkpt lat="66.194138" lon="14.591723"><ele>876</ele></trkpt>
<trkpt lat="66.194096" lon="14.591647"><ele>875</ele></trkpt>
<trkpt lat="66.193984" lon="14.591531"><ele>871</ele></trkpt>
<trkpt lat="66.193889" lon="14.591404"><ele>867</ele></trkpt>
<trkpt lat="66.193816" lon="14.591385"><ele>865</ele></trkpt>
<trkpt lat="66.193663" lon="14.591181"><ele>861</ele></trkpt>
<trkpt lat="66.193572" lon="14.591152"><ele>859</ele></trkpt>
<trkpt lat="66.19352" lon="14.591081"><ele>857</ele></trkpt>
<trkpt lat="66.193441" lon="14.591038"><ele>856</ele></trkpt>
<trkpt lat="66.193368" lon="14.590897"><ele>854</ele></trkpt>
<trkpt lat="66.193266" lon="14.590477"><ele>851</ele></trkpt>
<trkpt lat="66.193183" lon="14.590478"><ele>851</ele></trkpt>
<trkpt lat="66.193123" lon="14.590432"><ele>850</ele></trkpt>
<trkpt lat="66.192696" lon="14.589754"><ele>845</ele></trkpt>
<trkpt lat="66.192199" lon="14.589326"><ele>839</ele></trkpt>
<trkpt lat="66.192024" lon="14.58913"><ele>836</ele></trkpt>
<trkpt lat="66.191955" lon="14.58902"><ele>835</ele></trkpt>
<trkpt lat="66.191904" lon="14.588898"><ele>835</ele></trkpt>
<trkpt lat="66.191732" lon="14.588405"><ele>832</ele></trkpt>
<trkpt lat="66.191595" lon="14.588191"><ele>831</ele></trkpt>
<trkpt lat="66.191105" lon="14.58771"><ele>823</ele></trkpt>
<trkpt lat="66.190969" lon="14.587537"><ele>820</ele></trkpt>
<trkpt lat="66.190808" lon="14.587278"><ele>815</ele></trkpt>
<trkpt lat="66.190778" lon="14.587258"><ele>814</ele></trkpt>
<trkpt lat="66.190679" lon="14.587303"><ele>812</ele></trkpt>
<trkpt lat="66.190546" lon="14.587249"><ele>809</ele></trkpt>
<trkpt lat="66.190283" lon="14.586903"><ele>803</ele></trkpt>
<trkpt lat="66.189977" lon="14.586345"><ele>800</ele></trkpt>
<trkpt lat="66.18978" lon="14.585941"><ele>801</ele></trkpt>
<trkpt lat="66.189653" lon="14.585396"><ele>800</ele></trkpt>
<trkpt lat="66.189362" lon="14.584552"><ele>798</ele></trkpt>
<trkpt lat="66.189228" lon="14.58409"><ele>795</ele></trkpt>
<trkpt lat="66.189236" lon="14.583999"><ele>795</ele></trkpt>
<trkpt lat="66.189264" lon="14.583927"><ele>795</ele></trkpt>
<trkpt lat="66.189244" lon="14.583751"><ele>794</ele></trkpt>
<trkpt lat="66.189267" lon="14.583515"><ele>794</ele></trkpt>
<trkpt lat="66.189256" lon="14.583423"><ele>793</ele></trkpt>
<trkpt lat="66.189121" lon="14.583049"><ele>791</ele></trkpt>
<trkpt lat="66.189059" lon="14.582929"><ele>789</ele></trkpt>
<trkpt lat="66.188997" lon="14.582875"><ele>789</ele></trkpt>
<trkpt lat="66.18894" lon="14.582881"><ele>788</ele></trkpt>
<trkpt lat="66.188852" lon="14.582933"><ele>787</ele></trkpt>
<trkpt lat="66.188813" lon="14.582926"><ele>786</ele></trkpt>
<trkpt lat="66.188742" lon="14.582839"><ele>785</ele></trkpt>
<trkpt lat="66.188482" lon="14.582642"><ele>781</ele></trkpt>
<trkpt lat="66.188354" lon="14.582505"><ele>780</ele></trkpt>
<trkpt lat="66.18829" lon="14.582494"><ele>779</ele></trkpt>
<trkpt lat="66.188244" lon="14.582529"><ele>779</ele></trkpt>
<trkpt lat="66.188197" lon="14.582638"><ele>780</ele></trkpt>
<trkpt lat="66.18804" lon="14.582859"><ele>779</ele></trkpt>
<trkpt lat="66.18797" lon="14.582913"><ele>778</ele></trkpt>
<trkpt lat="66.187893" lon="14.582927"><ele>778</ele></trkpt>
<trkpt lat="66.187818" lon="14.582913"><ele>778</ele></trkpt>
<trkpt lat="66.187755" lon="14.582851"><ele>778</ele></trkpt>
<trkpt lat="66.1875" lon="14.582496"><ele>775</ele></trkpt>
<trkpt lat="66.18738" lon="14.582358"><ele>774</ele></trkpt>
<trkpt lat="66.187346" lon="14.582352"><ele>774</ele></trkpt>
<trkpt lat="66.187307" lon="14.582374"><ele>774</ele></trkpt>
<trkpt lat="66.187238" lon="14.582467"><ele>775</ele></trkpt>
<trkpt lat="66.187188" lon="14.582489"><ele>775</ele></trkpt>
<trkpt lat="66.187138" lon="14.582489"><ele>774</ele></trkpt>
<trkpt lat="66.187031" lon="14.582608"><ele>775</ele></trkpt>
<trkpt lat="66.18688" lon="14.582544"><ele>773</ele></trkpt>
<trkpt lat="66.186788" lon="14.582451"><ele>773</ele></trkpt>
<trkpt lat="66.186684" lon="14.582391"><ele>774</ele></trkpt>
<trkpt lat="66.186604" lon="14.582273"><ele>774</ele></trkpt>
<trkpt lat="66.186579" lon="14.582159"><ele>774</ele></trkpt>
<trkpt lat="66.186513" lon="14.58199"><ele>775</ele></trkpt>
<trkpt lat="66.186428" lon="14.581826"><ele>776</ele></trkpt>
<trkpt lat="66.186313" lon="14.581743"><ele>778</ele></trkpt>
<trkpt lat="66.18625" lon="14.58166"><ele>779</ele></trkpt>
<trkpt lat="66.186212" lon="14.581665"><ele>779</ele></trkpt>
<trkpt lat="66.186033" lon="14.581469"><ele>780</ele></trkpt>
<trkpt lat="66.185957" lon="14.58142"><ele>781</ele></trkpt>
<trkpt lat="66.18588" lon="14.581339"><ele>782</ele></trkpt>
<trkpt lat="66.185759" lon="14.581376"><ele>782</ele></trkpt>
<trkpt lat="66.185722" lon="14.58137"><ele>783</ele></trkpt>
<trkpt lat="66.185595" lon="14.581126"><ele>785</ele></trkpt>
<trkpt lat="66.185497" lon="14.581018"><ele>786</ele></trkpt>
<trkpt lat="66.185454" lon="14.58092"><ele>788</ele></trkpt>
<trkpt lat="66.18542" lon="14.580702"><ele>789</ele></trkpt>
<trkpt lat="66.185454" lon="14.58055"><ele>789</ele></trkpt>
<trkpt lat="66.185433" lon="14.580489"><ele>789</ele></trkpt>
<trkpt lat="66.185404" lon="14.580497"><ele>790</ele></trkpt>
<trkpt lat="66.185352" lon="14.580651"><ele>790</ele></trkpt>
<trkpt lat="66.185323" lon="14.580651"><ele>790</ele></trkpt>
<trkpt lat="66.185285" lon="14.580564"><ele>791</ele></trkpt>
<trkpt lat="66.185253" lon="14.580547"><ele>791</ele></trkpt>
<trkpt lat="66.185203" lon="14.580568"><ele>791</ele></trkpt>
<trkpt lat="66.185071" lon="14.580418"><ele>790</ele></trkpt>
<trkpt lat="66.185026" lon="14.580417"><ele>790</ele></trkpt>
<trkpt lat="66.18488" lon="14.580331"><ele>789</ele></trkpt>
<trkpt lat="66.184771" lon="14.580287"><ele>789</ele></trkpt>
<trkpt lat="66.184743" lon="14.580297"><ele>789</ele></trkpt>
<trkpt lat="66.184717" lon="14.58035"><ele>788</ele></trkpt>
<trkpt lat="66.184684" lon="14.580351"><ele>788</ele></trkpt>
<trkpt lat="66.184657" lon="14.580306"><ele>788</ele></trkpt>
<trkpt lat="66.1846" lon="14.580283"><ele>788</ele></trkpt>
<trkpt lat="66.184567" lon="14.580251"><ele>788</ele></trkpt>
<trkpt lat="66.184528" lon="14.580143"><ele>788</ele></trkpt>
<trkpt lat="66.184209" lon="14.579737"><ele>782</ele></trkpt>
<trkpt lat="66.184038" lon="14.579654"><ele>778</ele></trkpt>
<trkpt lat="66.183994" lon="14.579596"><ele>777</ele></trkpt>
<trkpt lat="66.183961" lon="14.579501"><ele>776</ele></trkpt>
<trkpt lat="66.183884" lon="14.579066"><ele>772</ele></trkpt>
<trkpt lat="66.183838" lon="14.57894"><ele>771</ele></trkpt>
<trkpt lat="66.18373" lon="14.57877"><ele>770</ele></trkpt>
<trkpt lat="66.183631" lon="14.578649"><ele>770</ele></trkpt>
<trkpt lat="66.183509" lon="14.578369"><ele>768</ele></trkpt>
<trkpt lat="66.183422" lon="14.57822"><ele>766</ele></trkpt>
<trkpt lat="66.183405" lon="14.578151"><ele>765</ele></trkpt>
<trkpt lat="66.183446" lon="14.577953"><ele>764</ele></trkpt>
<trkpt lat="66.183397" lon="14.577858"><ele>763</ele></trkpt>
<trkpt lat="66.183299" lon="14.577786"><ele>761</ele></trkpt>
<trkpt lat="66.183193" lon="14.577808"><ele>759</ele></trkpt>
<trkpt lat="66.183123" lon="14.577885"><ele>757</ele></trkpt>
<trkpt lat="66.183036" lon="14.578055"><ele>755</ele></trkpt>
<trkpt lat="66.182983" lon="14.578123"><ele>753</ele></trkpt>
<trkpt lat="66.182924" lon="14.578176"><ele>752</ele></trkpt>
<trkpt lat="66.182875" lon="14.578187"><ele>751</ele></trkpt>
<trkpt lat="66.182778" lon="14.578058"><ele>748</ele></trkpt>
<trkpt lat="66.182518" lon="14.577569"><ele>739</ele></trkpt>
<trkpt lat="66.182378" lon="14.577264"><ele>734</ele></trkpt>
<trkpt lat="66.182347" lon="14.577242"><ele>733</ele></trkpt>
<trkpt lat="66.182316" lon="14.577293"><ele>732</ele></trkpt>
<trkpt lat="66.182258" lon="14.577081"><ele>731</ele></trkpt>
<trkpt lat="66.182215" lon="14.577016"><ele>730</ele></trkpt>
<trkpt lat="66.182103" lon="14.576928"><ele>730</ele></trkpt>
<trkpt lat="66.181992" lon="14.576675"><ele>731</ele></trkpt>
<trkpt lat="66.181958" lon="14.576629"><ele>731</ele></trkpt>
<trkpt lat="66.181802" lon="14.576559"><ele>732</ele></trkpt>
<trkpt lat="66.181673" lon="14.576435"><ele>731</ele></trkpt>
<trkpt lat="66.181411" lon="14.576343"><ele>728</ele></trkpt>
<trkpt lat="66.181324" lon="14.576334"><ele>727</ele></trkpt>
<trkpt lat="66.181229" lon="14.576283"><ele>724</ele></trkpt>
<trkpt lat="66.181191" lon="14.576296"><ele>723</ele></trkpt>
<trkpt lat="66.181139" lon="14.576398"><ele>722</ele></trkpt>
<trkpt lat="66.18107" lon="14.576481"><ele>720</ele></trkpt>
<trkpt lat="66.181" lon="14.576625"><ele>719</ele></trkpt>
<trkpt lat="66.180948" lon="14.576697"><ele>717</ele></trkpt>
<trkpt lat="66.180859" lon="14.576765"><ele>715</ele></trkpt>
<trkpt lat="66.180825" lon="14.576663"><ele>713</ele></trkpt>
<trkpt lat="66.180748" lon="14.57663"><ele>711</ele></trkpt>
<trkpt lat="66.180674" lon="14.576448"><ele>708</ele></trkpt>
<trkpt lat="66.180526" lon="14.576181"><ele>703</ele></trkpt>
<trkpt lat="66.180458" lon="14.576084"><ele>702</ele></trkpt>
<trkpt lat="66.180245" lon="14.575858"><ele>696</ele></trkpt>
<trkpt lat="66.18" lon="14.575358"><ele>690</ele></trkpt>
<trkpt lat="66.179982" lon="14.575139"><ele>688</ele></trkpt>
<trkpt lat="66.179931" lon="14.574898"><ele>686</ele></trkpt>
<trkpt lat="66.179901" lon="14.574853"><ele>685</ele></trkpt>
<trkpt lat="66.179834" lon="14.574849"><ele>685</ele></trkpt>
<trkpt lat="66.179767" lon="14.574824"><ele>684</ele></trkpt>
<trkpt lat="66.179646" lon="14.574597"><ele>682</ele></trkpt>
<trkpt lat="66.179607" lon="14.57447"><ele>682</ele></trkpt>
<trkpt lat="66.179558" lon="14.57439"><ele>682</ele></trkpt>
<trkpt lat="66.179497" lon="14.573867"><ele>681</ele></trkpt>
<trkpt lat="66.179467" lon="14.573777"><ele>681</ele></trkpt>
<trkpt lat="66.179337" lon="14.573561"><ele>681</ele></trkpt>
<trkpt lat="66.179254" lon="14.57335"><ele>681</ele></trkpt>
<trkpt lat="66.179225" lon="14.573206"><ele>681</ele></trkpt>
<trkpt lat="66.179198" lon="14.573177"><ele>681</ele></trkpt>
<trkpt lat="66.179204" lon="14.573056"><ele>681</ele></trkpt>
<trkpt lat="66.179181" lon="14.57295"><ele>681</ele></trkpt>
<trkpt lat="66.17915" lon="14.572898"><ele>681</ele></trkpt>
<trkpt lat="66.179131" lon="14.572729"><ele>681</ele></trkpt>
<trkpt lat="66.179152" lon="14.572553"><ele>681</ele></trkpt>
<trkpt lat="66.17912" lon="14.572135"><ele>682</ele></trkpt>
<trkpt lat="66.179128" lon="14.57205"><ele>682</ele></trkpt>
<trkpt lat="66.179181" lon="14.571685"><ele>683</ele></trkpt>
<trkpt lat="66.179194" lon="14.571425"><ele>683</ele></trkpt>
<trkpt lat="66.179276" lon="14.571198"><ele>683</ele></trkpt>
<trkpt lat="66.179313" lon="14.570929"><ele>682</ele></trkpt>
<trkpt lat="66.179294" lon="14.570585"><ele>681</ele></trkpt>
<trkpt lat="66.17927" lon="14.570423"><ele>681</ele></trkpt>
<trkpt lat="66.179277" lon="14.570201"><ele>680</ele></trkpt>
<trkpt lat="66.179328" lon="14.569977"><ele>680</ele></trkpt>
<trkpt lat="66.179405" lon="14.569762"><ele>680</ele></trkpt>
<trkpt lat="66.179446" lon="14.569324"><ele>679</ele></trkpt>
<trkpt lat="66.179433" lon="14.569235"><ele>679</ele></trkpt>
<trkpt lat="66.179373" lon="14.569152"><ele>678</ele></trkpt>
<trkpt lat="66.179344" lon="14.568987"><ele>678</ele></trkpt>
<trkpt lat="66.179267" lon="14.568823"><ele>676</ele></trkpt>
<trkpt lat="66.179296" lon="14.568725"><ele>675</ele></trkpt>
<trkpt lat="66.179285" lon="14.568428"><ele>673</ele></trkpt>
<trkpt lat="66.179316" lon="14.568259"><ele>673</ele></trkpt>
<trkpt lat="66.17933" lon="14.568057"><ele>672</ele></trkpt>
<trkpt lat="66.17926" lon="14.567878"><ele>670</ele></trkpt>
<trkpt lat="66.17912" lon="14.567067"><ele>663</ele></trkpt>
<trkpt lat="66.178978" lon="14.566598"><ele>660</ele></trkpt>
<trkpt lat="66.178953" lon="14.565827"><ele>655</ele></trkpt>
<trkpt lat="66.178988" lon="14.565486"><ele>652</ele></trkpt>
<trkpt lat="66.178977" lon="14.565407"><ele>651</ele></trkpt>
<trkpt lat="66.178895" lon="14.565315"><ele>650</ele></trkpt>
</trkseg>
</trk>
</gpx>
