<?xml version="1.0" encoding="utf-8"?>
<gpx version="1.1" creator="Trailguide" xmlns="http://www.topografix.com/GPX/1/1" xmlns:xsi="http://www.w3.org/2001/XMLSchema-instance" xmlns:gpxtpx="http://www.garmin.com/xmlschemas/TrackPointExtension/v1" xsi:schemaLocation="http://www.topografix.com/GPX/1/1 http://www.topografix.com/GPX/1/1/gpx.xsd http://www.cluetrust.com/XML/GPXDATA/1/0 http://www.cluetrust.com/Schemas/gpxdata10.xsd http://www.garmin.com/xmlschemas/TrackPointExtension/v1 http://www.garmin.com/xmlschemas/TrackPointExtensionv1.xsd" xmlns:gpxdata="http://www.cluetrust.com/XML/GPXDATA/1/0">
<metadata>
<name>Lappfjelltj%C3%B8nna</name>
<author><name>Andreas Bjørnådal</name></author>
<copyright author="Trailguide"><year>2020</year></copyright>
<keywords>trail,blue</keywords>
</metadata>
<trk>
<name>Lappfjelltj%C3%B8nna</name>
<trkseg><trkpt lat="66.237537" lon="14.630107"><ele>868</ele></trkpt>
<trkpt lat="66.23779" lon="14.630277"><ele>867</ele></trkpt>
<trkpt lat="66.237923" lon="14.630465"><ele>866</ele></trkpt>
<trkpt lat="66.237965" lon="14.63056"><ele>866</ele></trkpt>
<trkpt lat="66.238028" lon="14.63058"><ele>865</ele></trkpt>
<trkpt lat="66.2381" lon="14.63054"><ele>865</ele></trkpt>
<trkpt lat="66.238567" lon="14.629525"><ele>865</ele></trkpt>
<trkpt lat="66.238663" lon="14.629475"><ele>865</ele></trkpt>
<trkpt lat="66.238737" lon="14.629407"><ele>865</ele></trkpt>
<trkpt lat="66.238822" lon="14.629242"><ele>866</ele></trkpt>
<trkpt lat="66.23887" lon="14.6291"><ele>866</ele></trkpt>
<trkpt lat="66.23905" lon="14.628723"><ele>866</ele></trkpt>
<trkpt lat="66.239095" lon="14.628585"><ele>866</ele></trkpt>
<trkpt lat="66.23932" lon="14.62819"><ele>866</ele></trkpt>
<trkpt lat="66.239375" lon="14.62804"><ele>865</ele></trkpt>
<trkpt lat="66.23946" lon="14.62794"><ele>865</ele></trkpt>
<trkpt lat="66.239605" lon="14.627825"><ele>865</ele></trkpt>
<trkpt lat="66.23968" lon="14.627745"><ele>865</ele></trkpt>
<trkpt lat="66.239908" lon="14.627605"><ele>865</ele></trkpt>
<trkpt lat="66.24001" lon="14.627585"><ele>865</ele></trkpt>
<trkpt lat="66.240083" lon="14.62754"><ele>865</ele></trkpt>
<trkpt lat="66.24029" lon="14.62732"><ele>864</ele></trkpt>
<trkpt lat="66.24037" lon="14.627272"><ele>864</ele></trkpt>
<trkpt lat="66.240443" lon="14.62726"><ele>864</ele></trkpt>
<trkpt lat="66.24051" lon="14.627192"><ele>864</ele></trkpt>
<trkpt lat="66.240587" lon="14.627305"><ele>865</ele></trkpt>
<trkpt lat="66.2406" lon="14.62727"><ele>865</ele></trkpt>
<trkpt lat="66.240655" lon="14.62722"><ele>864</ele></trkpt>
<trkpt lat="66.24075" lon="14.62695"><ele>863</ele></trkpt>
<trkpt lat="66.240782" lon="14.626785"><ele>862</ele></trkpt>
<trkpt lat="66.240898" lon="14.626487"><ele>861</ele></trkpt>
<trkpt lat="66.2411" lon="14.626145"><ele>859</ele></trkpt>
<trkpt lat="66.24128" lon="14.62576"><ele>858</ele></trkpt>
<trkpt lat="66.24136" lon="14.62567"><ele>858</ele></trkpt>
<trkpt lat="66.24141" lon="14.625565"><ele>858</ele></trkpt>
<trkpt lat="66.241467" lon="14.62553"><ele>858</ele></trkpt>
<trkpt lat="66.241515" lon="14.625412"><ele>858</ele></trkpt>
<trkpt lat="66.241515" lon="14.625235"><ele>857</ele></trkpt>
<trkpt lat="66.241555" lon="14.625"><ele>856</ele></trkpt>
<trkpt lat="66.24156" lon="14.624815"><ele>855</ele></trkpt>
<trkpt lat="66.2416" lon="14.624617"><ele>854</ele></trkpt>
<trkpt lat="66.241602" lon="14.62441"><ele>853</ele></trkpt>
<trkpt lat="66.241615" lon="14.624487"><ele>854</ele></trkpt>
<trkpt lat="66.241645" lon="14.62438"><ele>853</ele></trkpt>
<trkpt lat="66.241692" lon="14.623988"><ele>852</ele></trkpt>
<trkpt lat="66.24167" lon="14.62354"><ele>850</ele></trkpt>
<trkpt lat="66.24172" lon="14.623365"><ele>849</ele></trkpt>
<trkpt lat="66.24175" lon="14.623175"><ele>849</ele></trkpt>
<trkpt lat="66.241757" lon="14.622965"><ele>848</ele></trkpt>
<trkpt lat="66.241832" lon="14.622292"><ele>845</ele></trkpt>
<trkpt lat="66.241917" lon="14.621935"><ele>844</ele></trkpt>
<trkpt lat="66.24203" lon="14.621183"><ele>841</ele></trkpt>
<trkpt lat="66.242065" lon="14.620795"><ele>840</ele></trkpt>
<trkpt lat="66.242095" lon="14.620425"><ele>839</ele></trkpt>
<trkpt lat="66.24206" lon="14.620108"><ele>838</ele></trkpt>
<trkpt lat="66.242078" lon="14.619722"><ele>836</ele></trkpt>
<trkpt lat="66.242152" lon="14.619252"><ele>835</ele></trkpt>
<trkpt lat="66.242283" lon="14.61807"><ele>833</ele></trkpt>
<trkpt lat="66.242285" lon="14.617705"><ele>833</ele></trkpt>
<trkpt lat="66.24226" lon="14.617535"><ele>832</ele></trkpt>
<trkpt lat="66.24229" lon="14.617127"><ele>830</ele></trkpt>
<trkpt lat="66.242262" lon="14.61711"><ele>830</ele></trkpt>
<trkpt lat="66.242265" lon="14.61712"><ele>830</ele></trkpt>
<trkpt lat="66.242272" lon="14.61704"><ele>830</ele></trkpt>
<trkpt lat="66.242245" lon="14.6168"><ele>829</ele></trkpt>
<trkpt lat="66.242287" lon="14.61602"><ele>826</ele></trkpt>
<trkpt lat="66.24236" lon="14.615512"><ele>825</ele></trkpt>
<trkpt lat="66.242487" lon="14.615252"><ele>825</ele></trkpt>
<trkpt lat="66.242565" lon="14.61486"><ele>825</ele></trkpt>
<trkpt lat="66.242625" lon="14.614765"><ele>825</ele></trkpt>
<trkpt lat="66.242677" lon="14.61463"><ele>825</ele></trkpt>
<trkpt lat="66.24267" lon="14.614445"><ele>824</ele></trkpt>
<trkpt lat="66.242597" lon="14.614327"><ele>824</ele></trkpt>
<trkpt lat="66.242612" lon="14.614355"><ele>824</ele></trkpt>
<trkpt lat="66.24271" lon="14.61414"><ele>824</ele></trkpt>
<trkpt lat="66.242923" lon="14.61385"><ele>824</ele></trkpt>
<trkpt lat="66.243005" lon="14.613785"><ele>823</ele></trkpt>
<trkpt lat="66.24308" lon="14.613685"><ele>823</ele></trkpt>
<trkpt lat="66.243132" lon="14.613378"><ele>823</ele></trkpt>
<trkpt lat="66.243148" lon="14.613147"><ele>822</ele></trkpt>
<trkpt lat="66.2432" lon="14.61289"><ele>822</ele></trkpt>
<trkpt lat="66.243202" lon="14.612612"><ele>821</ele></trkpt>
<trkpt lat="66.243148" lon="14.612355"><ele>820</ele></trkpt>
<trkpt lat="66.243127" lon="14.612045"><ele>820</ele></trkpt>
<trkpt lat="66.243093" lon="14.61195"><ele>820</ele></trkpt>
<trkpt lat="66.243087" lon="14.61183"><ele>819</ele></trkpt>
<trkpt lat="66.24312" lon="14.611605"><ele>819</ele></trkpt>
<trkpt lat="66.243132" lon="14.61116"><ele>818</ele></trkpt>
<trkpt lat="66.243105" lon="14.610542"><ele>815</ele></trkpt>
<trkpt lat="66.243045" lon="14.61015"><ele>814</ele></trkpt>
<trkpt lat="66.243087" lon="14.60971"><ele>812</ele></trkpt>
<trkpt lat="66.243087" lon="14.60957"><ele>811</ele></trkpt>
<trkpt lat="66.24302" lon="14.609297"><ele>811</ele></trkpt>
<trkpt lat="66.242975" lon="14.60926"><ele>811</ele></trkpt>
<trkpt lat="66.24293" lon="14.6091"><ele>810</ele></trkpt>
<trkpt lat="66.242975" lon="14.608832"><ele>808</ele></trkpt>
<trkpt lat="66.242953" lon="14.60881"><ele>808</ele></trkpt>
<trkpt lat="66.242912" lon="14.608685"><ele>807</ele></trkpt>
<trkpt lat="66.242865" lon="14.60863"><ele>807</ele></trkpt>
<trkpt lat="66.242835" lon="14.60851"><ele>806</ele></trkpt>
<trkpt lat="66.242825" lon="14.608375"><ele>805</ele></trkpt>
<trkpt lat="66.24285" lon="14.608145"><ele>804</ele></trkpt>
<trkpt lat="66.242855" lon="14.60786"><ele>802</ele></trkpt>
<trkpt lat="66.242837" lon="14.607662"><ele>801</ele></trkpt>
<trkpt lat="66.242807" lon="14.607527"><ele>800</ele></trkpt>
<trkpt lat="66.242782" lon="14.607125"><ele>797</ele></trkpt>
<trkpt lat="66.242698" lon="14.6068"><ele>795</ele></trkpt>
<trkpt lat="66.24267" lon="14.60647"><ele>792</ele></trkpt>
<trkpt lat="66.242695" lon="14.6061"><ele>789</ele></trkpt>
<trkpt lat="66.242735" lon="14.60594"><ele>788</ele></trkpt>
<trkpt lat="66.242807" lon="14.60542"><ele>784</ele></trkpt>
<trkpt lat="66.2428" lon="14.605165"><ele>782</ele></trkpt>
<trkpt lat="66.24283" lon="14.604972"><ele>781</ele></trkpt>
<trkpt lat="66.242805" lon="14.604857"><ele>780</ele></trkpt>
<trkpt lat="66.242818" lon="14.60447"><ele>778</ele></trkpt>
<trkpt lat="66.242845" lon="14.60429"><ele>777</ele></trkpt>
<trkpt lat="66.242922" lon="14.60428"><ele>777</ele></trkpt>
<trkpt lat="66.243035" lon="14.603785"><ele>774</ele></trkpt>
<trkpt lat="66.243165" lon="14.603325"><ele>772</ele></trkpt>
<trkpt lat="66.2432" lon="14.603148"><ele>771</ele></trkpt>
<trkpt lat="66.243203" lon="14.602965"><ele>769</ele></trkpt>
<trkpt lat="66.243202" lon="14.603072"><ele>770</ele></trkpt>
<trkpt lat="66.243227" lon="14.602922"><ele>769</ele></trkpt>
<trkpt lat="66.243218" lon="14.602695"><ele>768</ele></trkpt>
<trkpt lat="66.243307" lon="14.602525"><ele>767</ele></trkpt>
<trkpt lat="66.243372" lon="14.60213"><ele>764</ele></trkpt>
<trkpt lat="66.243358" lon="14.601935"><ele>763</ele></trkpt>
<trkpt lat="66.243385" lon="14.60154"><ele>761</ele></trkpt>
<trkpt lat="66.243372" lon="14.60115"><ele>759</ele></trkpt>
<trkpt lat="66.24333" lon="14.60098"><ele>758</ele></trkpt>
<trkpt lat="66.243295" lon="14.60058"><ele>756</ele></trkpt>
<trkpt lat="66.24325" lon="14.600397"><ele>754</ele></trkpt>
<trkpt lat="66.243242" lon="14.600193"><ele>753</ele></trkpt>
<trkpt lat="66.24322" lon="14.600187"><ele>753</ele></trkpt>
<trkpt lat="66.243218" lon="14.600265"><ele>754</ele></trkpt>
<trkpt lat="66.243212" lon="14.60021"><ele>753</ele></trkpt>
<trkpt lat="66.243247" lon="14.600375"><ele>754</ele></trkpt>
<trkpt lat="66.24328" lon="14.600382"><ele>754</ele></trkpt>
<trkpt lat="66.24324" lon="14.60034"><ele>754</ele></trkpt>
<trkpt lat="66.243242" lon="14.600357"><ele>754</ele></trkpt>
<trkpt lat="66.243223" lon="14.600275"><ele>754</ele></trkpt>
<trkpt lat="66.243218" lon="14.600347"><ele>754</ele></trkpt>
<trkpt lat="66.243213" lon="14.600275"><ele>754</ele></trkpt>
<trkpt lat="66.243235" lon="14.59992"><ele>751</ele></trkpt>
<trkpt lat="66.243287" lon="14.599493"><ele>749</ele></trkpt>
<trkpt lat="66.243353" lon="14.59935"><ele>748</ele></trkpt>
<trkpt lat="66.243403" lon="14.599185"><ele>747</ele></trkpt>
<trkpt lat="66.24353" lon="14.598962"><ele>746</ele></trkpt>
<trkpt lat="66.243655" lon="14.598805"><ele>745</ele></trkpt>
<trkpt lat="66.243707" lon="14.598698"><ele>745</ele></trkpt>
<trkpt lat="66.24387" lon="14.598055"><ele>742</ele></trkpt>
<trkpt lat="66.243875" lon="14.59789"><ele>741</ele></trkpt>
<trkpt lat="66.243945" lon="14.597455"><ele>740</ele></trkpt>
<trkpt lat="66.244065" lon="14.5972"><ele>739</ele></trkpt>
<trkpt lat="66.24415" lon="14.596855"><ele>737</ele></trkpt>
<trkpt lat="66.244205" lon="14.596705"><ele>737</ele></trkpt>
<trkpt lat="66.24428" lon="14.596585"><ele>736</ele></trkpt>
<trkpt lat="66.244348" lon="14.596545"><ele>736</ele></trkpt>
<trkpt lat="66.24446" lon="14.596297"><ele>735</ele></trkpt>
<trkpt lat="66.244555" lon="14.59587"><ele>733</ele></trkpt>
<trkpt lat="66.244693" lon="14.595405"><ele>730</ele></trkpt>
<trkpt lat="66.244747" lon="14.595275"><ele>730</ele></trkpt>
<trkpt lat="66.24488" lon="14.59511"><ele>729</ele></trkpt>
<trkpt lat="66.24504" lon="14.59443"><ele>725</ele></trkpt>
<trkpt lat="66.245135" lon="14.594147"><ele>724</ele></trkpt>
<trkpt lat="66.245205" lon="14.593805"><ele>722</ele></trkpt>
<trkpt lat="66.245192" lon="14.59346"><ele>721</ele></trkpt>
<trkpt lat="66.24525" lon="14.59309"><ele>719</ele></trkpt>
<trkpt lat="66.24525" lon="14.592927"><ele>719</ele></trkpt>
<trkpt lat="66.245328" lon="14.592615"><ele>718</ele></trkpt>
<trkpt lat="66.24539" lon="14.592257"><ele>716</ele></trkpt>
<trkpt lat="66.245512" lon="14.59201"><ele>715</ele></trkpt>
<trkpt lat="66.245558" lon="14.591815"><ele>715</ele></trkpt>
<trkpt lat="66.245622" lon="14.591875"><ele>715</ele></trkpt>
<trkpt lat="66.245638" lon="14.591847"><ele>715</ele></trkpt>
<trkpt lat="66.245795" lon="14.59141"><ele>714</ele></trkpt>
<trkpt lat="66.24592" lon="14.59084"><ele>712</ele></trkpt>
<trkpt lat="66.246065" lon="14.589472"><ele>708</ele></trkpt>
<trkpt lat="66.24615" lon="14.589132"><ele>707</ele></trkpt>
<trkpt lat="66.246267" lon="14.588895"><ele>707</ele></trkpt>
<trkpt lat="66.246487" lon="14.588125"><ele>705</ele></trkpt>
<trkpt lat="66.246507" lon="14.587947"><ele>705</ele></trkpt>
<trkpt lat="66.246515" lon="14.587537"><ele>705</ele></trkpt>
<trkpt lat="66.24648" lon="14.587135"><ele>704</ele></trkpt>
<trkpt lat="66.2465" lon="14.58657"><ele>704</ele></trkpt>
<trkpt lat="66.246478" lon="14.58638"><ele>703</ele></trkpt>
<trkpt lat="66.246525" lon="14.58597"><ele>703</ele></trkpt>
<trkpt lat="66.246565" lon="14.585815"><ele>703</ele></trkpt>
<trkpt lat="66.24661" lon="14.585497"><ele>703</ele></trkpt>
<trkpt lat="66.246543" lon="14.584865"><ele>702</ele></trkpt>
<trkpt lat="66.24657" lon="14.58473"><ele>702</ele></trkpt>
<trkpt lat="66.24665" lon="14.584495"><ele>702</ele></trkpt>
<trkpt lat="66.24675" lon="14.584342"><ele>702</ele></trkpt>
<trkpt lat="66.246735" lon="14.58441"><ele>702</ele></trkpt>
<trkpt lat="66.246787" lon="14.584375"><ele>702</ele></trkpt>
<trkpt lat="66.246853" lon="14.58428"><ele>701</ele></trkpt>
<trkpt lat="66.246983" lon="14.58375"><ele>700</ele></trkpt>
<trkpt lat="66.247055" lon="14.583595"><ele>699</ele></trkpt>
<trkpt lat="66.247105" lon="14.583415"><ele>699</ele></trkpt>
<trkpt lat="66.247132" lon="14.58325"><ele>699</ele></trkpt>
<trkpt lat="66.247227" lon="14.58289"><ele>698</ele></trkpt>
<trkpt lat="66.247298" lon="14.582732"><ele>697</ele></trkpt>
<trkpt lat="66.24736" lon="14.58238"><ele>697</ele></trkpt>
<trkpt lat="66.24749" lon="14.581825"><ele>696</ele></trkpt>
<trkpt lat="66.247537" lon="14.581465"><ele>696</ele></trkpt>
<trkpt lat="66.247705" lon="14.581042"><ele>694</ele></trkpt>
<trkpt lat="66.24775" lon="14.58089"><ele>693</ele></trkpt>
<trkpt lat="66.2478" lon="14.58056"><ele>693</ele></trkpt>
<trkpt lat="66.247867" lon="14.58045"><ele>692</ele></trkpt>
<trkpt lat="66.248002" lon="14.57996"><ele>691</ele></trkpt>
<trkpt lat="66.24813" lon="14.57971"><ele>689</ele></trkpt>
<trkpt lat="66.24814" lon="14.57973"><ele>689</ele></trkpt>
<trkpt lat="66.248175" lon="14.57959"><ele>688</ele></trkpt>
<trkpt lat="66.248202" lon="14.579565"><ele>688</ele></trkpt>
<trkpt lat="66.24831" lon="14.579222"><ele>687</ele></trkpt>
<trkpt lat="66.24842" lon="14.578365"><ele>687</ele></trkpt>
<trkpt lat="66.248475" lon="14.578055"><ele>687</ele></trkpt>
<trkpt lat="66.248513" lon="14.577962"><ele>686</ele></trkpt>
<trkpt lat="66.248588" lon="14.57788"><ele>686</ele></trkpt>
<trkpt lat="66.248635" lon="14.57778"><ele>684</ele></trkpt>
<trkpt lat="66.248915" lon="14.577435"><ele>680</ele></trkpt>
<trkpt lat="66.249065" lon="14.577347"><ele>678</ele></trkpt>
<trkpt lat="66.249222" lon="14.576857"><ele>673</ele></trkpt>
<trkpt lat="66.249262" lon="14.576225"><ele>669</ele></trkpt>
<trkpt lat="66.249245" lon="14.576042"><ele>668</ele></trkpt>
<trkpt lat="66.24921" lon="14.576065"><ele>669</ele></trkpt>
<trkpt lat="66.24928" lon="14.576027"><ele>668</ele></trkpt>
<trkpt lat="66.249312" lon="14.57596"><ele>667</ele></trkpt>
<trkpt lat="66.249305" lon="14.575845"><ele>666</ele></trkpt>
<trkpt lat="66.24938" lon="14.575835"><ele>665</ele></trkpt>
<trkpt lat="66.249448" lon="14.575715"><ele>663</ele></trkpt>
<trkpt lat="66.249515" lon="14.575522"><ele>661</ele></trkpt>
<trkpt lat="66.249533" lon="14.575215"><ele>658</ele></trkpt>
<trkpt lat="66.24956" lon="14.57511"><ele>657</ele></trkpt>
<trkpt lat="66.249605" lon="14.57509"><ele>656</ele></trkpt>
<trkpt lat="66.249605" lon="14.57506"><ele>656</ele></trkpt>
<trkpt lat="66.249658" lon="14.574965"><ele>655</ele></trkpt>
<trkpt lat="66.249648" lon="14.574995"><ele>655</ele></trkpt>
<trkpt lat="66.249675" lon="14.57504"><ele>656</ele></trkpt>
<trkpt lat="66.249785" lon="14.574995"><ele>654</ele></trkpt>
<trkpt lat="66.24986" lon="14.574733"><ele>652</ele></trkpt>
<trkpt lat="66.249885" lon="14.57447"><ele>650</ele></trkpt>
<trkpt lat="66.249885" lon="14.57429"><ele>648</ele></trkpt>
<trkpt lat="66.249942" lon="14.57417"><ele>647</ele></trkpt>
<trkpt lat="66.250023" lon="14.574162"><ele>647</ele></trkpt>
<trkpt lat="66.250095" lon="14.574057"><ele>646</ele></trkpt>
<trkpt lat="66.250127" lon="14.573855"><ele>645</ele></trkpt>
<trkpt lat="66.250175" lon="14.573705"><ele>644</ele></trkpt>
<trkpt lat="66.250175" lon="14.573515"><ele>642</ele></trkpt>
<trkpt lat="66.250203" lon="14.57326"><ele>641</ele></trkpt>
<trkpt lat="66.250265" lon="14.573105"><ele>640</ele></trkpt>
<trkpt lat="66.250297" lon="14.57294"><ele>639</ele></trkpt>
<trkpt lat="66.250312" lon="14.572767"><ele>638</ele></trkpt>
<trkpt lat="66.250287" lon="14.57257"><ele>637</ele></trkpt>
<trkpt lat="66.250295" lon="14.572382"><ele>636</ele></trkpt>
<trkpt lat="66.250332" lon="14.572245"><ele>635</ele></trkpt>
<trkpt lat="66.250537" lon="14.571737"><ele>633</ele></trkpt>
<trkpt lat="66.250632" lon="14.57132"><ele>631</ele></trkpt>
<trkpt lat="66.25063" lon="14.570945"><ele>629</ele></trkpt>
<trkpt lat="66.250568" lon="14.570397"><ele>624</ele></trkpt>
<trkpt lat="66.250568" lon="14.57021"><ele>623</ele></trkpt>
<trkpt lat="66.25059" lon="14.570025"><ele>622</ele></trkpt>
<trkpt lat="66.250645" lon="14.569912"><ele>622</ele></trkpt>
<trkpt lat="66.250725" lon="14.569615"><ele>621</ele></trkpt>
<trkpt lat="66.250745" lon="14.569503"><ele>620</ele></trkpt>
<trkpt lat="66.250735" lon="14.569375"><ele>619</ele></trkpt>
<trkpt lat="66.250765" lon="14.569278"><ele>619</ele></trkpt>
<trkpt lat="66.25077" lon="14.569295"><ele>619</ele></trkpt>
<trkpt lat="66.25081" lon="14.569105"><ele>618</ele></trkpt>
<trkpt lat="66.25079" lon="14.568912"><ele>616</ele></trkpt>
<trkpt lat="66.25077" lon="14.568895"><ele>616</ele></trkpt>
<trkpt lat="66.250718" lon="14.568675"><ele>613</ele></trkpt>
<trkpt lat="66.25068" lon="14.56828"><ele>610</ele></trkpt>
<trkpt lat="66.25065" lon="14.56829"><ele>610</ele></trkpt>
<trkpt lat="66.250662" lon="14.568102"><ele>608</ele></trkpt>
<trkpt lat="66.25065" lon="14.568047"><ele>608</ele></trkpt>
<trkpt lat="66.250605" lon="14.568"><ele>607</ele></trkpt>
<trkpt lat="66.25059" lon="14.567715"><ele>604</ele></trkpt>
<trkpt lat="66.250605" lon="14.567635"><ele>604</ele></trkpt>
<trkpt lat="66.250645" lon="14.567552"><ele>604</ele></trkpt>
<trkpt lat="66.25068" lon="14.567225"><ele>601</ele></trkpt>
<trkpt lat="66.250725" lon="14.567075"><ele>600</ele></trkpt>
<trkpt lat="66.250748" lon="14.56692"><ele>599</ele></trkpt>
<trkpt lat="66.25069" lon="14.56659"><ele>595</ele></trkpt>
<trkpt lat="66.250745" lon="14.566272"><ele>592</ele></trkpt>
<trkpt lat="66.250802" lon="14.566215"><ele>592</ele></trkpt>
<trkpt lat="66.250845" lon="14.56621"><ele>593</ele></trkpt>
<trkpt lat="66.250847" lon="14.566195"><ele>593</ele></trkpt>
<trkpt lat="66.25083" lon="14.566205"><ele>593</ele></trkpt>
<trkpt lat="66.250885" lon="14.56612"><ele>593</ele></trkpt>
<trkpt lat="66.250885" lon="14.566082"><ele>592</ele></trkpt>
<trkpt lat="66.25081" lon="14.565895"><ele>589</ele></trkpt>
<trkpt lat="66.250803" lon="14.565665"><ele>586</ele></trkpt>
<trkpt lat="66.25076" lon="14.565647"><ele>586</ele></trkpt>
<trkpt lat="66.25076" lon="14.56535"><ele>583</ele></trkpt>
<trkpt lat="66.25072" lon="14.565295"><ele>581</ele></trkpt>
<trkpt lat="66.250708" lon="14.56478"><ele>575</ele></trkpt>
<trkpt lat="66.250672" lon="14.564725"><ele>574</ele></trkpt>
<trkpt lat="66.25062" lon="14.564465"><ele>571</ele></trkpt>
<trkpt lat="66.2506" lon="14.56421"><ele>568</ele></trkpt>
<trkpt lat="66.250632" lon="14.56396"><ele>565</ele></trkpt>
<trkpt lat="66.25062" lon="14.56382"><ele>563</ele></trkpt>
<trkpt lat="66.250633" lon="14.563705"><ele>562</ele></trkpt>
<trkpt lat="66.250595" lon="14.563557"><ele>560</ele></trkpt>
<trkpt lat="66.25054" lon="14.563435"><ele>558</ele></trkpt>
<trkpt lat="66.25038" lon="14.563185"><ele>554</ele></trkpt>
<trkpt lat="66.250295" lon="14.56301"><ele>552</ele></trkpt>
<trkpt lat="66.250212" lon="14.562455"><ele>547</ele></trkpt>
<trkpt lat="66.250095" lon="14.562127"><ele>543</ele></trkpt>
<trkpt lat="66.250068" lon="14.561945"><ele>541</ele></trkpt>
<trkpt lat="66.25007" lon="14.561685"><ele>540</ele></trkpt>
<trkpt lat="66.250085" lon="14.561665"><ele>540</ele></trkpt>
<trkpt lat="66.25005" lon="14.561452"><ele>538</ele></trkpt>
<trkpt lat="66.250042" lon="14.561262"><ele>536</ele></trkpt>
<trkpt lat="66.249975" lon="14.56091"><ele>534</ele></trkpt>
<trkpt lat="66.250032" lon="14.560372"><ele>532</ele></trkpt>
<trkpt lat="66.24993" lon="14.55985"><ele>529</ele></trkpt>
<trkpt lat="66.249912" lon="14.559555"><ele>527</ele></trkpt>
<trkpt lat="66.249873" lon="14.55936"><ele>526</ele></trkpt>
<trkpt lat="66.249893" lon="14.55898"><ele>525</ele></trkpt>
<trkpt lat="66.249843" lon="14.558835"><ele>524</ele></trkpt>
<trkpt lat="66.249777" lon="14.558745"><ele>523</ele></trkpt>
<trkpt lat="66.249697" lon="14.558815"><ele>523</ele></trkpt>
</trkseg>
</trk>
</gpx>
