<?xml version="1.0" encoding="utf-8"?>
<gpx version="1.1" creator="Trailguide" xmlns="http://www.topografix.com/GPX/1/1" xmlns:xsi="http://www.w3.org/2001/XMLSchema-instance" xmlns:gpxtpx="http://www.garmin.com/xmlschemas/TrackPointExtension/v1" xsi:schemaLocation="http://www.topografix.com/GPX/1/1 http://www.topografix.com/GPX/1/1/gpx.xsd http://www.cluetrust.com/XML/GPXDATA/1/0 http://www.cluetrust.com/Schemas/gpxdata10.xsd http://www.garmin.com/xmlschemas/TrackPointExtension/v1 http://www.garmin.com/xmlschemas/TrackPointExtensionv1.xsd" xmlns:gpxdata="http://www.cluetrust.com/XML/GPXDATA/1/0">
<metadata>
<name>Moan</name>
<author><name>Andreas Bjørnådal</name></author>
<copyright author="Trailguide"><year>2020</year></copyright>
<keywords>trail,green</keywords>
</metadata>
<trk>
<name>Moan</name>
<trkseg><trkpt lat="66.332734" lon="14.041994"><ele>236</ele></trkpt>
<trkpt lat="66.332763" lon="14.042025"><ele>236</ele></trkpt>
<trkpt lat="66.332796" lon="14.042008"><ele>236</ele></trkpt>
<trkpt lat="66.332868" lon="14.041894"><ele>235</ele></trkpt>
<trkpt lat="66.332909" lon="14.041872"><ele>235</ele></trkpt>
<trkpt lat="66.333013" lon="14.041931"><ele>234</ele></trkpt>
<trkpt lat="66.333067" lon="14.041935"><ele>234</ele></trkpt>
<trkpt lat="66.333166" lon="14.041997"><ele>232</ele></trkpt>
<trkpt lat="66.333317" lon="14.042184"><ele>230</ele></trkpt>
<trkpt lat="66.33339" lon="14.04221"><ele>229</ele></trkpt>
<trkpt lat="66.333423" lon="14.042184"><ele>229</ele></trkpt>
<trkpt lat="66.333449" lon="14.042129"><ele>229</ele></trkpt>
<trkpt lat="66.333477" lon="14.041761"><ele>227</ele></trkpt>
<trkpt lat="66.333534" lon="14.041636"><ele>226</ele></trkpt>
<trkpt lat="66.333671" lon="14.041544"><ele>225</ele></trkpt>
<trkpt lat="66.333854" lon="14.041317"><ele>223</ele></trkpt>
<trkpt lat="66.334038" lon="14.041216"><ele>222</ele></trkpt>
<trkpt lat="66.334174" lon="14.041026"><ele>221</ele></trkpt>
<trkpt lat="66.33425" lon="14.040946"><ele>220</ele></trkpt>
<trkpt lat="66.334459" lon="14.040796"><ele>218</ele></trkpt>
<trkpt lat="66.334506" lon="14.040791"><ele>217</ele></trkpt>
<trkpt lat="66.334557" lon="14.040822"><ele>217</ele></trkpt>
<trkpt lat="66.334881" lon="14.041053"><ele>215</ele></trkpt>
<trkpt lat="66.335082" lon="14.041065"><ele>214</ele></trkpt>
<trkpt lat="66.335219" lon="14.04115"><ele>214</ele></trkpt>
<trkpt lat="66.335249" lon="14.041106"><ele>213</ele></trkpt>
<trkpt lat="66.335284" lon="14.041106"><ele>213</ele></trkpt>
<trkpt lat="66.335387" lon="14.041213"><ele>213</ele></trkpt>
<trkpt lat="66.335436" lon="14.041238"><ele>213</ele></trkpt>
<trkpt lat="66.335538" lon="14.041087"><ele>212</ele></trkpt>
<trkpt lat="66.335575" lon="14.041062"><ele>212</ele></trkpt>
<trkpt lat="66.335646" lon="14.041057"><ele>211</ele></trkpt>
<trkpt lat="66.335784" lon="14.04093"><ele>211</ele></trkpt>
<trkpt lat="66.335896" lon="14.040735"><ele>210</ele></trkpt>
<trkpt lat="66.335978" lon="14.040682"><ele>210</ele></trkpt>
<trkpt lat="66.336066" lon="14.040696"><ele>209</ele></trkpt>
<trkpt lat="66.33625" lon="14.040837"><ele>209</ele></trkpt>
<trkpt lat="66.336347" lon="14.040855"><ele>209</ele></trkpt>
<trkpt lat="66.336384" lon="14.040818"><ele>209</ele></trkpt>
<trkpt lat="66.336494" lon="14.040557"><ele>208</ele></trkpt>
<trkpt lat="66.336609" lon="14.040191"><ele>208</ele></trkpt>
<trkpt lat="66.336656" lon="14.040101"><ele>208</ele></trkpt>
<trkpt lat="66.33671" lon="14.04004"><ele>208</ele></trkpt>
<trkpt lat="66.336901" lon="14.039894"><ele>209</ele></trkpt>
<trkpt lat="66.337055" lon="14.039673"><ele>209</ele></trkpt>
<trkpt lat="66.337099" lon="14.039643"><ele>208</ele></trkpt>
<trkpt lat="66.337148" lon="14.039668"><ele>208</ele></trkpt>
<trkpt lat="66.337236" lon="14.039754"><ele>208</ele></trkpt>
<trkpt lat="66.337397" lon="14.040226"><ele>207</ele></trkpt>
<trkpt lat="66.337503" lon="14.040479"><ele>205</ele></trkpt>
<trkpt lat="66.337546" lon="14.040548"><ele>204</ele></trkpt>
<trkpt lat="66.337698" lon="14.040737"><ele>201</ele></trkpt>
<trkpt lat="66.337797" lon="14.040829"><ele>198</ele></trkpt>
<trkpt lat="66.338035" lon="14.041156"><ele>192</ele></trkpt>
<trkpt lat="66.338148" lon="14.04125"><ele>190</ele></trkpt>
<trkpt lat="66.338217" lon="14.041286"><ele>188</ele></trkpt>
<trkpt lat="66.338308" lon="14.041476"><ele>186</ele></trkpt>
<trkpt lat="66.338337" lon="14.041503"><ele>186</ele></trkpt>
<trkpt lat="66.338336" lon="14.041648"><ele>185</ele></trkpt>
<trkpt lat="66.338426" lon="14.041785"><ele>184</ele></trkpt>
<trkpt lat="66.338512" lon="14.041956"><ele>183</ele></trkpt>
<trkpt lat="66.33857" lon="14.041988"><ele>182</ele></trkpt>
<trkpt lat="66.338637" lon="14.04206"><ele>181</ele></trkpt>
<trkpt lat="66.338728" lon="14.042211"><ele>180</ele></trkpt>
<trkpt lat="66.338891" lon="14.042579"><ele>176</ele></trkpt>
<trkpt lat="66.338942" lon="14.042738"><ele>175</ele></trkpt>
<trkpt lat="66.338977" lon="14.043146"><ele>171</ele></trkpt>
<trkpt lat="66.339" lon="14.043262"><ele>170</ele></trkpt>
<trkpt lat="66.339178" lon="14.043799"><ele>166</ele></trkpt>
<trkpt lat="66.339255" lon="14.043932"><ele>164</ele></trkpt>
<trkpt lat="66.339627" lon="14.044357"><ele>159</ele></trkpt>
<trkpt lat="66.339753" lon="14.044555"><ele>157</ele></trkpt>
<trkpt lat="66.339813" lon="14.044691"><ele>156</ele></trkpt>
<trkpt lat="66.339878" lon="14.044952"><ele>154</ele></trkpt>
<trkpt lat="66.339953" lon="14.045063"><ele>153</ele></trkpt>
<trkpt lat="66.339982" lon="14.04514"><ele>153</ele></trkpt>
<trkpt lat="66.340068" lon="14.045446"><ele>151</ele></trkpt>
<trkpt lat="66.340086" lon="14.045722"><ele>150</ele></trkpt>
<trkpt lat="66.340139" lon="14.046109"><ele>149</ele></trkpt>
<trkpt lat="66.340128" lon="14.046341"><ele>147</ele></trkpt>
<trkpt lat="66.340176" lon="14.046456"><ele>146</ele></trkpt>
<trkpt lat="66.340322" lon="14.046592"><ele>144</ele></trkpt>
<trkpt lat="66.340589" lon="14.046927"><ele>141</ele></trkpt>
<trkpt lat="66.340938" lon="14.047441"><ele>135</ele></trkpt>
<trkpt lat="66.341191" lon="14.047678"><ele>131</ele></trkpt>
<trkpt lat="66.341238" lon="14.047746"><ele>130</ele></trkpt>
<trkpt lat="66.341315" lon="14.047954"><ele>129</ele></trkpt>
<trkpt lat="66.341328" lon="14.048096"><ele>128</ele></trkpt>
<trkpt lat="66.341316" lon="14.048727"><ele>125</ele></trkpt>
<trkpt lat="66.341373" lon="14.049068"><ele>123</ele></trkpt>
<trkpt lat="66.341528" lon="14.049585"><ele>120</ele></trkpt>
<trkpt lat="66.341582" lon="14.049835"><ele>118</ele></trkpt>
<trkpt lat="66.341581" lon="14.049763"><ele>118</ele></trkpt>
<trkpt lat="66.341695" lon="14.050193"><ele>115</ele></trkpt>
<trkpt lat="66.341759" lon="14.050307"><ele>114</ele></trkpt>
<trkpt lat="66.341822" lon="14.050522"><ele>112</ele></trkpt>
<trkpt lat="66.341876" lon="14.050871"><ele>111</ele></trkpt>
<trkpt lat="66.341883" lon="14.051106"><ele>110</ele></trkpt>
<trkpt lat="66.341923" lon="14.051336"><ele>109</ele></trkpt>
<trkpt lat="66.341993" lon="14.051552"><ele>108</ele></trkpt>
<trkpt lat="66.342037" lon="14.05188"><ele>105</ele></trkpt>
<trkpt lat="66.342075" lon="14.052016"><ele>104</ele></trkpt>
<trkpt lat="66.342222" lon="14.052271"><ele>101</ele></trkpt>
<trkpt lat="66.342294" lon="14.05247"><ele>100</ele></trkpt>
<trkpt lat="66.342438" lon="14.053092"><ele>95</ele></trkpt>
<trkpt lat="66.342533" lon="14.053682"><ele>91</ele></trkpt>
<trkpt lat="66.342554" lon="14.053938"><ele>90</ele></trkpt>
<trkpt lat="66.342549" lon="14.05452"><ele>88</ele></trkpt>
<trkpt lat="66.342605" lon="14.055026"><ele>86</ele></trkpt>
<trkpt lat="66.342753" lon="14.055944"><ele>84</ele></trkpt>
<trkpt lat="66.342951" lon="14.056742"><ele>80</ele></trkpt>
<trkpt lat="66.342985" lon="14.057114"><ele>79</ele></trkpt>
<trkpt lat="66.342978" lon="14.05745"><ele>77</ele></trkpt>
<trkpt lat="66.342956" lon="14.057666"><ele>77</ele></trkpt>
<trkpt lat="66.342813" lon="14.05807"><ele>76</ele></trkpt>
<trkpt lat="66.34279" lon="14.058193"><ele>75</ele></trkpt>
<trkpt lat="66.342797" lon="14.058442"><ele>75</ele></trkpt>
<trkpt lat="66.34293" lon="14.058973"><ele>74</ele></trkpt>
<trkpt lat="66.342987" lon="14.059132"><ele>73</ele></trkpt>
<trkpt lat="66.343045" lon="14.059247"><ele>72</ele></trkpt>
<trkpt lat="66.343186" lon="14.059425"><ele>71</ele></trkpt>
<trkpt lat="66.34323" lon="14.059503"><ele>70</ele></trkpt>
<trkpt lat="66.343525" lon="14.060039"><ele>68</ele></trkpt>
<trkpt lat="66.343566" lon="14.060162"><ele>67</ele></trkpt>
<trkpt lat="66.343645" lon="14.060879"><ele>67</ele></trkpt>
<trkpt lat="66.34379" lon="14.06143"><ele>68</ele></trkpt>
<trkpt lat="66.343801" lon="14.061519"><ele>68</ele></trkpt>
<trkpt lat="66.343748" lon="14.062089"><ele>70</ele></trkpt>
<trkpt lat="66.343717" lon="14.062168"><ele>70</ele></trkpt>
<trkpt lat="66.343674" lon="14.062232"><ele>70</ele></trkpt>
<trkpt lat="66.343588" lon="14.062314"><ele>71</ele></trkpt>
<trkpt lat="66.343518" lon="14.062436"><ele>71</ele></trkpt>
<trkpt lat="66.34335" lon="14.062913"><ele>72</ele></trkpt>
<trkpt lat="66.343241" lon="14.063165"><ele>72</ele></trkpt>
<trkpt lat="66.343045" lon="14.063448"><ele>72</ele></trkpt>
<trkpt lat="66.34294" lon="14.063636"><ele>72</ele></trkpt>
<trkpt lat="66.342868" lon="14.063866"><ele>72</ele></trkpt>
<trkpt lat="66.342849" lon="14.064136"><ele>72</ele></trkpt>
<trkpt lat="66.34289" lon="14.06444"><ele>71</ele></trkpt>
<trkpt lat="66.343041" lon="14.065099"><ele>71</ele></trkpt>
<trkpt lat="66.343104" lon="14.065464"><ele>71</ele></trkpt>
<trkpt lat="66.343154" lon="14.066211"><ele>73</ele></trkpt>
<trkpt lat="66.343262" lon="14.066825"><ele>74</ele></trkpt>
<trkpt lat="66.34334" lon="14.067495"><ele>75</ele></trkpt>
<trkpt lat="66.343347" lon="14.068247"><ele>76</ele></trkpt>
<trkpt lat="66.343402" lon="14.06864"><ele>76</ele></trkpt>
<trkpt lat="66.343474" lon="14.068941"><ele>76</ele></trkpt>
<trkpt lat="66.343578" lon="14.069222"><ele>76</ele></trkpt>
<trkpt lat="66.343696" lon="14.069443"><ele>75</ele></trkpt>
<trkpt lat="66.343889" lon="14.069722"><ele>76</ele></trkpt>
<trkpt lat="66.344013" lon="14.069974"><ele>76</ele></trkpt>
<trkpt lat="66.344045" lon="14.070083"><ele>77</ele></trkpt>
<trkpt lat="66.344085" lon="14.070348"><ele>77</ele></trkpt>
<trkpt lat="66.344175" lon="14.071457"><ele>76</ele></trkpt>
<trkpt lat="66.344253" lon="14.071875"><ele>74</ele></trkpt>
<trkpt lat="66.34431" lon="14.072059"><ele>73</ele></trkpt>
<trkpt lat="66.344371" lon="14.072187"><ele>73</ele></trkpt>
<trkpt lat="66.344603" lon="14.072423"><ele>71</ele></trkpt>
<trkpt lat="66.344692" lon="14.072591"><ele>70</ele></trkpt>
<trkpt lat="66.344877" lon="14.073205"><ele>70</ele></trkpt>
<trkpt lat="66.34503" lon="14.073964"><ele>69</ele></trkpt>
</trkseg>
</trk>
</gpx>
