<?xml version="1.0" encoding="utf-8"?>
<gpx version="1.1" creator="Trailguide" xmlns="http://www.topografix.com/GPX/1/1" xmlns:xsi="http://www.w3.org/2001/XMLSchema-instance" xmlns:gpxtpx="http://www.garmin.com/xmlschemas/TrackPointExtension/v1" xsi:schemaLocation="http://www.topografix.com/GPX/1/1 http://www.topografix.com/GPX/1/1/gpx.xsd http://www.cluetrust.com/XML/GPXDATA/1/0 http://www.cluetrust.com/Schemas/gpxdata10.xsd http://www.garmin.com/xmlschemas/TrackPointExtension/v1 http://www.garmin.com/xmlschemas/TrackPointExtensionv1.xsd" xmlns:gpxdata="http://www.cluetrust.com/XML/GPXDATA/1/0">
<metadata>
<name>Rausandhaugen</name>
<author><name>Andreas Bjørnådal</name></author>
<copyright author="Trailguide"><year>2020</year></copyright>
<keywords>trail,red</keywords>
</metadata>
<trk>
<name>Rausandhaugen</name>
<trkseg><trkpt lat="66.284561" lon="14.570453"><ele>819</ele></trkpt>
<trkpt lat="66.284647" lon="14.570193"><ele>819</ele></trkpt>
<trkpt lat="66.28488" lon="14.569715"><ele>817</ele></trkpt>
<trkpt lat="66.284931" lon="14.569546"><ele>815</ele></trkpt>
<trkpt lat="66.28499" lon="14.56919"><ele>813</ele></trkpt>
<trkpt lat="66.285002" lon="14.568718"><ele>810</ele></trkpt>
<trkpt lat="66.284971" lon="14.567715"><ele>804</ele></trkpt>
<trkpt lat="66.284977" lon="14.567476"><ele>802</ele></trkpt>
<trkpt lat="66.285042" lon="14.56651"><ele>793</ele></trkpt>
<trkpt lat="66.285168" lon="14.565447"><ele>787</ele></trkpt>
<trkpt lat="66.285321" lon="14.564684"><ele>780</ele></trkpt>
<trkpt lat="66.285462" lon="14.564154"><ele>775</ele></trkpt>
<trkpt lat="66.285538" lon="14.563898"><ele>773</ele></trkpt>
<trkpt lat="66.28574" lon="14.563471"><ele>767</ele></trkpt>
<trkpt lat="66.285782" lon="14.563328"><ele>765</ele></trkpt>
<trkpt lat="66.285944" lon="14.562661"><ele>757</ele></trkpt>
<trkpt lat="66.28605" lon="14.561944"><ele>751</ele></trkpt>
<trkpt lat="66.286124" lon="14.560589"><ele>741</ele></trkpt>
<trkpt lat="66.286125" lon="14.560079"><ele>738</ele></trkpt>
<trkpt lat="66.286165" lon="14.559747"><ele>735</ele></trkpt>
<trkpt lat="66.286189" lon="14.559329"><ele>732</ele></trkpt>
<trkpt lat="66.286172" lon="14.558955"><ele>731</ele></trkpt>
<trkpt lat="66.286069" lon="14.558162"><ele>729</ele></trkpt>
<trkpt lat="66.285973" lon="14.556915"><ele>727</ele></trkpt>
<trkpt lat="66.285986" lon="14.556603"><ele>725</ele></trkpt>
<trkpt lat="66.286002" lon="14.556446"><ele>724</ele></trkpt>
<trkpt lat="66.286117" lon="14.556043"><ele>722</ele></trkpt>
<trkpt lat="66.286161" lon="14.555682"><ele>720</ele></trkpt>
<trkpt lat="66.286219" lon="14.554516"><ele>714</ele></trkpt>
<trkpt lat="66.28626" lon="14.554154"><ele>712</ele></trkpt>
<trkpt lat="66.286343" lon="14.553696"><ele>709</ele></trkpt>
<trkpt lat="66.286407" lon="14.553501"><ele>707</ele></trkpt>
<trkpt lat="66.286615" lon="14.553141"><ele>704</ele></trkpt>
<trkpt lat="66.28669" lon="14.552853"><ele>702</ele></trkpt>
<trkpt lat="66.286815" lon="14.552148"><ele>699</ele></trkpt>
<trkpt lat="66.286881" lon="14.55109"><ele>694</ele></trkpt>
<trkpt lat="66.286921" lon="14.550833"><ele>693</ele></trkpt>
<trkpt lat="66.286973" lon="14.550089"><ele>691</ele></trkpt>
<trkpt lat="66.287075" lon="14.549503"><ele>686</ele></trkpt>
<trkpt lat="66.287015" lon="14.54884"><ele>679</ele></trkpt>
<trkpt lat="66.287021" lon="14.548651"><ele>678</ele></trkpt>
<trkpt lat="66.287071" lon="14.54815"><ele>673</ele></trkpt>
<trkpt lat="66.287193" lon="14.547418"><ele>670</ele></trkpt>
<trkpt lat="66.287207" lon="14.547094"><ele>670</ele></trkpt>
<trkpt lat="66.287275" lon="14.546698"><ele>669</ele></trkpt>
<trkpt lat="66.287331" lon="14.546522"><ele>669</ele></trkpt>
<trkpt lat="66.287386" lon="14.545883"><ele>670</ele></trkpt>
<trkpt lat="66.287514" lon="14.545229"><ele>673</ele></trkpt>
<trkpt lat="66.287568" lon="14.544826"><ele>675</ele></trkpt>
<trkpt lat="66.287586" lon="14.544598"><ele>676</ele></trkpt>
<trkpt lat="66.287559" lon="14.544166"><ele>675</ele></trkpt>
<trkpt lat="66.287577" lon="14.543964"><ele>675</ele></trkpt>
<trkpt lat="66.287637" lon="14.54376"><ele>675</ele></trkpt>
<trkpt lat="66.287837" lon="14.543285"><ele>676</ele></trkpt>
<trkpt lat="66.287943" lon="14.543073"><ele>675</ele></trkpt>
<trkpt lat="66.288093" lon="14.542882"><ele>675</ele></trkpt>
<trkpt lat="66.288143" lon="14.542756"><ele>674</ele></trkpt>
<trkpt lat="66.288349" lon="14.541492"><ele>672</ele></trkpt>
<trkpt lat="66.288408" lon="14.541304"><ele>671</ele></trkpt>
<trkpt lat="66.288746" lon="14.54046"><ele>668</ele></trkpt>
<trkpt lat="66.288837" lon="14.539902"><ele>667</ele></trkpt>
<trkpt lat="66.288839" lon="14.539712"><ele>666</ele></trkpt>
<trkpt lat="66.288799" lon="14.539525"><ele>665</ele></trkpt>
<trkpt lat="66.288958" lon="14.53887"><ele>666</ele></trkpt>
<trkpt lat="66.288988" lon="14.538677"><ele>665</ele></trkpt>
<trkpt lat="66.288995" lon="14.538381"><ele>664</ele></trkpt>
<trkpt lat="66.289025" lon="14.538197"><ele>663</ele></trkpt>
<trkpt lat="66.289076" lon="14.538007"><ele>662</ele></trkpt>
<trkpt lat="66.289197" lon="14.537687"><ele>659</ele></trkpt>
<trkpt lat="66.28927" lon="14.537597"><ele>658</ele></trkpt>
<trkpt lat="66.289295" lon="14.537607"><ele>658</ele></trkpt>
<trkpt lat="66.289328" lon="14.537523"><ele>657</ele></trkpt>
<trkpt lat="66.289387" lon="14.537477"><ele>657</ele></trkpt>
<trkpt lat="66.289482" lon="14.537317"><ele>656</ele></trkpt>
<trkpt lat="66.289523" lon="14.537215"><ele>656</ele></trkpt>
<trkpt lat="66.289557" lon="14.537018"><ele>655</ele></trkpt>
<trkpt lat="66.28957" lon="14.536794"><ele>655</ele></trkpt>
<trkpt lat="66.289643" lon="14.53655"><ele>655</ele></trkpt>
<trkpt lat="66.289665" lon="14.535982"><ele>657</ele></trkpt>
<trkpt lat="66.289647" lon="14.535638"><ele>658</ele></trkpt>
<trkpt lat="66.289578" lon="14.534889"><ele>658</ele></trkpt>
<trkpt lat="66.289515" lon="14.534447"><ele>657</ele></trkpt>
<trkpt lat="66.2894" lon="14.53333"><ele>656</ele></trkpt>
<trkpt lat="66.289404" lon="14.533149"><ele>655</ele></trkpt>
<trkpt lat="66.289559" lon="14.532469"><ele>654</ele></trkpt>
<trkpt lat="66.289678" lon="14.532153"><ele>653</ele></trkpt>
<trkpt lat="66.289835" lon="14.531269"><ele>650</ele></trkpt>
<trkpt lat="66.289849" lon="14.530763"><ele>649</ele></trkpt>
<trkpt lat="66.289825" lon="14.530217"><ele>648</ele></trkpt>
<trkpt lat="66.289866" lon="14.529758"><ele>648</ele></trkpt>
<trkpt lat="66.289987" lon="14.529172"><ele>648</ele></trkpt>
<trkpt lat="66.290102" lon="14.529012"><ele>648</ele></trkpt>
<trkpt lat="66.290235" lon="14.528887"><ele>649</ele></trkpt>
<trkpt lat="66.290565" lon="14.528457"><ele>647</ele></trkpt>
<trkpt lat="66.290663" lon="14.528368"><ele>646</ele></trkpt>
<trkpt lat="66.290739" lon="14.528231"><ele>644</ele></trkpt>
<trkpt lat="66.290852" lon="14.528137"><ele>643</ele></trkpt>
<trkpt lat="66.290881" lon="14.528077"><ele>642</ele></trkpt>
<trkpt lat="66.290935" lon="14.527901"><ele>640</ele></trkpt>
<trkpt lat="66.291003" lon="14.527448"><ele>634</ele></trkpt>
<trkpt lat="66.291014" lon="14.527246"><ele>632</ele></trkpt>
<trkpt lat="66.291119" lon="14.526651"><ele>629</ele></trkpt>
<trkpt lat="66.291114" lon="14.526413"><ele>627</ele></trkpt>
<trkpt lat="66.291036" lon="14.525875"><ele>624</ele></trkpt>
<trkpt lat="66.291015" lon="14.52545"><ele>621</ele></trkpt>
<trkpt lat="66.291013" lon="14.524912"><ele>617</ele></trkpt>
<trkpt lat="66.290988" lon="14.524648"><ele>615</ele></trkpt>
<trkpt lat="66.29099" lon="14.524403"><ele>613</ele></trkpt>
<trkpt lat="66.291046" lon="14.523644"><ele>606</ele></trkpt>
<trkpt lat="66.291108" lon="14.523041"><ele>599</ele></trkpt>
<trkpt lat="66.291091" lon="14.522735"><ele>595</ele></trkpt>
<trkpt lat="66.29112" lon="14.522051"><ele>586</ele></trkpt>
<trkpt lat="66.291038" lon="14.521339"><ele>580</ele></trkpt>
<trkpt lat="66.290995" lon="14.520572"><ele>576</ele></trkpt>
<trkpt lat="66.291003" lon="14.52018"><ele>573</ele></trkpt>
<trkpt lat="66.29105" lon="14.519721"><ele>570</ele></trkpt>
<trkpt lat="66.291053" lon="14.519442"><ele>569</ele></trkpt>
<trkpt lat="66.29099" lon="14.518686"><ele>564</ele></trkpt>
<trkpt lat="66.290857" lon="14.517902"><ele>559</ele></trkpt>
<trkpt lat="66.290809" lon="14.517426"><ele>557</ele></trkpt>
<trkpt lat="66.290797" lon="14.516925"><ele>554</ele></trkpt>
<trkpt lat="66.29072" lon="14.516498"><ele>550</ele></trkpt>
<trkpt lat="66.290689" lon="14.516101"><ele>549</ele></trkpt>
<trkpt lat="66.290606" lon="14.515906"><ele>547</ele></trkpt>
<trkpt lat="66.290584" lon="14.515711"><ele>546</ele></trkpt>
<trkpt lat="66.290525" lon="14.515672"><ele>545</ele></trkpt>
<trkpt lat="66.290486" lon="14.515561"><ele>544</ele></trkpt>
<trkpt lat="66.290471" lon="14.515265"><ele>542</ele></trkpt>
<trkpt lat="66.290453" lon="14.515217"><ele>541</ele></trkpt>
<trkpt lat="66.290337" lon="14.515231"><ele>540</ele></trkpt>
<trkpt lat="66.290168" lon="14.515354"><ele>540</ele></trkpt>
<trkpt lat="66.290023" lon="14.515353"><ele>539</ele></trkpt>
<trkpt lat="66.289916" lon="14.515254"><ele>537</ele></trkpt>
<trkpt lat="66.289732" lon="14.514772"><ele>531</ele></trkpt>
<trkpt lat="66.289653" lon="14.514677"><ele>529</ele></trkpt>
<trkpt lat="66.289557" lon="14.514254"><ele>525</ele></trkpt>
<trkpt lat="66.289378" lon="14.513802"><ele>520</ele></trkpt>
<trkpt lat="66.289092" lon="14.513255"><ele>515</ele></trkpt>
<trkpt lat="66.289045" lon="14.513191"><ele>514</ele></trkpt>
<trkpt lat="66.288895" lon="14.513048"><ele>512</ele></trkpt>
<trkpt lat="66.288715" lon="14.512811"><ele>509</ele></trkpt>
<trkpt lat="66.288666" lon="14.512781"><ele>508</ele></trkpt>
<trkpt lat="66.288425" lon="14.512729"><ele>502</ele></trkpt>
<trkpt lat="66.288299" lon="14.512776"><ele>499</ele></trkpt>
<trkpt lat="66.288229" lon="14.512777"><ele>497</ele></trkpt>
<trkpt lat="66.288114" lon="14.512736"><ele>496</ele></trkpt>
<trkpt lat="66.287927" lon="14.512586"><ele>494</ele></trkpt>
<trkpt lat="66.287798" lon="14.512419"><ele>493</ele></trkpt>
<trkpt lat="66.287667" lon="14.512175"><ele>493</ele></trkpt>
</trkseg>
</trk>
</gpx>
