<?xml version="1.0" encoding="UTF-8"?>
<gpx version="1.1" creator="Rana Sykkelklubb - https://ranasykkelklubb.no" xmlns="http://www.topografix.com/GPX/1/1" xmlns:xsi="http://www.w3.org/2001/XMLSchema-instance" xsi:schemaLocation="http://www.topografix.com/GPX/1/1 http://www.topografix.com/GPX/1/1/gpx.xsd">
  <metadata>
    <name>Reinforsen &amp; Skonseng Grusrunde</name>
    <desc>Reinforsen &amp; Skonseng Grusrunde</desc>
    <author>
      <name>Rana Sykkelklubb</name>
    </author>
  </metadata>
  <wpt lat="66.312500" lon="14.142800">
    <name>Start: Mo i Rana</name>
    <desc>Start langs Ranelva nordover.</desc>
  </wpt>
  <wpt lat="66.358000" lon="14.335000">
    <name>Reinforsen Fossefall</name>
    <desc>Mektig fossefall med rasteplass og utsikt.</desc>
  </wpt>
  <wpt lat="66.368000" lon="14.310000">
    <name>Skonseng Skogsveier</name>
    <desc>Fine, faste grusveier gjennom furuskogen.</desc>
  </wpt>
  <trk>
    <name>Reinforsen &amp; Skonseng Grusrunde</name>
    <trkseg>
      <trkpt lat="66.312580" lon="14.142741"></trkpt>
      <trkpt lat="66.312747" lon="14.142851"></trkpt>
      <trkpt lat="66.312960" lon="14.142966"></trkpt>
      <trkpt lat="66.312913" lon="14.143550"></trkpt>
      <trkpt lat="66.312861" lon="14.144132"></trkpt>
      <trkpt lat="66.312828" lon="14.144449"></trkpt>
      <trkpt lat="66.312797" lon="14.144660"></trkpt>
      <trkpt lat="66.312756" lon="14.144913"></trkpt>
      <trkpt lat="66.312667" lon="14.145373"></trkpt>
      <trkpt lat="66.312554" lon="14.145963"></trkpt>
      <trkpt lat="66.312504" lon="14.146319"></trkpt>
      <trkpt lat="66.312474" lon="14.146593"></trkpt>
      <trkpt lat="66.312418" lon="14.147225"></trkpt>
      <trkpt lat="66.312356" lon="14.147503"></trkpt>
      <trkpt lat="66.312285" lon="14.147691"></trkpt>
      <trkpt lat="66.312219" lon="14.147964"></trkpt>
      <trkpt lat="66.312209" lon="14.148092"></trkpt>
      <trkpt lat="66.312220" lon="14.148334"></trkpt>
      <trkpt lat="66.312303" lon="14.148722"></trkpt>
      <trkpt lat="66.312303" lon="14.148809"></trkpt>
      <trkpt lat="66.312393" lon="14.149204"></trkpt>
      <trkpt lat="66.312494" lon="14.149676"></trkpt>
      <trkpt lat="66.312730" lon="14.150648"></trkpt>
      <trkpt lat="66.312757" lon="14.150720"></trkpt>
      <trkpt lat="66.312788" lon="14.150801"></trkpt>
      <trkpt lat="66.312855" lon="14.150955"></trkpt>
      <trkpt lat="66.312970" lon="14.151158"></trkpt>
      <trkpt lat="66.313108" lon="14.151400"></trkpt>
      <trkpt lat="66.314368" lon="14.153505"></trkpt>
      <trkpt lat="66.314627" lon="14.153983"></trkpt>
      <trkpt lat="66.314792" lon="14.154310"></trkpt>
      <trkpt lat="66.314857" lon="14.154441"></trkpt>
      <trkpt lat="66.314944" lon="14.154618"></trkpt>
      <trkpt lat="66.315273" lon="14.155251"></trkpt>
      <trkpt lat="66.315542" lon="14.155738"></trkpt>
      <trkpt lat="66.315584" lon="14.155898"></trkpt>
      <trkpt lat="66.315620" lon="14.156032"></trkpt>
      <trkpt lat="66.315654" lon="14.156271"></trkpt>
      <trkpt lat="66.315641" lon="14.156352"></trkpt>
      <trkpt lat="66.315640" lon="14.156439"></trkpt>
      <trkpt lat="66.315654" lon="14.156522"></trkpt>
      <trkpt lat="66.315679" lon="14.156584"></trkpt>
      <trkpt lat="66.315667" lon="14.156718"></trkpt>
      <trkpt lat="66.315660" lon="14.156841"></trkpt>
      <trkpt lat="66.315632" lon="14.156995"></trkpt>
      <trkpt lat="66.315603" lon="14.157177"></trkpt>
      <trkpt lat="66.315593" lon="14.157200"></trkpt>
      <trkpt lat="66.315557" lon="14.157281"></trkpt>
      <trkpt lat="66.315312" lon="14.157691"></trkpt>
      <trkpt lat="66.315200" lon="14.157922"></trkpt>
      <trkpt lat="66.315093" lon="14.158207"></trkpt>
      <trkpt lat="66.314996" lon="14.158607"></trkpt>
      <trkpt lat="66.314937" lon="14.158915"></trkpt>
      <trkpt lat="66.314900" lon="14.159059"></trkpt>
      <trkpt lat="66.314849" lon="14.159192"></trkpt>
      <trkpt lat="66.314741" lon="14.159348"></trkpt>
      <trkpt lat="66.314684" lon="14.159423"></trkpt>
      <trkpt lat="66.314637" lon="14.159470"></trkpt>
      <trkpt lat="66.314586" lon="14.159498"></trkpt>
      <trkpt lat="66.314498" lon="14.159512"></trkpt>
      <trkpt lat="66.314491" lon="14.159505"></trkpt>
      <trkpt lat="66.314464" lon="14.159497"></trkpt>
      <trkpt lat="66.314437" lon="14.159505"></trkpt>
      <trkpt lat="66.314401" lon="14.159551"></trkpt>
      <trkpt lat="66.314390" lon="14.159574"></trkpt>
      <trkpt lat="66.314374" lon="14.159625"></trkpt>
      <trkpt lat="66.314363" lon="14.159688"></trkpt>
      <trkpt lat="66.314358" lon="14.159755"></trkpt>
      <trkpt lat="66.314360" lon="14.159822"></trkpt>
      <trkpt lat="66.314369" lon="14.159887"></trkpt>
      <trkpt lat="66.314377" lon="14.159918"></trkpt>
      <trkpt lat="66.314394" lon="14.159966"></trkpt>
      <trkpt lat="66.314461" lon="14.160211"></trkpt>
      <trkpt lat="66.314475" lon="14.160302"></trkpt>
      <trkpt lat="66.314482" lon="14.160382"></trkpt>
      <trkpt lat="66.314492" lon="14.160611"></trkpt>
      <trkpt lat="66.314475" lon="14.161185"></trkpt>
      <trkpt lat="66.314460" lon="14.161362"></trkpt>
      <trkpt lat="66.314444" lon="14.161568"></trkpt>
      <trkpt lat="66.314425" lon="14.161817"></trkpt>
      <trkpt lat="66.314336" lon="14.162966"></trkpt>
      <trkpt lat="66.314316" lon="14.163409"></trkpt>
      <trkpt lat="66.314310" lon="14.163688"></trkpt>
      <trkpt lat="66.314313" lon="14.163953"></trkpt>
      <trkpt lat="66.314329" lon="14.164296"></trkpt>
      <trkpt lat="66.314360" lon="14.164634"></trkpt>
      <trkpt lat="66.314405" lon="14.164963"></trkpt>
      <trkpt lat="66.314463" lon="14.165273"></trkpt>
      <trkpt lat="66.314527" lon="14.165535"></trkpt>
      <trkpt lat="66.314616" lon="14.165851"></trkpt>
      <trkpt lat="66.314710" lon="14.166106"></trkpt>
      <trkpt lat="66.314813" lon="14.166335"></trkpt>
      <trkpt lat="66.314933" lon="14.166552"></trkpt>
      <trkpt lat="66.315079" lon="14.166772"></trkpt>
      <trkpt lat="66.315260" lon="14.166994"></trkpt>
      <trkpt lat="66.315469" lon="14.167212"></trkpt>
      <trkpt lat="66.315781" lon="14.167579"></trkpt>
      <trkpt lat="66.315824" lon="14.167621"></trkpt>
      <trkpt lat="66.315912" lon="14.167702"></trkpt>
      <trkpt lat="66.316174" lon="14.167951"></trkpt>
      <trkpt lat="66.316307" lon="14.168066"></trkpt>
      <trkpt lat="66.316370" lon="14.168111"></trkpt>
      <trkpt lat="66.316437" lon="14.168165"></trkpt>
      <trkpt lat="66.317339" lon="14.168889"></trkpt>
      <trkpt lat="66.317452" lon="14.168973"></trkpt>
      <trkpt lat="66.317693" lon="14.169083"></trkpt>
      <trkpt lat="66.317700" lon="14.169088"></trkpt>
      <trkpt lat="66.317759" lon="14.169118"></trkpt>
      <trkpt lat="66.317838" lon="14.169153"></trkpt>
      <trkpt lat="66.317983" lon="14.169180"></trkpt>
      <trkpt lat="66.318111" lon="14.169179"></trkpt>
      <trkpt lat="66.318466" lon="14.169122"></trkpt>
      <trkpt lat="66.318574" lon="14.169113"></trkpt>
      <trkpt lat="66.318716" lon="14.169122"></trkpt>
      <trkpt lat="66.318799" lon="14.169138"></trkpt>
      <trkpt lat="66.318921" lon="14.169200"></trkpt>
      <trkpt lat="66.319001" lon="14.169253"></trkpt>
      <trkpt lat="66.319097" lon="14.169332"></trkpt>
      <trkpt lat="66.319182" lon="14.169416"></trkpt>
      <trkpt lat="66.319322" lon="14.169660"></trkpt>
      <trkpt lat="66.319506" lon="14.169953"></trkpt>
      <trkpt lat="66.319598" lon="14.170126"></trkpt>
      <trkpt lat="66.319701" lon="14.170339"></trkpt>
      <trkpt lat="66.319833" lon="14.170643"></trkpt>
      <trkpt lat="66.319873" lon="14.170746"></trkpt>
      <trkpt lat="66.319913" lon="14.170864"></trkpt>
      <trkpt lat="66.319967" lon="14.171045"></trkpt>
      <trkpt lat="66.320012" lon="14.171257"></trkpt>
      <trkpt lat="66.320013" lon="14.171306"></trkpt>
      <trkpt lat="66.320017" lon="14.171355"></trkpt>
      <trkpt lat="66.320031" lon="14.171447"></trkpt>
      <trkpt lat="66.320055" lon="14.171526"></trkpt>
      <trkpt lat="66.320085" lon="14.171589"></trkpt>
      <trkpt lat="66.320102" lon="14.171613"></trkpt>
      <trkpt lat="66.320140" lon="14.171644"></trkpt>
      <trkpt lat="66.320180" lon="14.171650"></trkpt>
      <trkpt lat="66.320218" lon="14.171631"></trkpt>
      <trkpt lat="66.320267" lon="14.171782"></trkpt>
      <trkpt lat="66.320305" lon="14.171913"></trkpt>
      <trkpt lat="66.320420" lon="14.172355"></trkpt>
      <trkpt lat="66.320458" lon="14.172454"></trkpt>
      <trkpt lat="66.320514" lon="14.172575"></trkpt>
      <trkpt lat="66.320541" lon="14.172654"></trkpt>
      <trkpt lat="66.320600" lon="14.172807"></trkpt>
      <trkpt lat="66.320663" lon="14.172943"></trkpt>
      <trkpt lat="66.320698" lon="14.173009"></trkpt>
      <trkpt lat="66.320811" lon="14.173194"></trkpt>
      <trkpt lat="66.320899" lon="14.173310"></trkpt>
      <trkpt lat="66.320995" lon="14.173412"></trkpt>
      <trkpt lat="66.321111" lon="14.173506"></trkpt>
      <trkpt lat="66.321222" lon="14.173580"></trkpt>
      <trkpt lat="66.321467" lon="14.173727"></trkpt>
      <trkpt lat="66.321562" lon="14.173778"></trkpt>
      <trkpt lat="66.321719" lon="14.173942"></trkpt>
      <trkpt lat="66.321744" lon="14.173967"></trkpt>
      <trkpt lat="66.321815" lon="14.174048"></trkpt>
      <trkpt lat="66.321879" lon="14.174131"></trkpt>
      <trkpt lat="66.321897" lon="14.174202"></trkpt>
      <trkpt lat="66.321914" lon="14.174238"></trkpt>
      <trkpt lat="66.321935" lon="14.174262"></trkpt>
      <trkpt lat="66.321957" lon="14.174273"></trkpt>
      <trkpt lat="66.321991" lon="14.174262"></trkpt>
      <trkpt lat="66.322011" lon="14.174238"></trkpt>
      <trkpt lat="66.322076" lon="14.174306"></trkpt>
      <trkpt lat="66.322183" lon="14.174349"></trkpt>
      <trkpt lat="66.322275" lon="14.174348"></trkpt>
      <trkpt lat="66.323512" lon="14.175238"></trkpt>
      <trkpt lat="66.323550" lon="14.175267"></trkpt>
      <trkpt lat="66.323591" lon="14.175301"></trkpt>
      <trkpt lat="66.323633" lon="14.175340"></trkpt>
      <trkpt lat="66.323761" lon="14.175640"></trkpt>
      <trkpt lat="66.323841" lon="14.175864"></trkpt>
      <trkpt lat="66.323898" lon="14.176066"></trkpt>
      <trkpt lat="66.323907" lon="14.176113"></trkpt>
      <trkpt lat="66.323910" lon="14.176393"></trkpt>
      <trkpt lat="66.323903" lon="14.176567"></trkpt>
      <trkpt lat="66.323902" lon="14.176731"></trkpt>
      <trkpt lat="66.323912" lon="14.177161"></trkpt>
      <trkpt lat="66.323892" lon="14.177620"></trkpt>
      <trkpt lat="66.323852" lon="14.178298"></trkpt>
      <trkpt lat="66.323819" lon="14.178905"></trkpt>
      <trkpt lat="66.323802" lon="14.179278"></trkpt>
      <trkpt lat="66.323788" lon="14.179653"></trkpt>
      <trkpt lat="66.323783" lon="14.179888"></trkpt>
      <trkpt lat="66.323782" lon="14.180232"></trkpt>
      <trkpt lat="66.323785" lon="14.180576"></trkpt>
      <trkpt lat="66.323798" lon="14.180977"></trkpt>
      <trkpt lat="66.323818" lon="14.181367"></trkpt>
      <trkpt lat="66.323838" lon="14.181647"></trkpt>
      <trkpt lat="66.323863" lon="14.181932"></trkpt>
      <trkpt lat="66.323908" lon="14.182345"></trkpt>
      <trkpt lat="66.324054" lon="14.183485"></trkpt>
      <trkpt lat="66.324177" lon="14.184399"></trkpt>
      <trkpt lat="66.324356" lon="14.185709"></trkpt>
      <trkpt lat="66.324607" lon="14.187471"></trkpt>
      <trkpt lat="66.324863" lon="14.189207"></trkpt>
      <trkpt lat="66.324908" lon="14.189498"></trkpt>
      <trkpt lat="66.324942" lon="14.189707"></trkpt>
      <trkpt lat="66.325038" lon="14.190308"></trkpt>
      <trkpt lat="66.325061" lon="14.190463"></trkpt>
      <trkpt lat="66.325071" lon="14.190554"></trkpt>
      <trkpt lat="66.325146" lon="14.191044"></trkpt>
      <trkpt lat="66.325540" lon="14.193520"></trkpt>
      <trkpt lat="66.325582" lon="14.193796"></trkpt>
      <trkpt lat="66.325623" lon="14.194121"></trkpt>
      <trkpt lat="66.325653" lon="14.194351"></trkpt>
      <trkpt lat="66.325690" lon="14.194652"></trkpt>
      <trkpt lat="66.325710" lon="14.194842"></trkpt>
      <trkpt lat="66.325741" lon="14.195176"></trkpt>
      <trkpt lat="66.325768" lon="14.195578"></trkpt>
      <trkpt lat="66.325786" lon="14.196013"></trkpt>
      <trkpt lat="66.325796" lon="14.196489"></trkpt>
      <trkpt lat="66.325803" lon="14.197389"></trkpt>
      <trkpt lat="66.325804" lon="14.197758"></trkpt>
      <trkpt lat="66.325793" lon="14.198517"></trkpt>
      <trkpt lat="66.325778" lon="14.199212"></trkpt>
      <trkpt lat="66.325741" lon="14.199979"></trkpt>
      <trkpt lat="66.325647" lon="14.201743"></trkpt>
      <trkpt lat="66.325555" lon="14.203370"></trkpt>
      <trkpt lat="66.325459" lon="14.205647"></trkpt>
      <trkpt lat="66.325438" lon="14.206373"></trkpt>
      <trkpt lat="66.325425" lon="14.207011"></trkpt>
      <trkpt lat="66.325407" lon="14.212466"></trkpt>
      <trkpt lat="66.325417" lon="14.213379"></trkpt>
      <trkpt lat="66.325449" lon="14.214830"></trkpt>
      <trkpt lat="66.325479" lon="14.215934"></trkpt>
      <trkpt lat="66.325496" lon="14.216603"></trkpt>
      <trkpt lat="66.325517" lon="14.217407"></trkpt>
      <trkpt lat="66.325522" lon="14.217971"></trkpt>
      <trkpt lat="66.325515" lon="14.218800"></trkpt>
      <trkpt lat="66.325497" lon="14.219380"></trkpt>
      <trkpt lat="66.325439" lon="14.220415"></trkpt>
      <trkpt lat="66.325397" lon="14.221134"></trkpt>
      <trkpt lat="66.325294" lon="14.222765"></trkpt>
      <trkpt lat="66.325200" lon="14.224395"></trkpt>
      <trkpt lat="66.325173" lon="14.224887"></trkpt>
      <trkpt lat="66.325158" lon="14.225352"></trkpt>
      <trkpt lat="66.325153" lon="14.225824"></trkpt>
      <trkpt lat="66.325150" lon="14.226214"></trkpt>
      <trkpt lat="66.325165" lon="14.227896"></trkpt>
      <trkpt lat="66.325173" lon="14.228572"></trkpt>
      <trkpt lat="66.325168" lon="14.228970"></trkpt>
      <trkpt lat="66.325142" lon="14.229453"></trkpt>
      <trkpt lat="66.325098" lon="14.229937"></trkpt>
      <trkpt lat="66.325027" lon="14.230436"></trkpt>
      <trkpt lat="66.324796" lon="14.231855"></trkpt>
      <trkpt lat="66.324657" lon="14.232696"></trkpt>
      <trkpt lat="66.324513" lon="14.233553"></trkpt>
      <trkpt lat="66.324377" lon="14.234396"></trkpt>
      <trkpt lat="66.324260" lon="14.235112"></trkpt>
      <trkpt lat="66.324148" lon="14.235774"></trkpt>
      <trkpt lat="66.323956" lon="14.236913"></trkpt>
      <trkpt lat="66.323813" lon="14.237768"></trkpt>
      <trkpt lat="66.323690" lon="14.238537"></trkpt>
      <trkpt lat="66.323672" lon="14.238647"></trkpt>
      <trkpt lat="66.323584" lon="14.239148"></trkpt>
      <trkpt lat="66.323495" lon="14.239590"></trkpt>
      <trkpt lat="66.323308" lon="14.240448"></trkpt>
      <trkpt lat="66.323180" lon="14.240938"></trkpt>
      <trkpt lat="66.323023" lon="14.241533"></trkpt>
      <trkpt lat="66.322906" lon="14.241938"></trkpt>
      <trkpt lat="66.322788" lon="14.242364"></trkpt>
      <trkpt lat="66.322771" lon="14.242417"></trkpt>
      <trkpt lat="66.322662" lon="14.242793"></trkpt>
      <trkpt lat="66.322496" lon="14.243327"></trkpt>
      <trkpt lat="66.322252" lon="14.244129"></trkpt>
      <trkpt lat="66.322132" lon="14.244571"></trkpt>
      <trkpt lat="66.322015" lon="14.245035"></trkpt>
      <trkpt lat="66.321900" lon="14.245631"></trkpt>
      <trkpt lat="66.321840" lon="14.246012"></trkpt>
      <trkpt lat="66.321754" lon="14.246717"></trkpt>
      <trkpt lat="66.321718" lon="14.247191"></trkpt>
      <trkpt lat="66.321693" lon="14.247670"></trkpt>
      <trkpt lat="66.321675" lon="14.248229"></trkpt>
      <trkpt lat="66.321677" lon="14.248667"></trkpt>
      <trkpt lat="66.321687" lon="14.249109"></trkpt>
      <trkpt lat="66.321708" lon="14.249485"></trkpt>
      <trkpt lat="66.321738" lon="14.249871"></trkpt>
      <trkpt lat="66.321781" lon="14.250241"></trkpt>
      <trkpt lat="66.321833" lon="14.250606"></trkpt>
      <trkpt lat="66.321936" lon="14.251189"></trkpt>
      <trkpt lat="66.322060" lon="14.251753"></trkpt>
      <trkpt lat="66.322226" lon="14.252302"></trkpt>
      <trkpt lat="66.322401" lon="14.252785"></trkpt>
      <trkpt lat="66.322628" lon="14.253302"></trkpt>
      <trkpt lat="66.322892" lon="14.253779"></trkpt>
      <trkpt lat="66.323523" lon="14.254745"></trkpt>
      <trkpt lat="66.324062" lon="14.255590"></trkpt>
      <trkpt lat="66.324333" lon="14.256044"></trkpt>
      <trkpt lat="66.324745" lon="14.256855"></trkpt>
      <trkpt lat="66.325256" lon="14.257971"></trkpt>
      <trkpt lat="66.325620" lon="14.258706"></trkpt>
      <trkpt lat="66.326009" lon="14.259394"></trkpt>
      <trkpt lat="66.326230" lon="14.259735"></trkpt>
      <trkpt lat="66.327183" lon="14.261203"></trkpt>
      <trkpt lat="66.327919" lon="14.262331"></trkpt>
      <trkpt lat="66.328332" lon="14.262964"></trkpt>
      <trkpt lat="66.328647" lon="14.263428"></trkpt>
      <trkpt lat="66.328883" lon="14.263734"></trkpt>
      <trkpt lat="66.329168" lon="14.264048"></trkpt>
      <trkpt lat="66.329536" lon="14.264363"></trkpt>
      <trkpt lat="66.329898" lon="14.264641"></trkpt>
      <trkpt lat="66.330243" lon="14.264869"></trkpt>
      <trkpt lat="66.330607" lon="14.265108"></trkpt>
      <trkpt lat="66.330930" lon="14.265325"></trkpt>
      <trkpt lat="66.331548" lon="14.265727"></trkpt>
      <trkpt lat="66.331814" lon="14.265876"></trkpt>
      <trkpt lat="66.332080" lon="14.265994"></trkpt>
      <trkpt lat="66.333066" lon="14.266302"></trkpt>
      <trkpt lat="66.333236" lon="14.266377"></trkpt>
      <trkpt lat="66.333473" lon="14.266553"></trkpt>
      <trkpt lat="66.333692" lon="14.266782"></trkpt>
      <trkpt lat="66.333885" lon="14.267041"></trkpt>
      <trkpt lat="66.334075" lon="14.267363"></trkpt>
      <trkpt lat="66.334194" lon="14.267609"></trkpt>
      <trkpt lat="66.334311" lon="14.267893"></trkpt>
      <trkpt lat="66.334408" lon="14.268150"></trkpt>
      <trkpt lat="66.334518" lon="14.268502"></trkpt>
      <trkpt lat="66.334603" lon="14.268832"></trkpt>
      <trkpt lat="66.334669" lon="14.269124"></trkpt>
      <trkpt lat="66.334743" lon="14.269517"></trkpt>
      <trkpt lat="66.334802" lon="14.269929"></trkpt>
      <trkpt lat="66.334845" lon="14.270297"></trkpt>
      <trkpt lat="66.334877" lon="14.270669"></trkpt>
      <trkpt lat="66.334901" lon="14.271040"></trkpt>
      <trkpt lat="66.334932" lon="14.271597"></trkpt>
      <trkpt lat="66.335011" lon="14.273292"></trkpt>
      <trkpt lat="66.335114" lon="14.274996"></trkpt>
      <trkpt lat="66.335213" lon="14.276790"></trkpt>
      <trkpt lat="66.335432" lon="14.280134"></trkpt>
      <trkpt lat="66.335525" lon="14.280075"></trkpt>
      <trkpt lat="66.335596" lon="14.280006"></trkpt>
      <trkpt lat="66.335625" lon="14.279916"></trkpt>
      <trkpt lat="66.335642" lon="14.279834"></trkpt>
      <trkpt lat="66.335663" lon="14.279786"></trkpt>
      <trkpt lat="66.335680" lon="14.279783"></trkpt>
      <trkpt lat="66.335700" lon="14.279819"></trkpt>
      <trkpt lat="66.335723" lon="14.279864"></trkpt>
      <trkpt lat="66.335914" lon="14.280152"></trkpt>
      <trkpt lat="66.336001" lon="14.280330"></trkpt>
      <trkpt lat="66.336076" lon="14.280564"></trkpt>
      <trkpt lat="66.336117" lon="14.280660"></trkpt>
      <trkpt lat="66.336182" lon="14.280785"></trkpt>
      <trkpt lat="66.336241" lon="14.280898"></trkpt>
      <trkpt lat="66.336323" lon="14.281151"></trkpt>
      <trkpt lat="66.336416" lon="14.281518"></trkpt>
      <trkpt lat="66.336525" lon="14.282202"></trkpt>
      <trkpt lat="66.336575" lon="14.282526"></trkpt>
      <trkpt lat="66.336631" lon="14.282814"></trkpt>
      <trkpt lat="66.336692" lon="14.283375"></trkpt>
      <trkpt lat="66.336769" lon="14.284584"></trkpt>
      <trkpt lat="66.336896" lon="14.285502"></trkpt>
      <trkpt lat="66.336958" lon="14.286000"></trkpt>
      <trkpt lat="66.337003" lon="14.286127"></trkpt>
      <trkpt lat="66.337059" lon="14.286137"></trkpt>
      <trkpt lat="66.337118" lon="14.286019"></trkpt>
      <trkpt lat="66.337163" lon="14.285786"></trkpt>
      <trkpt lat="66.337249" lon="14.285005"></trkpt>
      <trkpt lat="66.337270" lon="14.283608"></trkpt>
      <trkpt lat="66.337339" lon="14.282696"></trkpt>
      <trkpt lat="66.337365" lon="14.282122"></trkpt>
      <trkpt lat="66.337457" lon="14.281221"></trkpt>
      <trkpt lat="66.337585" lon="14.280483"></trkpt>
      <trkpt lat="66.337717" lon="14.279727"></trkpt>
      <trkpt lat="66.337782" lon="14.279485"></trkpt>
      <trkpt lat="66.337922" lon="14.279244"></trkpt>
      <trkpt lat="66.338001" lon="14.279153"></trkpt>
      <trkpt lat="66.338062" lon="14.279161"></trkpt>
      <trkpt lat="66.338115" lon="14.279249"></trkpt>
      <trkpt lat="66.338177" lon="14.279442"></trkpt>
      <trkpt lat="66.338212" lon="14.279512"></trkpt>
      <trkpt lat="66.338244" lon="14.279526"></trkpt>
      <trkpt lat="66.338284" lon="14.279491"></trkpt>
      <trkpt lat="66.338536" lon="14.278941"></trkpt>
      <trkpt lat="66.338763" lon="14.278294"></trkpt>
      <trkpt lat="66.338831" lon="14.278096"></trkpt>
      <trkpt lat="66.338871" lon="14.277871"></trkpt>
      <trkpt lat="66.338871" lon="14.277871"></trkpt>
      <trkpt lat="66.338875" lon="14.277653"></trkpt>
      <trkpt lat="66.338831" lon="14.277171"></trkpt>
      <trkpt lat="66.338811" lon="14.276299"></trkpt>
      <trkpt lat="66.338808" lon="14.275647"></trkpt>
      <trkpt lat="66.338832" lon="14.275400"></trkpt>
      <trkpt lat="66.338894" lon="14.275138"></trkpt>
      <trkpt lat="66.338964" lon="14.274808"></trkpt>
      <trkpt lat="66.338979" lon="14.274569"></trkpt>
      <trkpt lat="66.338973" lon="14.274314"></trkpt>
      <trkpt lat="66.338909" lon="14.274105"></trkpt>
      <trkpt lat="66.338866" lon="14.273896"></trkpt>
      <trkpt lat="66.338849" lon="14.273566"></trkpt>
      <trkpt lat="66.338851" lon="14.273035"></trkpt>
      <trkpt lat="66.338893" lon="14.272756"></trkpt>
      <trkpt lat="66.338908" lon="14.272429"></trkpt>
      <trkpt lat="66.338884" lon="14.271879"></trkpt>
      <trkpt lat="66.338838" lon="14.271203"></trkpt>
      <trkpt lat="66.338845" lon="14.270634"></trkpt>
      <trkpt lat="66.338814" lon="14.269773"></trkpt>
      <trkpt lat="66.338731" lon="14.268842"></trkpt>
      <trkpt lat="66.338711" lon="14.268239"></trkpt>
      <trkpt lat="66.338713" lon="14.267783"></trkpt>
      <trkpt lat="66.338735" lon="14.267000"></trkpt>
      <trkpt lat="66.338710" lon="14.266549"></trkpt>
      <trkpt lat="66.338693" lon="14.265592"></trkpt>
      <trkpt lat="66.338693" lon="14.265346"></trkpt>
      <trkpt lat="66.338740" lon="14.265067"></trkpt>
      <trkpt lat="66.338761" lon="14.264773"></trkpt>
      <trkpt lat="66.338802" lon="14.264444"></trkpt>
      <trkpt lat="66.338873" lon="14.263974"></trkpt>
      <trkpt lat="66.338911" lon="14.263674"></trkpt>
      <trkpt lat="66.338920" lon="14.263293"></trkpt>
      <trkpt lat="66.338904" lon="14.262833"></trkpt>
      <trkpt lat="66.338920" lon="14.263293"></trkpt>
      <trkpt lat="66.338911" lon="14.263674"></trkpt>
      <trkpt lat="66.338873" lon="14.263974"></trkpt>
      <trkpt lat="66.338802" lon="14.264444"></trkpt>
      <trkpt lat="66.338761" lon="14.264773"></trkpt>
      <trkpt lat="66.338740" lon="14.265067"></trkpt>
      <trkpt lat="66.338693" lon="14.265346"></trkpt>
      <trkpt lat="66.338693" lon="14.265592"></trkpt>
      <trkpt lat="66.338710" lon="14.266549"></trkpt>
      <trkpt lat="66.338735" lon="14.267000"></trkpt>
      <trkpt lat="66.338713" lon="14.267783"></trkpt>
      <trkpt lat="66.338711" lon="14.268239"></trkpt>
      <trkpt lat="66.338731" lon="14.268842"></trkpt>
      <trkpt lat="66.338814" lon="14.269773"></trkpt>
      <trkpt lat="66.338845" lon="14.270634"></trkpt>
      <trkpt lat="66.338838" lon="14.271203"></trkpt>
      <trkpt lat="66.338884" lon="14.271879"></trkpt>
      <trkpt lat="66.338908" lon="14.272429"></trkpt>
      <trkpt lat="66.338893" lon="14.272756"></trkpt>
      <trkpt lat="66.338851" lon="14.273035"></trkpt>
      <trkpt lat="66.338849" lon="14.273566"></trkpt>
      <trkpt lat="66.338866" lon="14.273896"></trkpt>
      <trkpt lat="66.338909" lon="14.274105"></trkpt>
      <trkpt lat="66.338973" lon="14.274314"></trkpt>
      <trkpt lat="66.338979" lon="14.274569"></trkpt>
      <trkpt lat="66.338964" lon="14.274808"></trkpt>
      <trkpt lat="66.338894" lon="14.275138"></trkpt>
      <trkpt lat="66.338832" lon="14.275400"></trkpt>
      <trkpt lat="66.338808" lon="14.275647"></trkpt>
      <trkpt lat="66.338811" lon="14.276299"></trkpt>
      <trkpt lat="66.338831" lon="14.277171"></trkpt>
      <trkpt lat="66.338875" lon="14.277653"></trkpt>
      <trkpt lat="66.338871" lon="14.277871"></trkpt>
      <trkpt lat="66.338831" lon="14.278096"></trkpt>
      <trkpt lat="66.338763" lon="14.278294"></trkpt>
      <trkpt lat="66.338536" lon="14.278941"></trkpt>
      <trkpt lat="66.338284" lon="14.279491"></trkpt>
      <trkpt lat="66.338244" lon="14.279526"></trkpt>
      <trkpt lat="66.338212" lon="14.279512"></trkpt>
      <trkpt lat="66.338177" lon="14.279442"></trkpt>
      <trkpt lat="66.338115" lon="14.279249"></trkpt>
      <trkpt lat="66.338062" lon="14.279161"></trkpt>
      <trkpt lat="66.338001" lon="14.279153"></trkpt>
      <trkpt lat="66.337922" lon="14.279244"></trkpt>
      <trkpt lat="66.337782" lon="14.279485"></trkpt>
      <trkpt lat="66.337717" lon="14.279727"></trkpt>
      <trkpt lat="66.337585" lon="14.280483"></trkpt>
      <trkpt lat="66.337457" lon="14.281221"></trkpt>
      <trkpt lat="66.337365" lon="14.282122"></trkpt>
      <trkpt lat="66.337339" lon="14.282696"></trkpt>
      <trkpt lat="66.337270" lon="14.283608"></trkpt>
      <trkpt lat="66.337249" lon="14.285005"></trkpt>
      <trkpt lat="66.337163" lon="14.285786"></trkpt>
      <trkpt lat="66.337118" lon="14.286019"></trkpt>
      <trkpt lat="66.337059" lon="14.286137"></trkpt>
      <trkpt lat="66.337003" lon="14.286127"></trkpt>
      <trkpt lat="66.336958" lon="14.286000"></trkpt>
      <trkpt lat="66.336896" lon="14.285502"></trkpt>
      <trkpt lat="66.336769" lon="14.284584"></trkpt>
      <trkpt lat="66.336692" lon="14.283375"></trkpt>
      <trkpt lat="66.336631" lon="14.282814"></trkpt>
      <trkpt lat="66.336575" lon="14.282526"></trkpt>
      <trkpt lat="66.336525" lon="14.282202"></trkpt>
      <trkpt lat="66.336416" lon="14.281518"></trkpt>
      <trkpt lat="66.336323" lon="14.281151"></trkpt>
      <trkpt lat="66.336241" lon="14.280898"></trkpt>
      <trkpt lat="66.336182" lon="14.280785"></trkpt>
      <trkpt lat="66.336117" lon="14.280660"></trkpt>
      <trkpt lat="66.336076" lon="14.280564"></trkpt>
      <trkpt lat="66.336001" lon="14.280330"></trkpt>
      <trkpt lat="66.335914" lon="14.280152"></trkpt>
      <trkpt lat="66.335723" lon="14.279864"></trkpt>
      <trkpt lat="66.335700" lon="14.279819"></trkpt>
      <trkpt lat="66.335680" lon="14.279783"></trkpt>
      <trkpt lat="66.335663" lon="14.279786"></trkpt>
      <trkpt lat="66.335642" lon="14.279834"></trkpt>
      <trkpt lat="66.335625" lon="14.279916"></trkpt>
      <trkpt lat="66.335596" lon="14.280006"></trkpt>
      <trkpt lat="66.335525" lon="14.280075"></trkpt>
      <trkpt lat="66.335432" lon="14.280134"></trkpt>
      <trkpt lat="66.335700" lon="14.284013"></trkpt>
      <trkpt lat="66.335760" lon="14.285048"></trkpt>
      <trkpt lat="66.335808" lon="14.286057"></trkpt>
      <trkpt lat="66.335824" lon="14.286957"></trkpt>
      <trkpt lat="66.335817" lon="14.287653"></trkpt>
      <trkpt lat="66.335797" lon="14.288311"></trkpt>
      <trkpt lat="66.335744" lon="14.289481"></trkpt>
      <trkpt lat="66.335685" lon="14.290495"></trkpt>
      <trkpt lat="66.335612" lon="14.291616"></trkpt>
      <trkpt lat="66.335500" lon="14.293355"></trkpt>
      <trkpt lat="66.335459" lon="14.294089"></trkpt>
      <trkpt lat="66.335415" lon="14.295023"></trkpt>
      <trkpt lat="66.335406" lon="14.295581"></trkpt>
      <trkpt lat="66.335410" lon="14.295981"></trkpt>
      <trkpt lat="66.335425" lon="14.296403"></trkpt>
      <trkpt lat="66.335454" lon="14.296804"></trkpt>
      <trkpt lat="66.335494" lon="14.297188"></trkpt>
      <trkpt lat="66.335546" lon="14.297572"></trkpt>
      <trkpt lat="66.335621" lon="14.297974"></trkpt>
      <trkpt lat="66.335710" lon="14.298386"></trkpt>
      <trkpt lat="66.335796" lon="14.298717"></trkpt>
      <trkpt lat="66.335904" lon="14.299086"></trkpt>
      <trkpt lat="66.336018" lon="14.299412"></trkpt>
      <trkpt lat="66.336122" lon="14.299666"></trkpt>
      <trkpt lat="66.336236" lon="14.299916"></trkpt>
      <trkpt lat="66.336342" lon="14.300106"></trkpt>
      <trkpt lat="66.336460" lon="14.300289"></trkpt>
      <trkpt lat="66.336586" lon="14.300455"></trkpt>
      <trkpt lat="66.336704" lon="14.300580"></trkpt>
      <trkpt lat="66.336810" lon="14.300671"></trkpt>
      <trkpt lat="66.336930" lon="14.300753"></trkpt>
      <trkpt lat="66.337041" lon="14.300816"></trkpt>
      <trkpt lat="66.337139" lon="14.300859"></trkpt>
      <trkpt lat="66.337242" lon="14.300889"></trkpt>
      <trkpt lat="66.337361" lon="14.300901"></trkpt>
      <trkpt lat="66.337483" lon="14.300908"></trkpt>
      <trkpt lat="66.337629" lon="14.300903"></trkpt>
      <trkpt lat="66.337893" lon="14.300879"></trkpt>
      <trkpt lat="66.338069" lon="14.300872"></trkpt>
      <trkpt lat="66.338217" lon="14.300888"></trkpt>
      <trkpt lat="66.338349" lon="14.300922"></trkpt>
      <trkpt lat="66.338497" lon="14.300983"></trkpt>
      <trkpt lat="66.338622" lon="14.301057"></trkpt>
      <trkpt lat="66.338718" lon="14.301120"></trkpt>
      <trkpt lat="66.338871" lon="14.301243"></trkpt>
      <trkpt lat="66.338996" lon="14.301359"></trkpt>
      <trkpt lat="66.339125" lon="14.301510"></trkpt>
      <trkpt lat="66.339218" lon="14.301632"></trkpt>
      <trkpt lat="66.339306" lon="14.301761"></trkpt>
      <trkpt lat="66.339431" lon="14.301969"></trkpt>
      <trkpt lat="66.339477" lon="14.302062"></trkpt>
      <trkpt lat="66.339649" lon="14.302436"></trkpt>
      <trkpt lat="66.339811" lon="14.302875"></trkpt>
      <trkpt lat="66.339931" lon="14.303271"></trkpt>
      <trkpt lat="66.340112" lon="14.303972"></trkpt>
      <trkpt lat="66.340358" lon="14.305009"></trkpt>
      <trkpt lat="66.340790" lon="14.306904"></trkpt>
      <trkpt lat="66.341191" lon="14.308641"></trkpt>
      <trkpt lat="66.341738" lon="14.311017"></trkpt>
      <trkpt lat="66.341917" lon="14.311773"></trkpt>
      <trkpt lat="66.342025" lon="14.312195"></trkpt>
      <trkpt lat="66.342153" lon="14.312651"></trkpt>
      <trkpt lat="66.342287" lon="14.313077"></trkpt>
      <trkpt lat="66.342371" lon="14.313321"></trkpt>
      <trkpt lat="66.342465" lon="14.313578"></trkpt>
      <trkpt lat="66.342562" lon="14.313826"></trkpt>
      <trkpt lat="66.342634" lon="14.313998"></trkpt>
      <trkpt lat="66.342742" lon="14.314240"></trkpt>
      <trkpt lat="66.342875" lon="14.314518"></trkpt>
      <trkpt lat="66.342985" lon="14.314731"></trkpt>
      <trkpt lat="66.343084" lon="14.314908"></trkpt>
      <trkpt lat="66.343204" lon="14.315109"></trkpt>
      <trkpt lat="66.343358" lon="14.315346"></trkpt>
      <trkpt lat="66.343485" lon="14.315523"></trkpt>
      <trkpt lat="66.343646" lon="14.315728"></trkpt>
      <trkpt lat="66.343778" lon="14.315879"></trkpt>
      <trkpt lat="66.343867" lon="14.315973"></trkpt>
      <trkpt lat="66.343973" lon="14.316075"></trkpt>
      <trkpt lat="66.344043" lon="14.316186"></trkpt>
      <trkpt lat="66.344115" lon="14.316253"></trkpt>
      <trkpt lat="66.344214" lon="14.316328"></trkpt>
      <trkpt lat="66.344328" lon="14.316411"></trkpt>
      <trkpt lat="66.344425" lon="14.316470"></trkpt>
      <trkpt lat="66.344521" lon="14.316519"></trkpt>
      <trkpt lat="66.344621" lon="14.316575"></trkpt>
      <trkpt lat="66.344759" lon="14.316635"></trkpt>
      <trkpt lat="66.344833" lon="14.316660"></trkpt>
      <trkpt lat="66.344918" lon="14.316690"></trkpt>
      <trkpt lat="66.345011" lon="14.316720"></trkpt>
      <trkpt lat="66.345099" lon="14.316739"></trkpt>
      <trkpt lat="66.345193" lon="14.316755"></trkpt>
      <trkpt lat="66.345287" lon="14.316771"></trkpt>
      <trkpt lat="66.345397" lon="14.316782"></trkpt>
      <trkpt lat="66.345509" lon="14.316780"></trkpt>
      <trkpt lat="66.345600" lon="14.316773"></trkpt>
      <trkpt lat="66.345697" lon="14.316760"></trkpt>
      <trkpt lat="66.345783" lon="14.316739"></trkpt>
      <trkpt lat="66.345859" lon="14.316714"></trkpt>
      <trkpt lat="66.345940" lon="14.316688"></trkpt>
      <trkpt lat="66.346018" lon="14.316663"></trkpt>
      <trkpt lat="66.346079" lon="14.316634"></trkpt>
      <trkpt lat="66.346169" lon="14.316541"></trkpt>
      <trkpt lat="66.346230" lon="14.316508"></trkpt>
      <trkpt lat="66.346505" lon="14.316344"></trkpt>
      <trkpt lat="66.347601" lon="14.315571"></trkpt>
      <trkpt lat="66.348980" lon="14.314594"></trkpt>
      <trkpt lat="66.349315" lon="14.314365"></trkpt>
      <trkpt lat="66.349652" lon="14.314146"></trkpt>
      <trkpt lat="66.349989" lon="14.313941"></trkpt>
      <trkpt lat="66.350319" lon="14.313760"></trkpt>
      <trkpt lat="66.350670" lon="14.313591"></trkpt>
      <trkpt lat="66.350879" lon="14.313504"></trkpt>
      <trkpt lat="66.351186" lon="14.313397"></trkpt>
      <trkpt lat="66.351471" lon="14.313321"></trkpt>
      <trkpt lat="66.351700" lon="14.313276"></trkpt>
      <trkpt lat="66.352043" lon="14.313237"></trkpt>
      <trkpt lat="66.352273" lon="14.313229"></trkpt>
      <trkpt lat="66.352559" lon="14.313240"></trkpt>
      <trkpt lat="66.352846" lon="14.313273"></trkpt>
      <trkpt lat="66.353120" lon="14.313327"></trkpt>
      <trkpt lat="66.353199" lon="14.313346"></trkpt>
      <trkpt lat="66.353587" lon="14.313466"></trkpt>
      <trkpt lat="66.353870" lon="14.313581"></trkpt>
      <trkpt lat="66.354207" lon="14.313749"></trkpt>
      <trkpt lat="66.354457" lon="14.313896"></trkpt>
      <trkpt lat="66.354584" lon="14.313977"></trkpt>
      <trkpt lat="66.354708" lon="14.314061"></trkpt>
      <trkpt lat="66.354958" lon="14.314245"></trkpt>
      <trkpt lat="66.355150" lon="14.314397"></trkpt>
      <trkpt lat="66.355726" lon="14.314876"></trkpt>
      <trkpt lat="66.355975" lon="14.315066"></trkpt>
      <trkpt lat="66.356143" lon="14.315177"></trkpt>
      <trkpt lat="66.356301" lon="14.315265"></trkpt>
      <trkpt lat="66.356421" lon="14.315320"></trkpt>
      <trkpt lat="66.356650" lon="14.315404"></trkpt>
      <trkpt lat="66.356780" lon="14.315472"></trkpt>
      <trkpt lat="66.356970" lon="14.315507"></trkpt>
      <trkpt lat="66.357089" lon="14.315506"></trkpt>
      <trkpt lat="66.357257" lon="14.315496"></trkpt>
      <trkpt lat="66.357401" lon="14.315477"></trkpt>
      <trkpt lat="66.357630" lon="14.315423"></trkpt>
      <trkpt lat="66.357723" lon="14.315473"></trkpt>
      <trkpt lat="66.357784" lon="14.315494"></trkpt>
      <trkpt lat="66.357828" lon="14.315532"></trkpt>
      <trkpt lat="66.357859" lon="14.315599"></trkpt>
      <trkpt lat="66.357912" lon="14.315734"></trkpt>
      <trkpt lat="66.357926" lon="14.315873"></trkpt>
      <trkpt lat="66.357957" lon="14.315976"></trkpt>
      <trkpt lat="66.358097" lon="14.317708"></trkpt>
      <trkpt lat="66.358111" lon="14.317906"></trkpt>
      <trkpt lat="66.358127" lon="14.318304"></trkpt>
      <trkpt lat="66.358129" lon="14.318705"></trkpt>
      <trkpt lat="66.358124" lon="14.318905"></trkpt>
      <trkpt lat="66.358108" lon="14.319235"></trkpt>
      <trkpt lat="66.358099" lon="14.319339"></trkpt>
      <trkpt lat="66.357972" lon="14.320853"></trkpt>
      <trkpt lat="66.357912" lon="14.321547"></trkpt>
      <trkpt lat="66.357845" lon="14.322310"></trkpt>
      <trkpt lat="66.357826" lon="14.322497"></trkpt>
      <trkpt lat="66.357792" lon="14.322785"></trkpt>
      <trkpt lat="66.357763" lon="14.322934"></trkpt>
      <trkpt lat="66.357734" lon="14.323042"></trkpt>
      <trkpt lat="66.357705" lon="14.323151"></trkpt>
      <trkpt lat="66.357807" lon="14.323351"></trkpt>
      <trkpt lat="66.358113" lon="14.323942"></trkpt>
      <trkpt lat="66.358404" lon="14.324507"></trkpt>
      <trkpt lat="66.358542" lon="14.324782"></trkpt>
      <trkpt lat="66.358514" lon="14.324858"></trkpt>
      <trkpt lat="66.358476" lon="14.325022"></trkpt>
      <trkpt lat="66.358447" lon="14.325223"></trkpt>
      <trkpt lat="66.358432" lon="14.325362"></trkpt>
      <trkpt lat="66.358429" lon="14.325474"></trkpt>
      <trkpt lat="66.358439" lon="14.325929"></trkpt>
      <trkpt lat="66.358450" lon="14.326150"></trkpt>
      <trkpt lat="66.358477" lon="14.326569"></trkpt>
      <trkpt lat="66.358520" lon="14.327146"></trkpt>
      <trkpt lat="66.358615" lon="14.328389"></trkpt>
      <trkpt lat="66.358637" lon="14.328651"></trkpt>
      <trkpt lat="66.358647" lon="14.328769"></trkpt>
      <trkpt lat="66.358677" lon="14.329132"></trkpt>
      <trkpt lat="66.358731" lon="14.329863"></trkpt>
      <trkpt lat="66.358757" lon="14.330176"></trkpt>
      <trkpt lat="66.358773" lon="14.330319"></trkpt>
      <trkpt lat="66.358811" lon="14.330598"></trkpt>
      <trkpt lat="66.358828" lon="14.330705"></trkpt>
      <trkpt lat="66.358907" lon="14.331128"></trkpt>
      <trkpt lat="66.358939" lon="14.331327"></trkpt>
      <trkpt lat="66.358949" lon="14.331417"></trkpt>
      <trkpt lat="66.358956" lon="14.331520"></trkpt>
      <trkpt lat="66.358953" lon="14.331676"></trkpt>
      <trkpt lat="66.358943" lon="14.331768"></trkpt>
      <trkpt lat="66.358927" lon="14.331852"></trkpt>
      <trkpt lat="66.358898" lon="14.331960"></trkpt>
      <trkpt lat="66.358837" lon="14.332112"></trkpt>
      <trkpt lat="66.358788" lon="14.332210"></trkpt>
      <trkpt lat="66.357979" lon="14.333871"></trkpt>
      <trkpt lat="66.357927" lon="14.333978"></trkpt>
      <trkpt lat="66.357887" lon="14.334052"></trkpt>
      <trkpt lat="66.357838" lon="14.334119"></trkpt>
      <trkpt lat="66.357740" lon="14.334238"></trkpt>
      <trkpt lat="66.357679" lon="14.334314"></trkpt>
      <trkpt lat="66.357695" lon="14.334417"></trkpt>
      <trkpt lat="66.357703" lon="14.334464"></trkpt>
      <trkpt lat="66.357756" lon="14.334844"></trkpt>
      <trkpt lat="66.357823" lon="14.335069"></trkpt>
      <trkpt lat="66.357908" lon="14.335199"></trkpt>
      <trkpt lat="66.357966" lon="14.335076"></trkpt>
      <trkpt lat="66.357966" lon="14.335076"></trkpt>
      <trkpt lat="66.357908" lon="14.335199"></trkpt>
      <trkpt lat="66.357823" lon="14.335069"></trkpt>
      <trkpt lat="66.357756" lon="14.334844"></trkpt>
      <trkpt lat="66.357703" lon="14.334464"></trkpt>
      <trkpt lat="66.357695" lon="14.334417"></trkpt>
      <trkpt lat="66.357679" lon="14.334314"></trkpt>
      <trkpt lat="66.357740" lon="14.334238"></trkpt>
      <trkpt lat="66.357838" lon="14.334119"></trkpt>
      <trkpt lat="66.357887" lon="14.334052"></trkpt>
      <trkpt lat="66.357927" lon="14.333978"></trkpt>
      <trkpt lat="66.357979" lon="14.333871"></trkpt>
      <trkpt lat="66.358788" lon="14.332210"></trkpt>
      <trkpt lat="66.358837" lon="14.332112"></trkpt>
      <trkpt lat="66.358898" lon="14.331960"></trkpt>
      <trkpt lat="66.358927" lon="14.331852"></trkpt>
      <trkpt lat="66.358943" lon="14.331768"></trkpt>
      <trkpt lat="66.358953" lon="14.331676"></trkpt>
      <trkpt lat="66.358956" lon="14.331520"></trkpt>
      <trkpt lat="66.358949" lon="14.331417"></trkpt>
      <trkpt lat="66.358939" lon="14.331327"></trkpt>
      <trkpt lat="66.358907" lon="14.331128"></trkpt>
      <trkpt lat="66.358828" lon="14.330705"></trkpt>
      <trkpt lat="66.358811" lon="14.330598"></trkpt>
      <trkpt lat="66.358773" lon="14.330319"></trkpt>
      <trkpt lat="66.358757" lon="14.330176"></trkpt>
      <trkpt lat="66.358731" lon="14.329863"></trkpt>
      <trkpt lat="66.358677" lon="14.329132"></trkpt>
      <trkpt lat="66.358647" lon="14.328769"></trkpt>
      <trkpt lat="66.358637" lon="14.328651"></trkpt>
      <trkpt lat="66.358615" lon="14.328389"></trkpt>
      <trkpt lat="66.358520" lon="14.327146"></trkpt>
      <trkpt lat="66.358477" lon="14.326569"></trkpt>
      <trkpt lat="66.358450" lon="14.326150"></trkpt>
      <trkpt lat="66.358439" lon="14.325929"></trkpt>
      <trkpt lat="66.358429" lon="14.325474"></trkpt>
      <trkpt lat="66.358432" lon="14.325362"></trkpt>
      <trkpt lat="66.358447" lon="14.325223"></trkpt>
      <trkpt lat="66.358476" lon="14.325022"></trkpt>
      <trkpt lat="66.358514" lon="14.324858"></trkpt>
      <trkpt lat="66.358542" lon="14.324782"></trkpt>
      <trkpt lat="66.358404" lon="14.324507"></trkpt>
      <trkpt lat="66.358113" lon="14.323942"></trkpt>
      <trkpt lat="66.357807" lon="14.323351"></trkpt>
      <trkpt lat="66.357705" lon="14.323151"></trkpt>
      <trkpt lat="66.357734" lon="14.323042"></trkpt>
      <trkpt lat="66.357763" lon="14.322934"></trkpt>
      <trkpt lat="66.357792" lon="14.322785"></trkpt>
      <trkpt lat="66.357826" lon="14.322497"></trkpt>
      <trkpt lat="66.357845" lon="14.322310"></trkpt>
      <trkpt lat="66.357912" lon="14.321547"></trkpt>
      <trkpt lat="66.357972" lon="14.320853"></trkpt>
      <trkpt lat="66.358099" lon="14.319339"></trkpt>
      <trkpt lat="66.358108" lon="14.319235"></trkpt>
      <trkpt lat="66.358124" lon="14.318905"></trkpt>
      <trkpt lat="66.358129" lon="14.318705"></trkpt>
      <trkpt lat="66.358127" lon="14.318304"></trkpt>
      <trkpt lat="66.358111" lon="14.317906"></trkpt>
      <trkpt lat="66.358097" lon="14.317708"></trkpt>
      <trkpt lat="66.357957" lon="14.315976"></trkpt>
      <trkpt lat="66.357970" lon="14.315848"></trkpt>
      <trkpt lat="66.357962" lon="14.315517"></trkpt>
      <trkpt lat="66.357951" lon="14.315351"></trkpt>
      <trkpt lat="66.357946" lon="14.315278"></trkpt>
      <trkpt lat="66.358080" lon="14.315200"></trkpt>
      <trkpt lat="66.358237" lon="14.315090"></trkpt>
      <trkpt lat="66.358428" lon="14.314947"></trkpt>
      <trkpt lat="66.358583" lon="14.314797"></trkpt>
      <trkpt lat="66.358768" lon="14.314602"></trkpt>
      <trkpt lat="66.358868" lon="14.314492"></trkpt>
      <trkpt lat="66.359000" lon="14.314288"></trkpt>
      <trkpt lat="66.359577" lon="14.313544"></trkpt>
      <trkpt lat="66.359831" lon="14.313252"></trkpt>
      <trkpt lat="66.359968" lon="14.313113"></trkpt>
      <trkpt lat="66.360154" lon="14.312948"></trkpt>
      <trkpt lat="66.360318" lon="14.312823"></trkpt>
      <trkpt lat="66.360480" lon="14.312711"></trkpt>
      <trkpt lat="66.360535" lon="14.312687"></trkpt>
      <trkpt lat="66.360729" lon="14.312590"></trkpt>
      <trkpt lat="66.360833" lon="14.312549"></trkpt>
      <trkpt lat="66.360973" lon="14.312505"></trkpt>
      <trkpt lat="66.361120" lon="14.312471"></trkpt>
      <trkpt lat="66.361268" lon="14.312450"></trkpt>
      <trkpt lat="66.361367" lon="14.312444"></trkpt>
      <trkpt lat="66.361466" lon="14.312444"></trkpt>
      <trkpt lat="66.361663" lon="14.312462"></trkpt>
      <trkpt lat="66.361780" lon="14.312484"></trkpt>
      <trkpt lat="66.361958" lon="14.312534"></trkpt>
      <trkpt lat="66.362153" lon="14.312612"></trkpt>
      <trkpt lat="66.362250" lon="14.312660"></trkpt>
      <trkpt lat="66.362394" lon="14.312743"></trkpt>
      <trkpt lat="66.362537" lon="14.312839"></trkpt>
      <trkpt lat="66.362678" lon="14.312948"></trkpt>
      <trkpt lat="66.362818" lon="14.313069"></trkpt>
      <trkpt lat="66.363002" lon="14.313251"></trkpt>
      <trkpt lat="66.363092" lon="14.313351"></trkpt>
      <trkpt lat="66.363226" lon="14.313510"></trkpt>
      <trkpt lat="66.363357" lon="14.313682"></trkpt>
      <trkpt lat="66.363485" lon="14.313865"></trkpt>
      <trkpt lat="66.363611" lon="14.314060"></trkpt>
      <trkpt lat="66.363734" lon="14.314266"></trkpt>
      <trkpt lat="66.363835" lon="14.314454"></trkpt>
      <trkpt lat="66.363920" lon="14.314688"></trkpt>
      <trkpt lat="66.364053" lon="14.315022"></trkpt>
      <trkpt lat="66.364159" lon="14.315297"></trkpt>
      <trkpt lat="66.364313" lon="14.315704"></trkpt>
      <trkpt lat="66.364429" lon="14.316021"></trkpt>
      <trkpt lat="66.364522" lon="14.316296"></trkpt>
      <trkpt lat="66.364598" lon="14.316533"></trkpt>
      <trkpt lat="66.364692" lon="14.316560"></trkpt>
      <trkpt lat="66.364708" lon="14.316523"></trkpt>
      <trkpt lat="66.364804" lon="14.316298"></trkpt>
      <trkpt lat="66.364876" lon="14.316147"></trkpt>
      <trkpt lat="66.364882" lon="14.316056"></trkpt>
      <trkpt lat="66.364955" lon="14.315921"></trkpt>
      <trkpt lat="66.364999" lon="14.315823"></trkpt>
      <trkpt lat="66.365043" lon="14.315692"></trkpt>
      <trkpt lat="66.365083" lon="14.315524"></trkpt>
      <trkpt lat="66.365111" lon="14.315341"></trkpt>
      <trkpt lat="66.365118" lon="14.315270"></trkpt>
      <trkpt lat="66.365126" lon="14.315124"></trkpt>
      <trkpt lat="66.365127" lon="14.315026"></trkpt>
      <trkpt lat="66.365124" lon="14.314904"></trkpt>
      <trkpt lat="66.365113" lon="14.314760"></trkpt>
      <trkpt lat="66.365094" lon="14.314621"></trkpt>
      <trkpt lat="66.365078" lon="14.314532"></trkpt>
      <trkpt lat="66.364924" lon="14.313783"></trkpt>
      <trkpt lat="66.364752" lon="14.312944"></trkpt>
      <trkpt lat="66.364656" lon="14.312451"></trkpt>
      <trkpt lat="66.364608" lon="14.312185"></trkpt>
      <trkpt lat="66.364551" lon="14.311835"></trkpt>
      <trkpt lat="66.364495" lon="14.311433"></trkpt>
      <trkpt lat="66.364444" lon="14.310989"></trkpt>
      <trkpt lat="66.364391" lon="14.310420"></trkpt>
      <trkpt lat="66.364222" lon="14.308215"></trkpt>
      <trkpt lat="66.364215" lon="14.308123"></trkpt>
      <trkpt lat="66.364236" lon="14.308105"></trkpt>
      <trkpt lat="66.364254" lon="14.308073"></trkpt>
      <trkpt lat="66.364267" lon="14.308029"></trkpt>
      <trkpt lat="66.364274" lon="14.307977"></trkpt>
      <trkpt lat="66.364275" lon="14.307922"></trkpt>
      <trkpt lat="66.364319" lon="14.307909"></trkpt>
      <trkpt lat="66.364573" lon="14.307844"></trkpt>
      <trkpt lat="66.365368" lon="14.307645"></trkpt>
      <trkpt lat="66.365783" lon="14.307522"></trkpt>
      <trkpt lat="66.365943" lon="14.307485"></trkpt>
      <trkpt lat="66.366326" lon="14.307381"></trkpt>
      <trkpt lat="66.366775" lon="14.307282"></trkpt>
      <trkpt lat="66.366853" lon="14.307273"></trkpt>
      <trkpt lat="66.367038" lon="14.307278"></trkpt>
      <trkpt lat="66.367244" lon="14.307343"></trkpt>
      <trkpt lat="66.367438" lon="14.307453"></trkpt>
      <trkpt lat="66.367513" lon="14.307521"></trkpt>
      <trkpt lat="66.367645" lon="14.307660"></trkpt>
      <trkpt lat="66.367871" lon="14.307932"></trkpt>
      <trkpt lat="66.367969" lon="14.308069"></trkpt>
      <trkpt lat="66.367943" lon="14.308186"></trkpt>
      <trkpt lat="66.367877" lon="14.308445"></trkpt>
      <trkpt lat="66.367863" lon="14.308453"></trkpt>
      <trkpt lat="66.367761" lon="14.308509"></trkpt>
      <trkpt lat="66.367706" lon="14.308507"></trkpt>
      <trkpt lat="66.367308" lon="14.308282"></trkpt>
      <trkpt lat="66.367102" lon="14.308218"></trkpt>
      <trkpt lat="66.367308" lon="14.308282"></trkpt>
      <trkpt lat="66.367706" lon="14.308507"></trkpt>
      <trkpt lat="66.367761" lon="14.308509"></trkpt>
      <trkpt lat="66.367877" lon="14.308445"></trkpt>
      <trkpt lat="66.367943" lon="14.308186"></trkpt>
      <trkpt lat="66.367969" lon="14.308069"></trkpt>
      <trkpt lat="66.367871" lon="14.307932"></trkpt>
      <trkpt lat="66.367645" lon="14.307660"></trkpt>
      <trkpt lat="66.367513" lon="14.307521"></trkpt>
      <trkpt lat="66.367438" lon="14.307453"></trkpt>
      <trkpt lat="66.367244" lon="14.307343"></trkpt>
      <trkpt lat="66.367038" lon="14.307278"></trkpt>
      <trkpt lat="66.366853" lon="14.307273"></trkpt>
      <trkpt lat="66.366775" lon="14.307282"></trkpt>
      <trkpt lat="66.366326" lon="14.307381"></trkpt>
      <trkpt lat="66.365943" lon="14.307485"></trkpt>
      <trkpt lat="66.365783" lon="14.307522"></trkpt>
      <trkpt lat="66.365368" lon="14.307645"></trkpt>
      <trkpt lat="66.364573" lon="14.307844"></trkpt>
      <trkpt lat="66.364319" lon="14.307909"></trkpt>
      <trkpt lat="66.364275" lon="14.307922"></trkpt>
      <trkpt lat="66.364269" lon="14.307864"></trkpt>
      <trkpt lat="66.364256" lon="14.307815"></trkpt>
      <trkpt lat="66.364237" lon="14.307779"></trkpt>
      <trkpt lat="66.364214" lon="14.307760"></trkpt>
      <trkpt lat="66.364190" lon="14.307760"></trkpt>
      <trkpt lat="66.364168" lon="14.307777"></trkpt>
      <trkpt lat="66.364150" lon="14.307810"></trkpt>
      <trkpt lat="66.364136" lon="14.307856"></trkpt>
      <trkpt lat="66.364129" lon="14.307910"></trkpt>
      <trkpt lat="66.364129" lon="14.307966"></trkpt>
      <trkpt lat="66.364136" lon="14.308023"></trkpt>
      <trkpt lat="66.364149" lon="14.308071"></trkpt>
      <trkpt lat="66.364169" lon="14.308106"></trkpt>
      <trkpt lat="66.364191" lon="14.308124"></trkpt>
      <trkpt lat="66.364215" lon="14.308123"></trkpt>
      <trkpt lat="66.364222" lon="14.308215"></trkpt>
      <trkpt lat="66.364391" lon="14.310420"></trkpt>
      <trkpt lat="66.364444" lon="14.310989"></trkpt>
      <trkpt lat="66.364495" lon="14.311433"></trkpt>
      <trkpt lat="66.364551" lon="14.311835"></trkpt>
      <trkpt lat="66.364608" lon="14.312185"></trkpt>
      <trkpt lat="66.364656" lon="14.312451"></trkpt>
      <trkpt lat="66.364752" lon="14.312944"></trkpt>
      <trkpt lat="66.364924" lon="14.313783"></trkpt>
      <trkpt lat="66.365078" lon="14.314532"></trkpt>
      <trkpt lat="66.365094" lon="14.314621"></trkpt>
      <trkpt lat="66.365113" lon="14.314760"></trkpt>
      <trkpt lat="66.365124" lon="14.314904"></trkpt>
      <trkpt lat="66.365127" lon="14.315026"></trkpt>
      <trkpt lat="66.365126" lon="14.315124"></trkpt>
      <trkpt lat="66.365118" lon="14.315270"></trkpt>
      <trkpt lat="66.365111" lon="14.315341"></trkpt>
      <trkpt lat="66.365083" lon="14.315524"></trkpt>
      <trkpt lat="66.365043" lon="14.315692"></trkpt>
      <trkpt lat="66.364999" lon="14.315823"></trkpt>
      <trkpt lat="66.364955" lon="14.315921"></trkpt>
      <trkpt lat="66.364882" lon="14.316056"></trkpt>
      <trkpt lat="66.364854" lon="14.316049"></trkpt>
      <trkpt lat="66.364772" lon="14.316173"></trkpt>
      <trkpt lat="66.364654" lon="14.316304"></trkpt>
      <trkpt lat="66.364623" lon="14.316336"></trkpt>
      <trkpt lat="66.364559" lon="14.316132"></trkpt>
      <trkpt lat="66.364490" lon="14.315919"></trkpt>
      <trkpt lat="66.364408" lon="14.315693"></trkpt>
      <trkpt lat="66.364327" lon="14.315479"></trkpt>
      <trkpt lat="66.364235" lon="14.315249"></trkpt>
      <trkpt lat="66.364132" lon="14.315011"></trkpt>
      <trkpt lat="66.364043" lon="14.314818"></trkpt>
      <trkpt lat="66.363942" lon="14.314612"></trkpt>
      <trkpt lat="66.363835" lon="14.314454"></trkpt>
      <trkpt lat="66.363734" lon="14.314266"></trkpt>
      <trkpt lat="66.363611" lon="14.314060"></trkpt>
      <trkpt lat="66.363485" lon="14.313865"></trkpt>
      <trkpt lat="66.363357" lon="14.313682"></trkpt>
      <trkpt lat="66.363226" lon="14.313510"></trkpt>
      <trkpt lat="66.363092" lon="14.313351"></trkpt>
      <trkpt lat="66.363002" lon="14.313251"></trkpt>
      <trkpt lat="66.362818" lon="14.313069"></trkpt>
      <trkpt lat="66.362678" lon="14.312948"></trkpt>
      <trkpt lat="66.362537" lon="14.312839"></trkpt>
      <trkpt lat="66.362394" lon="14.312743"></trkpt>
      <trkpt lat="66.362250" lon="14.312660"></trkpt>
      <trkpt lat="66.362153" lon="14.312612"></trkpt>
      <trkpt lat="66.361958" lon="14.312534"></trkpt>
      <trkpt lat="66.361780" lon="14.312484"></trkpt>
      <trkpt lat="66.361663" lon="14.312462"></trkpt>
      <trkpt lat="66.361466" lon="14.312444"></trkpt>
      <trkpt lat="66.361367" lon="14.312444"></trkpt>
      <trkpt lat="66.361268" lon="14.312450"></trkpt>
      <trkpt lat="66.361120" lon="14.312471"></trkpt>
      <trkpt lat="66.360973" lon="14.312505"></trkpt>
      <trkpt lat="66.360833" lon="14.312549"></trkpt>
      <trkpt lat="66.360729" lon="14.312590"></trkpt>
      <trkpt lat="66.360535" lon="14.312687"></trkpt>
      <trkpt lat="66.360480" lon="14.312711"></trkpt>
      <trkpt lat="66.360318" lon="14.312823"></trkpt>
      <trkpt lat="66.360154" lon="14.312948"></trkpt>
      <trkpt lat="66.359968" lon="14.313113"></trkpt>
      <trkpt lat="66.359831" lon="14.313252"></trkpt>
      <trkpt lat="66.359577" lon="14.313544"></trkpt>
      <trkpt lat="66.359000" lon="14.314288"></trkpt>
      <trkpt lat="66.358841" lon="14.314408"></trkpt>
      <trkpt lat="66.358746" lon="14.314502"></trkpt>
      <trkpt lat="66.358570" lon="14.314649"></trkpt>
      <trkpt lat="66.358445" lon="14.314751"></trkpt>
      <trkpt lat="66.358302" lon="14.314861"></trkpt>
      <trkpt lat="66.358086" lon="14.315014"></trkpt>
      <trkpt lat="66.357903" lon="14.315125"></trkpt>
      <trkpt lat="66.357771" lon="14.315188"></trkpt>
      <trkpt lat="66.357619" lon="14.315253"></trkpt>
      <trkpt lat="66.357396" lon="14.315328"></trkpt>
      <trkpt lat="66.357254" lon="14.315373"></trkpt>
      <trkpt lat="66.357085" lon="14.315400"></trkpt>
      <trkpt lat="66.356967" lon="14.315414"></trkpt>
      <trkpt lat="66.356781" lon="14.315392"></trkpt>
      <trkpt lat="66.356650" lon="14.315404"></trkpt>
      <trkpt lat="66.356421" lon="14.315320"></trkpt>
      <trkpt lat="66.356301" lon="14.315265"></trkpt>
      <trkpt lat="66.356143" lon="14.315177"></trkpt>
      <trkpt lat="66.355975" lon="14.315066"></trkpt>
      <trkpt lat="66.355726" lon="14.314876"></trkpt>
      <trkpt lat="66.355150" lon="14.314397"></trkpt>
      <trkpt lat="66.354958" lon="14.314245"></trkpt>
      <trkpt lat="66.354708" lon="14.314061"></trkpt>
      <trkpt lat="66.354584" lon="14.313977"></trkpt>
      <trkpt lat="66.354457" lon="14.313896"></trkpt>
      <trkpt lat="66.354207" lon="14.313749"></trkpt>
      <trkpt lat="66.353870" lon="14.313581"></trkpt>
      <trkpt lat="66.353587" lon="14.313466"></trkpt>
      <trkpt lat="66.353199" lon="14.313346"></trkpt>
      <trkpt lat="66.353120" lon="14.313327"></trkpt>
      <trkpt lat="66.352846" lon="14.313273"></trkpt>
      <trkpt lat="66.352559" lon="14.313240"></trkpt>
      <trkpt lat="66.352273" lon="14.313229"></trkpt>
      <trkpt lat="66.352043" lon="14.313237"></trkpt>
      <trkpt lat="66.351700" lon="14.313276"></trkpt>
      <trkpt lat="66.351471" lon="14.313321"></trkpt>
      <trkpt lat="66.351186" lon="14.313397"></trkpt>
      <trkpt lat="66.350879" lon="14.313504"></trkpt>
      <trkpt lat="66.350670" lon="14.313591"></trkpt>
      <trkpt lat="66.350319" lon="14.313760"></trkpt>
      <trkpt lat="66.349989" lon="14.313941"></trkpt>
      <trkpt lat="66.349652" lon="14.314146"></trkpt>
      <trkpt lat="66.349315" lon="14.314365"></trkpt>
      <trkpt lat="66.348980" lon="14.314594"></trkpt>
      <trkpt lat="66.347601" lon="14.315571"></trkpt>
      <trkpt lat="66.346505" lon="14.316344"></trkpt>
      <trkpt lat="66.346230" lon="14.316508"></trkpt>
      <trkpt lat="66.346169" lon="14.316541"></trkpt>
      <trkpt lat="66.346073" lon="14.316533"></trkpt>
      <trkpt lat="66.345971" lon="14.316569"></trkpt>
      <trkpt lat="66.345903" lon="14.316590"></trkpt>
      <trkpt lat="66.345833" lon="14.316603"></trkpt>
      <trkpt lat="66.345760" lon="14.316615"></trkpt>
      <trkpt lat="66.345674" lon="14.316617"></trkpt>
      <trkpt lat="66.345585" lon="14.316615"></trkpt>
      <trkpt lat="66.345534" lon="14.316613"></trkpt>
      <trkpt lat="66.345466" lon="14.316609"></trkpt>
      <trkpt lat="66.345292" lon="14.316588"></trkpt>
      <trkpt lat="66.345193" lon="14.316572"></trkpt>
      <trkpt lat="66.345100" lon="14.316556"></trkpt>
      <trkpt lat="66.345017" lon="14.316539"></trkpt>
      <trkpt lat="66.344928" lon="14.316513"></trkpt>
      <trkpt lat="66.344809" lon="14.316471"></trkpt>
      <trkpt lat="66.344690" lon="14.316428"></trkpt>
      <trkpt lat="66.344529" lon="14.316355"></trkpt>
      <trkpt lat="66.344373" lon="14.316275"></trkpt>
      <trkpt lat="66.344228" lon="14.316198"></trkpt>
      <trkpt lat="66.344132" lon="14.316141"></trkpt>
      <trkpt lat="66.344056" lon="14.316092"></trkpt>
      <trkpt lat="66.343973" lon="14.316075"></trkpt>
      <trkpt lat="66.343867" lon="14.315973"></trkpt>
      <trkpt lat="66.343778" lon="14.315879"></trkpt>
      <trkpt lat="66.343646" lon="14.315728"></trkpt>
      <trkpt lat="66.343485" lon="14.315523"></trkpt>
      <trkpt lat="66.343358" lon="14.315346"></trkpt>
      <trkpt lat="66.343204" lon="14.315109"></trkpt>
      <trkpt lat="66.343084" lon="14.314908"></trkpt>
      <trkpt lat="66.342985" lon="14.314731"></trkpt>
      <trkpt lat="66.342875" lon="14.314518"></trkpt>
      <trkpt lat="66.342742" lon="14.314240"></trkpt>
      <trkpt lat="66.342634" lon="14.313998"></trkpt>
      <trkpt lat="66.342562" lon="14.313826"></trkpt>
      <trkpt lat="66.342465" lon="14.313578"></trkpt>
      <trkpt lat="66.342371" lon="14.313321"></trkpt>
      <trkpt lat="66.342287" lon="14.313077"></trkpt>
      <trkpt lat="66.342153" lon="14.312651"></trkpt>
      <trkpt lat="66.342025" lon="14.312195"></trkpt>
      <trkpt lat="66.341917" lon="14.311773"></trkpt>
      <trkpt lat="66.341738" lon="14.311017"></trkpt>
      <trkpt lat="66.341191" lon="14.308641"></trkpt>
      <trkpt lat="66.340790" lon="14.306904"></trkpt>
      <trkpt lat="66.340358" lon="14.305009"></trkpt>
      <trkpt lat="66.340112" lon="14.303972"></trkpt>
      <trkpt lat="66.339931" lon="14.303271"></trkpt>
      <trkpt lat="66.339811" lon="14.302875"></trkpt>
      <trkpt lat="66.339649" lon="14.302436"></trkpt>
      <trkpt lat="66.339477" lon="14.302062"></trkpt>
      <trkpt lat="66.339431" lon="14.301969"></trkpt>
      <trkpt lat="66.339306" lon="14.301761"></trkpt>
      <trkpt lat="66.339218" lon="14.301632"></trkpt>
      <trkpt lat="66.339125" lon="14.301510"></trkpt>
      <trkpt lat="66.338996" lon="14.301359"></trkpt>
      <trkpt lat="66.338871" lon="14.301243"></trkpt>
      <trkpt lat="66.338718" lon="14.301120"></trkpt>
      <trkpt lat="66.338622" lon="14.301057"></trkpt>
      <trkpt lat="66.338497" lon="14.300983"></trkpt>
      <trkpt lat="66.338349" lon="14.300922"></trkpt>
      <trkpt lat="66.338217" lon="14.300888"></trkpt>
      <trkpt lat="66.338069" lon="14.300872"></trkpt>
      <trkpt lat="66.337893" lon="14.300879"></trkpt>
      <trkpt lat="66.337629" lon="14.300903"></trkpt>
      <trkpt lat="66.337483" lon="14.300908"></trkpt>
      <trkpt lat="66.337361" lon="14.300901"></trkpt>
      <trkpt lat="66.337242" lon="14.300889"></trkpt>
      <trkpt lat="66.337139" lon="14.300859"></trkpt>
      <trkpt lat="66.337041" lon="14.300816"></trkpt>
      <trkpt lat="66.336930" lon="14.300753"></trkpt>
      <trkpt lat="66.336810" lon="14.300671"></trkpt>
      <trkpt lat="66.336704" lon="14.300580"></trkpt>
      <trkpt lat="66.336586" lon="14.300455"></trkpt>
      <trkpt lat="66.336460" lon="14.300289"></trkpt>
      <trkpt lat="66.336342" lon="14.300106"></trkpt>
      <trkpt lat="66.336236" lon="14.299916"></trkpt>
      <trkpt lat="66.336122" lon="14.299666"></trkpt>
      <trkpt lat="66.336018" lon="14.299412"></trkpt>
      <trkpt lat="66.335904" lon="14.299086"></trkpt>
      <trkpt lat="66.335796" lon="14.298717"></trkpt>
      <trkpt lat="66.335710" lon="14.298386"></trkpt>
      <trkpt lat="66.335621" lon="14.297974"></trkpt>
      <trkpt lat="66.335546" lon="14.297572"></trkpt>
      <trkpt lat="66.335494" lon="14.297188"></trkpt>
      <trkpt lat="66.335454" lon="14.296804"></trkpt>
      <trkpt lat="66.335425" lon="14.296403"></trkpt>
      <trkpt lat="66.335410" lon="14.295981"></trkpt>
      <trkpt lat="66.335406" lon="14.295581"></trkpt>
      <trkpt lat="66.335415" lon="14.295023"></trkpt>
      <trkpt lat="66.335459" lon="14.294089"></trkpt>
      <trkpt lat="66.335500" lon="14.293355"></trkpt>
      <trkpt lat="66.335612" lon="14.291616"></trkpt>
      <trkpt lat="66.335685" lon="14.290495"></trkpt>
      <trkpt lat="66.335744" lon="14.289481"></trkpt>
      <trkpt lat="66.335797" lon="14.288311"></trkpt>
      <trkpt lat="66.335817" lon="14.287653"></trkpt>
      <trkpt lat="66.335824" lon="14.286957"></trkpt>
      <trkpt lat="66.335808" lon="14.286057"></trkpt>
      <trkpt lat="66.335760" lon="14.285048"></trkpt>
      <trkpt lat="66.335700" lon="14.284013"></trkpt>
      <trkpt lat="66.335432" lon="14.280134"></trkpt>
      <trkpt lat="66.335213" lon="14.276790"></trkpt>
      <trkpt lat="66.335114" lon="14.274996"></trkpt>
      <trkpt lat="66.335011" lon="14.273292"></trkpt>
      <trkpt lat="66.334932" lon="14.271597"></trkpt>
      <trkpt lat="66.334901" lon="14.271040"></trkpt>
      <trkpt lat="66.334877" lon="14.270669"></trkpt>
      <trkpt lat="66.334845" lon="14.270297"></trkpt>
      <trkpt lat="66.334802" lon="14.269929"></trkpt>
      <trkpt lat="66.334743" lon="14.269517"></trkpt>
      <trkpt lat="66.334669" lon="14.269124"></trkpt>
      <trkpt lat="66.334603" lon="14.268832"></trkpt>
      <trkpt lat="66.334518" lon="14.268502"></trkpt>
      <trkpt lat="66.334408" lon="14.268150"></trkpt>
      <trkpt lat="66.334311" lon="14.267893"></trkpt>
      <trkpt lat="66.334194" lon="14.267609"></trkpt>
      <trkpt lat="66.334075" lon="14.267363"></trkpt>
      <trkpt lat="66.333885" lon="14.267041"></trkpt>
      <trkpt lat="66.333692" lon="14.266782"></trkpt>
      <trkpt lat="66.333473" lon="14.266553"></trkpt>
      <trkpt lat="66.333236" lon="14.266377"></trkpt>
      <trkpt lat="66.333066" lon="14.266302"></trkpt>
      <trkpt lat="66.332080" lon="14.265994"></trkpt>
      <trkpt lat="66.331814" lon="14.265876"></trkpt>
      <trkpt lat="66.331548" lon="14.265727"></trkpt>
      <trkpt lat="66.330930" lon="14.265325"></trkpt>
      <trkpt lat="66.330607" lon="14.265108"></trkpt>
      <trkpt lat="66.330243" lon="14.264869"></trkpt>
      <trkpt lat="66.329898" lon="14.264641"></trkpt>
      <trkpt lat="66.329536" lon="14.264363"></trkpt>
      <trkpt lat="66.329168" lon="14.264048"></trkpt>
      <trkpt lat="66.328883" lon="14.263734"></trkpt>
      <trkpt lat="66.328647" lon="14.263428"></trkpt>
      <trkpt lat="66.328332" lon="14.262964"></trkpt>
      <trkpt lat="66.327919" lon="14.262331"></trkpt>
      <trkpt lat="66.327183" lon="14.261203"></trkpt>
      <trkpt lat="66.326230" lon="14.259735"></trkpt>
      <trkpt lat="66.326009" lon="14.259394"></trkpt>
      <trkpt lat="66.325620" lon="14.258706"></trkpt>
      <trkpt lat="66.325256" lon="14.257971"></trkpt>
      <trkpt lat="66.324745" lon="14.256855"></trkpt>
      <trkpt lat="66.324333" lon="14.256044"></trkpt>
      <trkpt lat="66.324062" lon="14.255590"></trkpt>
      <trkpt lat="66.323523" lon="14.254745"></trkpt>
      <trkpt lat="66.322892" lon="14.253779"></trkpt>
      <trkpt lat="66.322628" lon="14.253302"></trkpt>
      <trkpt lat="66.322401" lon="14.252785"></trkpt>
      <trkpt lat="66.322226" lon="14.252302"></trkpt>
      <trkpt lat="66.322060" lon="14.251753"></trkpt>
      <trkpt lat="66.321936" lon="14.251189"></trkpt>
      <trkpt lat="66.321833" lon="14.250606"></trkpt>
      <trkpt lat="66.321781" lon="14.250241"></trkpt>
      <trkpt lat="66.321738" lon="14.249871"></trkpt>
      <trkpt lat="66.321708" lon="14.249485"></trkpt>
      <trkpt lat="66.321687" lon="14.249109"></trkpt>
      <trkpt lat="66.321677" lon="14.248667"></trkpt>
      <trkpt lat="66.321675" lon="14.248229"></trkpt>
      <trkpt lat="66.321693" lon="14.247670"></trkpt>
      <trkpt lat="66.321718" lon="14.247191"></trkpt>
      <trkpt lat="66.321754" lon="14.246717"></trkpt>
      <trkpt lat="66.321840" lon="14.246012"></trkpt>
      <trkpt lat="66.321900" lon="14.245631"></trkpt>
      <trkpt lat="66.322015" lon="14.245035"></trkpt>
      <trkpt lat="66.322132" lon="14.244571"></trkpt>
      <trkpt lat="66.322252" lon="14.244129"></trkpt>
      <trkpt lat="66.322496" lon="14.243327"></trkpt>
      <trkpt lat="66.322662" lon="14.242793"></trkpt>
      <trkpt lat="66.322771" lon="14.242417"></trkpt>
      <trkpt lat="66.322788" lon="14.242364"></trkpt>
      <trkpt lat="66.322906" lon="14.241938"></trkpt>
      <trkpt lat="66.323023" lon="14.241533"></trkpt>
      <trkpt lat="66.323180" lon="14.240938"></trkpt>
      <trkpt lat="66.323308" lon="14.240448"></trkpt>
      <trkpt lat="66.323495" lon="14.239590"></trkpt>
      <trkpt lat="66.323584" lon="14.239148"></trkpt>
      <trkpt lat="66.323672" lon="14.238647"></trkpt>
      <trkpt lat="66.323690" lon="14.238537"></trkpt>
      <trkpt lat="66.323813" lon="14.237768"></trkpt>
      <trkpt lat="66.323956" lon="14.236913"></trkpt>
      <trkpt lat="66.324148" lon="14.235774"></trkpt>
      <trkpt lat="66.324260" lon="14.235112"></trkpt>
      <trkpt lat="66.324377" lon="14.234396"></trkpt>
      <trkpt lat="66.324513" lon="14.233553"></trkpt>
      <trkpt lat="66.324657" lon="14.232696"></trkpt>
      <trkpt lat="66.324796" lon="14.231855"></trkpt>
      <trkpt lat="66.325027" lon="14.230436"></trkpt>
      <trkpt lat="66.325098" lon="14.229937"></trkpt>
      <trkpt lat="66.325142" lon="14.229453"></trkpt>
      <trkpt lat="66.325168" lon="14.228970"></trkpt>
      <trkpt lat="66.325173" lon="14.228572"></trkpt>
      <trkpt lat="66.325165" lon="14.227896"></trkpt>
      <trkpt lat="66.325150" lon="14.226214"></trkpt>
      <trkpt lat="66.325153" lon="14.225824"></trkpt>
      <trkpt lat="66.325158" lon="14.225352"></trkpt>
      <trkpt lat="66.325173" lon="14.224887"></trkpt>
      <trkpt lat="66.325200" lon="14.224395"></trkpt>
      <trkpt lat="66.325294" lon="14.222765"></trkpt>
      <trkpt lat="66.325397" lon="14.221134"></trkpt>
      <trkpt lat="66.325439" lon="14.220415"></trkpt>
      <trkpt lat="66.325497" lon="14.219380"></trkpt>
      <trkpt lat="66.325515" lon="14.218800"></trkpt>
      <trkpt lat="66.325522" lon="14.217971"></trkpt>
      <trkpt lat="66.325517" lon="14.217407"></trkpt>
      <trkpt lat="66.325496" lon="14.216603"></trkpt>
      <trkpt lat="66.325479" lon="14.215934"></trkpt>
      <trkpt lat="66.325449" lon="14.214830"></trkpt>
      <trkpt lat="66.325417" lon="14.213379"></trkpt>
      <trkpt lat="66.325407" lon="14.212466"></trkpt>
      <trkpt lat="66.325425" lon="14.207011"></trkpt>
      <trkpt lat="66.325438" lon="14.206373"></trkpt>
      <trkpt lat="66.325459" lon="14.205647"></trkpt>
      <trkpt lat="66.325555" lon="14.203370"></trkpt>
      <trkpt lat="66.325647" lon="14.201743"></trkpt>
      <trkpt lat="66.325741" lon="14.199979"></trkpt>
      <trkpt lat="66.325778" lon="14.199212"></trkpt>
      <trkpt lat="66.325793" lon="14.198517"></trkpt>
      <trkpt lat="66.325804" lon="14.197758"></trkpt>
      <trkpt lat="66.325803" lon="14.197389"></trkpt>
      <trkpt lat="66.325796" lon="14.196489"></trkpt>
      <trkpt lat="66.325786" lon="14.196013"></trkpt>
      <trkpt lat="66.325768" lon="14.195578"></trkpt>
      <trkpt lat="66.325741" lon="14.195176"></trkpt>
      <trkpt lat="66.325710" lon="14.194842"></trkpt>
      <trkpt lat="66.325690" lon="14.194652"></trkpt>
      <trkpt lat="66.325653" lon="14.194351"></trkpt>
      <trkpt lat="66.325623" lon="14.194121"></trkpt>
      <trkpt lat="66.325582" lon="14.193796"></trkpt>
      <trkpt lat="66.325540" lon="14.193520"></trkpt>
      <trkpt lat="66.325146" lon="14.191044"></trkpt>
      <trkpt lat="66.325071" lon="14.190554"></trkpt>
      <trkpt lat="66.325061" lon="14.190463"></trkpt>
      <trkpt lat="66.325038" lon="14.190308"></trkpt>
      <trkpt lat="66.324942" lon="14.189707"></trkpt>
      <trkpt lat="66.324908" lon="14.189498"></trkpt>
      <trkpt lat="66.324863" lon="14.189207"></trkpt>
      <trkpt lat="66.324607" lon="14.187471"></trkpt>
      <trkpt lat="66.324356" lon="14.185709"></trkpt>
      <trkpt lat="66.324177" lon="14.184399"></trkpt>
      <trkpt lat="66.324054" lon="14.183485"></trkpt>
      <trkpt lat="66.323908" lon="14.182345"></trkpt>
      <trkpt lat="66.323863" lon="14.181932"></trkpt>
      <trkpt lat="66.323838" lon="14.181647"></trkpt>
      <trkpt lat="66.323818" lon="14.181367"></trkpt>
      <trkpt lat="66.323798" lon="14.180977"></trkpt>
      <trkpt lat="66.323785" lon="14.180576"></trkpt>
      <trkpt lat="66.323782" lon="14.180232"></trkpt>
      <trkpt lat="66.323783" lon="14.179888"></trkpt>
      <trkpt lat="66.323788" lon="14.179653"></trkpt>
      <trkpt lat="66.323802" lon="14.179278"></trkpt>
      <trkpt lat="66.323819" lon="14.178905"></trkpt>
      <trkpt lat="66.323852" lon="14.178298"></trkpt>
      <trkpt lat="66.323892" lon="14.177620"></trkpt>
      <trkpt lat="66.323912" lon="14.177161"></trkpt>
      <trkpt lat="66.323967" lon="14.176758"></trkpt>
      <trkpt lat="66.323985" lon="14.176600"></trkpt>
      <trkpt lat="66.324022" lon="14.176364"></trkpt>
      <trkpt lat="66.324048" lon="14.176193"></trkpt>
      <trkpt lat="66.324057" lon="14.176176"></trkpt>
      <trkpt lat="66.324076" lon="14.176123"></trkpt>
      <trkpt lat="66.324088" lon="14.176058"></trkpt>
      <trkpt lat="66.324093" lon="14.175988"></trkpt>
      <trkpt lat="66.324089" lon="14.175917"></trkpt>
      <trkpt lat="66.324077" lon="14.175852"></trkpt>
      <trkpt lat="66.324059" lon="14.175798"></trkpt>
      <trkpt lat="66.324035" lon="14.175760"></trkpt>
      <trkpt lat="66.324006" lon="14.175739"></trkpt>
      <trkpt lat="66.323886" lon="14.175613"></trkpt>
      <trkpt lat="66.323807" lon="14.175498"></trkpt>
      <trkpt lat="66.323743" lon="14.175445"></trkpt>
      <trkpt lat="66.323633" lon="14.175340"></trkpt>
      <trkpt lat="66.323591" lon="14.175301"></trkpt>
      <trkpt lat="66.323550" lon="14.175267"></trkpt>
      <trkpt lat="66.323512" lon="14.175238"></trkpt>
      <trkpt lat="66.322275" lon="14.174348"></trkpt>
      <trkpt lat="66.322202" lon="14.174230"></trkpt>
      <trkpt lat="66.322102" lon="14.174081"></trkpt>
      <trkpt lat="66.322050" lon="14.174000"></trkpt>
      <trkpt lat="66.322042" lon="14.173947"></trkpt>
      <trkpt lat="66.322029" lon="14.173901"></trkpt>
      <trkpt lat="66.322012" lon="14.173864"></trkpt>
      <trkpt lat="66.321992" lon="14.173839"></trkpt>
      <trkpt lat="66.321970" lon="14.173827"></trkpt>
      <trkpt lat="66.321947" lon="14.173830"></trkpt>
      <trkpt lat="66.321936" lon="14.173838"></trkpt>
      <trkpt lat="66.321926" lon="14.173846"></trkpt>
      <trkpt lat="66.321829" lon="14.173813"></trkpt>
      <trkpt lat="66.321757" lon="14.173793"></trkpt>
      <trkpt lat="66.321724" lon="14.173785"></trkpt>
      <trkpt lat="66.321592" lon="14.173779"></trkpt>
      <trkpt lat="66.321562" lon="14.173778"></trkpt>
      <trkpt lat="66.321467" lon="14.173727"></trkpt>
      <trkpt lat="66.321222" lon="14.173580"></trkpt>
      <trkpt lat="66.321111" lon="14.173506"></trkpt>
      <trkpt lat="66.320995" lon="14.173412"></trkpt>
      <trkpt lat="66.320899" lon="14.173310"></trkpt>
      <trkpt lat="66.320811" lon="14.173194"></trkpt>
      <trkpt lat="66.320698" lon="14.173009"></trkpt>
      <trkpt lat="66.320663" lon="14.172943"></trkpt>
      <trkpt lat="66.320600" lon="14.172807"></trkpt>
      <trkpt lat="66.320541" lon="14.172654"></trkpt>
      <trkpt lat="66.320514" lon="14.172575"></trkpt>
      <trkpt lat="66.320486" lon="14.172399"></trkpt>
      <trkpt lat="66.320400" lon="14.171967"></trkpt>
      <trkpt lat="66.320349" lon="14.171591"></trkpt>
      <trkpt lat="66.320322" lon="14.171353"></trkpt>
      <trkpt lat="66.320325" lon="14.171304"></trkpt>
      <trkpt lat="66.320325" lon="14.171222"></trkpt>
      <trkpt lat="66.320317" lon="14.171126"></trkpt>
      <trkpt lat="66.320299" lon="14.171038"></trkpt>
      <trkpt lat="66.320272" lon="14.170965"></trkpt>
      <trkpt lat="66.320239" lon="14.170910"></trkpt>
      <trkpt lat="66.320221" lon="14.170891"></trkpt>
      <trkpt lat="66.320202" lon="14.170878"></trkpt>
      <trkpt lat="66.320162" lon="14.170870"></trkpt>
      <trkpt lat="66.320142" lon="14.170875"></trkpt>
      <trkpt lat="66.320105" lon="14.170904"></trkpt>
      <trkpt lat="66.320052" lon="14.170818"></trkpt>
      <trkpt lat="66.319980" lon="14.170699"></trkpt>
      <trkpt lat="66.319937" lon="14.170600"></trkpt>
      <trkpt lat="66.319865" lon="14.170421"></trkpt>
      <trkpt lat="66.319813" lon="14.170305"></trkpt>
      <trkpt lat="66.319747" lon="14.170171"></trkpt>
      <trkpt lat="66.319649" lon="14.169995"></trkpt>
      <trkpt lat="66.319549" lon="14.169836"></trkpt>
      <trkpt lat="66.319333" lon="14.169544"></trkpt>
      <trkpt lat="66.319182" lon="14.169416"></trkpt>
      <trkpt lat="66.319097" lon="14.169332"></trkpt>
      <trkpt lat="66.319001" lon="14.169253"></trkpt>
      <trkpt lat="66.318921" lon="14.169200"></trkpt>
      <trkpt lat="66.318799" lon="14.169138"></trkpt>
      <trkpt lat="66.318716" lon="14.169122"></trkpt>
      <trkpt lat="66.318574" lon="14.169113"></trkpt>
      <trkpt lat="66.318466" lon="14.169122"></trkpt>
      <trkpt lat="66.318111" lon="14.169179"></trkpt>
      <trkpt lat="66.317983" lon="14.169180"></trkpt>
      <trkpt lat="66.317838" lon="14.169153"></trkpt>
      <trkpt lat="66.317759" lon="14.169118"></trkpt>
      <trkpt lat="66.317700" lon="14.169088"></trkpt>
      <trkpt lat="66.317693" lon="14.169083"></trkpt>
      <trkpt lat="66.317460" lon="14.168834"></trkpt>
      <trkpt lat="66.317363" lon="14.168747"></trkpt>
      <trkpt lat="66.317253" lon="14.168646"></trkpt>
      <trkpt lat="66.317083" lon="14.168489"></trkpt>
      <trkpt lat="66.316952" lon="14.168370"></trkpt>
      <trkpt lat="66.316546" lon="14.168045"></trkpt>
      <trkpt lat="66.316429" lon="14.167946"></trkpt>
      <trkpt lat="66.316333" lon="14.167872"></trkpt>
      <trkpt lat="66.315844" lon="14.167487"></trkpt>
      <trkpt lat="66.315785" lon="14.167438"></trkpt>
      <trkpt lat="66.315469" lon="14.167212"></trkpt>
      <trkpt lat="66.315260" lon="14.166994"></trkpt>
      <trkpt lat="66.315079" lon="14.166772"></trkpt>
      <trkpt lat="66.314933" lon="14.166552"></trkpt>
      <trkpt lat="66.314813" lon="14.166335"></trkpt>
      <trkpt lat="66.314710" lon="14.166106"></trkpt>
      <trkpt lat="66.314616" lon="14.165851"></trkpt>
      <trkpt lat="66.314527" lon="14.165535"></trkpt>
      <trkpt lat="66.314463" lon="14.165273"></trkpt>
      <trkpt lat="66.314405" lon="14.164963"></trkpt>
      <trkpt lat="66.314360" lon="14.164634"></trkpt>
      <trkpt lat="66.314329" lon="14.164296"></trkpt>
      <trkpt lat="66.314313" lon="14.163953"></trkpt>
      <trkpt lat="66.314310" lon="14.163688"></trkpt>
      <trkpt lat="66.314316" lon="14.163409"></trkpt>
      <trkpt lat="66.314336" lon="14.162966"></trkpt>
      <trkpt lat="66.314425" lon="14.161817"></trkpt>
      <trkpt lat="66.314444" lon="14.161568"></trkpt>
      <trkpt lat="66.314460" lon="14.161362"></trkpt>
      <trkpt lat="66.314475" lon="14.161185"></trkpt>
      <trkpt lat="66.314524" lon="14.160710"></trkpt>
      <trkpt lat="66.314536" lon="14.160579"></trkpt>
      <trkpt lat="66.314545" lon="14.160366"></trkpt>
      <trkpt lat="66.314547" lon="14.160090"></trkpt>
      <trkpt lat="66.314552" lon="14.159927"></trkpt>
      <trkpt lat="66.314560" lon="14.159896"></trkpt>
      <trkpt lat="66.314656" lon="14.159686"></trkpt>
      <trkpt lat="66.314718" lon="14.159566"></trkpt>
      <trkpt lat="66.314767" lon="14.159471"></trkpt>
      <trkpt lat="66.314849" lon="14.159192"></trkpt>
      <trkpt lat="66.314900" lon="14.159059"></trkpt>
      <trkpt lat="66.314937" lon="14.158915"></trkpt>
      <trkpt lat="66.314996" lon="14.158607"></trkpt>
      <trkpt lat="66.315093" lon="14.158207"></trkpt>
      <trkpt lat="66.315200" lon="14.157922"></trkpt>
      <trkpt lat="66.315312" lon="14.157691"></trkpt>
      <trkpt lat="66.315557" lon="14.157281"></trkpt>
      <trkpt lat="66.315593" lon="14.157200"></trkpt>
      <trkpt lat="66.315603" lon="14.157177"></trkpt>
      <trkpt lat="66.315636" lon="14.157102"></trkpt>
      <trkpt lat="66.315668" lon="14.157050"></trkpt>
      <trkpt lat="66.315695" lon="14.156962"></trkpt>
      <trkpt lat="66.315776" lon="14.156589"></trkpt>
      <trkpt lat="66.315792" lon="14.156558"></trkpt>
      <trkpt lat="66.315804" lon="14.156520"></trkpt>
      <trkpt lat="66.315816" lon="14.156449"></trkpt>
      <trkpt lat="66.315818" lon="14.156372"></trkpt>
      <trkpt lat="66.315809" lon="14.156297"></trkpt>
      <trkpt lat="66.315791" lon="14.156235"></trkpt>
      <trkpt lat="66.315765" lon="14.156193"></trkpt>
      <trkpt lat="66.315736" lon="14.156174"></trkpt>
      <trkpt lat="66.315696" lon="14.156036"></trkpt>
      <trkpt lat="66.315609" lon="14.155823"></trkpt>
      <trkpt lat="66.315542" lon="14.155738"></trkpt>
      <trkpt lat="66.315273" lon="14.155251"></trkpt>
      <trkpt lat="66.314944" lon="14.154618"></trkpt>
      <trkpt lat="66.314857" lon="14.154441"></trkpt>
      <trkpt lat="66.314792" lon="14.154310"></trkpt>
      <trkpt lat="66.314627" lon="14.153983"></trkpt>
      <trkpt lat="66.314368" lon="14.153505"></trkpt>
      <trkpt lat="66.313108" lon="14.151400"></trkpt>
      <trkpt lat="66.312970" lon="14.151158"></trkpt>
      <trkpt lat="66.312855" lon="14.150955"></trkpt>
      <trkpt lat="66.312788" lon="14.150801"></trkpt>
      <trkpt lat="66.312757" lon="14.150720"></trkpt>
      <trkpt lat="66.312730" lon="14.150648"></trkpt>
      <trkpt lat="66.312494" lon="14.149676"></trkpt>
      <trkpt lat="66.312393" lon="14.149204"></trkpt>
      <trkpt lat="66.312303" lon="14.148809"></trkpt>
      <trkpt lat="66.312303" lon="14.148722"></trkpt>
      <trkpt lat="66.312220" lon="14.148334"></trkpt>
      <trkpt lat="66.312209" lon="14.148092"></trkpt>
      <trkpt lat="66.312219" lon="14.147964"></trkpt>
      <trkpt lat="66.312285" lon="14.147691"></trkpt>
      <trkpt lat="66.312356" lon="14.147503"></trkpt>
      <trkpt lat="66.312418" lon="14.147225"></trkpt>
      <trkpt lat="66.312474" lon="14.146593"></trkpt>
      <trkpt lat="66.312504" lon="14.146319"></trkpt>
      <trkpt lat="66.312554" lon="14.145963"></trkpt>
      <trkpt lat="66.312667" lon="14.145373"></trkpt>
      <trkpt lat="66.312756" lon="14.144913"></trkpt>
      <trkpt lat="66.312797" lon="14.144660"></trkpt>
      <trkpt lat="66.312828" lon="14.144449"></trkpt>
      <trkpt lat="66.312861" lon="14.144132"></trkpt>
      <trkpt lat="66.312913" lon="14.143550"></trkpt>
      <trkpt lat="66.312960" lon="14.142966"></trkpt>
      <trkpt lat="66.312747" lon="14.142851"></trkpt>
      <trkpt lat="66.312580" lon="14.142741"></trkpt>
    </trkseg>
  </trk>
</gpx>