<?xml version="1.0" encoding="utf-8"?>
<gpx version="1.1" creator="Trailguide" xmlns="http://www.topografix.com/GPX/1/1" xmlns:xsi="http://www.w3.org/2001/XMLSchema-instance" xmlns:gpxtpx="http://www.garmin.com/xmlschemas/TrackPointExtension/v1" xsi:schemaLocation="http://www.topografix.com/GPX/1/1 http://www.topografix.com/GPX/1/1/gpx.xsd http://www.cluetrust.com/XML/GPXDATA/1/0 http://www.cluetrust.com/Schemas/gpxdata10.xsd http://www.garmin.com/xmlschemas/TrackPointExtension/v1 http://www.garmin.com/xmlschemas/TrackPointExtensionv1.xsd" xmlns:gpxdata="http://www.cluetrust.com/XML/GPXDATA/1/0">
<metadata>
<name>Reinfjellet</name>
<author><name>Andreas Bjørnådal</name></author>
<copyright author="Trailguide"><year>2020</year></copyright>
<keywords>trail,red</keywords>
</metadata>
<trk>
<name>Reinfjellet</name>
<trkseg><trkpt lat="66.287806" lon="14.480639"><ele>496</ele></trkpt>
<trkpt lat="66.287836" lon="14.480603"><ele>497</ele></trkpt>
<trkpt lat="66.288043" lon="14.480814"><ele>499</ele></trkpt>
<trkpt lat="66.288115" lon="14.480839"><ele>499</ele></trkpt>
<trkpt lat="66.288247" lon="14.480797"><ele>501</ele></trkpt>
<trkpt lat="66.288307" lon="14.480753"><ele>501</ele></trkpt>
<trkpt lat="66.288416" lon="14.480608"><ele>502</ele></trkpt>
<trkpt lat="66.288514" lon="14.480521"><ele>503</ele></trkpt>
<trkpt lat="66.288616" lon="14.480515"><ele>504</ele></trkpt>
<trkpt lat="66.288722" lon="14.480566"><ele>505</ele></trkpt>
<trkpt lat="66.288812" lon="14.480695"><ele>506</ele></trkpt>
<trkpt lat="66.289008" lon="14.481133"><ele>507</ele></trkpt>
<trkpt lat="66.289253" lon="14.481608"><ele>509</ele></trkpt>
<trkpt lat="66.289439" lon="14.481781"><ele>511</ele></trkpt>
<trkpt lat="66.289475" lon="14.481784"><ele>512</ele></trkpt>
<trkpt lat="66.289573" lon="14.481719"><ele>513</ele></trkpt>
<trkpt lat="66.289744" lon="14.481409"><ele>515</ele></trkpt>
<trkpt lat="66.289835" lon="14.481298"><ele>516</ele></trkpt>
<trkpt lat="66.289983" lon="14.481156"><ele>516</ele></trkpt>
<trkpt lat="66.29012" lon="14.480818"><ele>517</ele></trkpt>
<trkpt lat="66.290337" lon="14.480098"><ele>518</ele></trkpt>
<trkpt lat="66.290486" lon="14.479447"><ele>519</ele></trkpt>
<trkpt lat="66.290678" lon="14.478358"><ele>520</ele></trkpt>
<trkpt lat="66.290777" lon="14.477341"><ele>521</ele></trkpt>
<trkpt lat="66.290715" lon="14.476314"><ele>522</ele></trkpt>
<trkpt lat="66.290591" lon="14.475113"><ele>522</ele></trkpt>
<trkpt lat="66.29058" lon="14.474874"><ele>522</ele></trkpt>
<trkpt lat="66.290597" lon="14.474083"><ele>523</ele></trkpt>
<trkpt lat="66.290717" lon="14.473013"><ele>524</ele></trkpt>
<trkpt lat="66.290722" lon="14.472731"><ele>524</ele></trkpt>
<trkpt lat="66.290661" lon="14.471698"><ele>525</ele></trkpt>
<trkpt lat="66.290713" lon="14.470275"><ele>530</ele></trkpt>
<trkpt lat="66.290704" lon="14.469911"><ele>531</ele></trkpt>
<trkpt lat="66.290633" lon="14.469589"><ele>531</ele></trkpt>
<trkpt lat="66.290512" lon="14.469309"><ele>531</ele></trkpt>
<trkpt lat="66.290475" lon="14.469115"><ele>531</ele></trkpt>
<trkpt lat="66.290457" lon="14.468896"><ele>531</ele></trkpt>
<trkpt lat="66.290471" lon="14.46744"><ele>530</ele></trkpt>
<trkpt lat="66.290441" lon="14.466832"><ele>531</ele></trkpt>
<trkpt lat="66.290478" lon="14.466459"><ele>533</ele></trkpt>
<trkpt lat="66.290533" lon="14.466241"><ele>534</ele></trkpt>
<trkpt lat="66.290554" lon="14.466236"><ele>534</ele></trkpt>
<trkpt lat="66.29068" lon="14.466296"><ele>536</ele></trkpt>
<trkpt lat="66.290712" lon="14.466358"><ele>536</ele></trkpt>
<trkpt lat="66.290754" lon="14.466384"><ele>537</ele></trkpt>
<trkpt lat="66.290784" lon="14.466383"><ele>537</ele></trkpt>
<trkpt lat="66.290838" lon="14.466355"><ele>538</ele></trkpt>
<trkpt lat="66.290914" lon="14.466281"><ele>539</ele></trkpt>
<trkpt lat="66.290965" lon="14.466285"><ele>540</ele></trkpt>
<trkpt lat="66.291212" lon="14.466093"><ele>545</ele></trkpt>
<trkpt lat="66.291376" lon="14.466122"><ele>548</ele></trkpt>
<trkpt lat="66.291441" lon="14.466007"><ele>550</ele></trkpt>
<trkpt lat="66.291586" lon="14.465825"><ele>553</ele></trkpt>
<trkpt lat="66.291857" lon="14.465679"><ele>556</ele></trkpt>
<trkpt lat="66.29192" lon="14.465505"><ele>557</ele></trkpt>
<trkpt lat="66.292074" lon="14.465214"><ele>559</ele></trkpt>
<trkpt lat="66.292155" lon="14.464929"><ele>561</ele></trkpt>
<trkpt lat="66.292238" lon="14.464742"><ele>563</ele></trkpt>
<trkpt lat="66.29235" lon="14.464675"><ele>564</ele></trkpt>
<trkpt lat="66.292412" lon="14.46458"><ele>566</ele></trkpt>
<trkpt lat="66.292434" lon="14.464585"><ele>566</ele></trkpt>
<trkpt lat="66.292479" lon="14.464532"><ele>567</ele></trkpt>
<trkpt lat="66.292563" lon="14.464533"><ele>569</ele></trkpt>
<trkpt lat="66.29264" lon="14.464562"><ele>570</ele></trkpt>
<trkpt lat="66.292684" lon="14.464554"><ele>571</ele></trkpt>
<trkpt lat="66.292699" lon="14.464531"><ele>571</ele></trkpt>
<trkpt lat="66.292796" lon="14.464492"><ele>573</ele></trkpt>
<trkpt lat="66.292884" lon="14.464432"><ele>575</ele></trkpt>
<trkpt lat="66.292931" lon="14.464442"><ele>576</ele></trkpt>
<trkpt lat="66.292966" lon="14.464473"><ele>576</ele></trkpt>
<trkpt lat="66.293045" lon="14.46463"><ele>578</ele></trkpt>
<trkpt lat="66.293126" lon="14.464968"><ele>579</ele></trkpt>
<trkpt lat="66.293169" lon="14.465068"><ele>580</ele></trkpt>
<trkpt lat="66.293221" lon="14.465122"><ele>581</ele></trkpt>
<trkpt lat="66.293561" lon="14.465035"><ele>585</ele></trkpt>
<trkpt lat="66.293727" lon="14.465062"><ele>585</ele></trkpt>
<trkpt lat="66.293953" lon="14.465013"><ele>585</ele></trkpt>
<trkpt lat="66.29405" lon="14.465029"><ele>584</ele></trkpt>
<trkpt lat="66.294202" lon="14.465221"><ele>584</ele></trkpt>
<trkpt lat="66.294491" lon="14.465374"><ele>583</ele></trkpt>
<trkpt lat="66.294519" lon="14.465334"><ele>583</ele></trkpt>
<trkpt lat="66.294607" lon="14.465281"><ele>584</ele></trkpt>
<trkpt lat="66.29478" lon="14.465266"><ele>584</ele></trkpt>
<trkpt lat="66.294898" lon="14.465182"><ele>585</ele></trkpt>
<trkpt lat="66.294922" lon="14.465182"><ele>585</ele></trkpt>
<trkpt lat="66.295095" lon="14.465325"><ele>586</ele></trkpt>
<trkpt lat="66.295199" lon="14.465445"><ele>587</ele></trkpt>
<trkpt lat="66.29532" lon="14.465704"><ele>588</ele></trkpt>
<trkpt lat="66.295402" lon="14.465945"><ele>589</ele></trkpt>
<trkpt lat="66.29547" lon="14.46604"><ele>590</ele></trkpt>
<trkpt lat="66.295614" lon="14.466144"><ele>593</ele></trkpt>
<trkpt lat="66.295716" lon="14.466172"><ele>594</ele></trkpt>
<trkpt lat="66.295739" lon="14.466096"><ele>595</ele></trkpt>
<trkpt lat="66.295745" lon="14.465705"><ele>596</ele></trkpt>
<trkpt lat="66.295813" lon="14.465608"><ele>597</ele></trkpt>
<trkpt lat="66.29587" lon="14.465411"><ele>598</ele></trkpt>
<trkpt lat="66.295912" lon="14.46532"><ele>599</ele></trkpt>
<trkpt lat="66.295997" lon="14.464731"><ele>603</ele></trkpt>
<trkpt lat="66.296011" lon="14.464292"><ele>606</ele></trkpt>
<trkpt lat="66.296063" lon="14.46407"><ele>608</ele></trkpt>
<trkpt lat="66.296071" lon="14.463925"><ele>608</ele></trkpt>
<trkpt lat="66.296059" lon="14.46353"><ele>610</ele></trkpt>
<trkpt lat="66.296103" lon="14.463078"><ele>612</ele></trkpt>
<trkpt lat="66.296099" lon="14.462785"><ele>615</ele></trkpt>
<trkpt lat="66.296175" lon="14.462285"><ele>618</ele></trkpt>
<trkpt lat="66.296181" lon="14.461855"><ele>620</ele></trkpt>
<trkpt lat="66.29615" lon="14.461605"><ele>621</ele></trkpt>
<trkpt lat="66.296119" lon="14.461463"><ele>621</ele></trkpt>
<trkpt lat="66.296045" lon="14.461362"><ele>622</ele></trkpt>
<trkpt lat="66.296008" lon="14.46123"><ele>623</ele></trkpt>
<trkpt lat="66.295995" lon="14.460677"><ele>626</ele></trkpt>
<trkpt lat="66.296053" lon="14.459859"><ele>627</ele></trkpt>
<trkpt lat="66.295999" lon="14.458678"><ele>627</ele></trkpt>
<trkpt lat="66.295942" lon="14.458349"><ele>628</ele></trkpt>
<trkpt lat="66.295979" lon="14.45808"><ele>628</ele></trkpt>
<trkpt lat="66.295884" lon="14.457515"><ele>631</ele></trkpt>
<trkpt lat="66.295879" lon="14.457405"><ele>631</ele></trkpt>
<trkpt lat="66.295918" lon="14.457062"><ele>633</ele></trkpt>
<trkpt lat="66.295925" lon="14.456509"><ele>636</ele></trkpt>
<trkpt lat="66.295974" lon="14.45597"><ele>637</ele></trkpt>
<trkpt lat="66.295983" lon="14.455277"><ele>638</ele></trkpt>
<trkpt lat="66.296005" lon="14.454928"><ele>638</ele></trkpt>
<trkpt lat="66.296072" lon="14.454603"><ele>638</ele></trkpt>
<trkpt lat="66.296092" lon="14.454403"><ele>638</ele></trkpt>
<trkpt lat="66.296102" lon="14.453793"><ele>641</ele></trkpt>
<trkpt lat="66.296019" lon="14.453236"><ele>643</ele></trkpt>
<trkpt lat="66.295991" lon="14.452843"><ele>645</ele></trkpt>
<trkpt lat="66.296021" lon="14.452372"><ele>646</ele></trkpt>
<trkpt lat="66.296044" lon="14.452157"><ele>647</ele></trkpt>
<trkpt lat="66.296114" lon="14.451805"><ele>647</ele></trkpt>
<trkpt lat="66.296121" lon="14.451572"><ele>647</ele></trkpt>
<trkpt lat="66.296106" lon="14.451451"><ele>647</ele></trkpt>
<trkpt lat="66.296041" lon="14.451231"><ele>647</ele></trkpt>
<trkpt lat="66.296018" lon="14.450679"><ele>647</ele></trkpt>
<trkpt lat="66.296026" lon="14.450325"><ele>648</ele></trkpt>
<trkpt lat="66.296048" lon="14.450029"><ele>648</ele></trkpt>
<trkpt lat="66.296183" lon="14.44933"><ele>650</ele></trkpt>
<trkpt lat="66.296176" lon="14.449153"><ele>651</ele></trkpt>
<trkpt lat="66.296149" lon="14.448978"><ele>650</ele></trkpt>
<trkpt lat="66.296028" lon="14.448616"><ele>649</ele></trkpt>
<trkpt lat="66.29598" lon="14.448365"><ele>648</ele></trkpt>
<trkpt lat="66.295933" lon="14.447902"><ele>648</ele></trkpt>
<trkpt lat="66.295941" lon="14.447695"><ele>648</ele></trkpt>
<trkpt lat="66.295968" lon="14.447571"><ele>648</ele></trkpt>
<trkpt lat="66.29598" lon="14.447095"><ele>647</ele></trkpt>
<trkpt lat="66.295964" lon="14.446976"><ele>647</ele></trkpt>
<trkpt lat="66.295838" lon="14.446278"><ele>647</ele></trkpt>
<trkpt lat="66.295754" lon="14.445911"><ele>647</ele></trkpt>
<trkpt lat="66.295718" lon="14.44578"><ele>647</ele></trkpt>
<trkpt lat="66.295637" lon="14.445583"><ele>647</ele></trkpt>
<trkpt lat="66.295545" lon="14.445422"><ele>647</ele></trkpt>
<trkpt lat="66.29551" lon="14.445162"><ele>647</ele></trkpt>
<trkpt lat="66.295514" lon="14.444782"><ele>648</ele></trkpt>
<trkpt lat="66.295425" lon="14.443902"><ele>649</ele></trkpt>
<trkpt lat="66.295384" lon="14.443682"><ele>650</ele></trkpt>
<trkpt lat="66.295284" lon="14.44348"><ele>651</ele></trkpt>
<trkpt lat="66.295202" lon="14.443407"><ele>651</ele></trkpt>
<trkpt lat="66.295057" lon="14.44347"><ele>651</ele></trkpt>
<trkpt lat="66.294904" lon="14.44325"><ele>652</ele></trkpt>
<trkpt lat="66.294907" lon="14.443064"><ele>653</ele></trkpt>
<trkpt lat="66.294941" lon="14.442913"><ele>654</ele></trkpt>
<trkpt lat="66.294923" lon="14.442146"><ele>657</ele></trkpt>
<trkpt lat="66.294888" lon="14.442052"><ele>657</ele></trkpt>
<trkpt lat="66.294843" lon="14.441997"><ele>657</ele></trkpt>
<trkpt lat="66.294831" lon="14.441933"><ele>657</ele></trkpt>
<trkpt lat="66.294879" lon="14.441833"><ele>658</ele></trkpt>
<trkpt lat="66.294979" lon="14.441799"><ele>657</ele></trkpt>
<trkpt lat="66.295061" lon="14.44171"><ele>657</ele></trkpt>
<trkpt lat="66.29506" lon="14.441731"><ele>657</ele></trkpt>
<trkpt lat="66.295026" lon="14.441768"><ele>657</ele></trkpt>
<trkpt lat="66.295006" lon="14.441847"><ele>657</ele></trkpt>
<trkpt lat="66.294977" lon="14.441863"><ele>658</ele></trkpt>
<trkpt lat="66.294908" lon="14.441709"><ele>658</ele></trkpt>
<trkpt lat="66.294954" lon="14.440999"><ele>657</ele></trkpt>
<trkpt lat="66.294991" lon="14.440724"><ele>656</ele></trkpt>
<trkpt lat="66.295087" lon="14.440283"><ele>654</ele></trkpt>
<trkpt lat="66.295214" lon="14.439356"><ele>654</ele></trkpt>
<trkpt lat="66.295204" lon="14.439129"><ele>655</ele></trkpt>
<trkpt lat="66.295166" lon="14.438857"><ele>656</ele></trkpt>
<trkpt lat="66.295174" lon="14.438419"><ele>657</ele></trkpt>
<trkpt lat="66.295161" lon="14.437806"><ele>655</ele></trkpt>
<trkpt lat="66.295188" lon="14.43709"><ele>650</ele></trkpt>
<trkpt lat="66.295218" lon="14.436781"><ele>648</ele></trkpt>
<trkpt lat="66.295306" lon="14.436264"><ele>647</ele></trkpt>
<trkpt lat="66.295374" lon="14.435442"><ele>642</ele></trkpt>
<trkpt lat="66.295461" lon="14.435034"><ele>639</ele></trkpt>
<trkpt lat="66.295477" lon="14.434891"><ele>639</ele></trkpt>
<trkpt lat="66.295482" lon="14.434458"><ele>637</ele></trkpt>
<trkpt lat="66.295556" lon="14.434134"><ele>634</ele></trkpt>
<trkpt lat="66.295566" lon="14.433995"><ele>633</ele></trkpt>
<trkpt lat="66.295565" lon="14.433874"><ele>633</ele></trkpt>
<trkpt lat="66.295528" lon="14.433592"><ele>632</ele></trkpt>
<trkpt lat="66.295501" lon="14.433013"><ele>629</ele></trkpt>
<trkpt lat="66.295527" lon="14.432326"><ele>628</ele></trkpt>
<trkpt lat="66.295461" lon="14.431338"><ele>626</ele></trkpt>
<trkpt lat="66.295506" lon="14.429945"><ele>621</ele></trkpt>
<trkpt lat="66.295457" lon="14.429342"><ele>619</ele></trkpt>
<trkpt lat="66.295412" lon="14.428423"><ele>615</ele></trkpt>
<trkpt lat="66.295314" lon="14.42759"><ele>610</ele></trkpt>
<trkpt lat="66.295187" lon="14.427082"><ele>609</ele></trkpt>
<trkpt lat="66.295166" lon="14.426911"><ele>609</ele></trkpt>
<trkpt lat="66.295153" lon="14.426449"><ele>607</ele></trkpt>
<trkpt lat="66.295106" lon="14.426002"><ele>603</ele></trkpt>
<trkpt lat="66.295096" lon="14.425152"><ele>595</ele></trkpt>
<trkpt lat="66.295071" lon="14.424842"><ele>593</ele></trkpt>
<trkpt lat="66.295015" lon="14.42462"><ele>592</ele></trkpt>
<trkpt lat="66.294987" lon="14.424564"><ele>591</ele></trkpt>
<trkpt lat="66.294933" lon="14.424513"><ele>591</ele></trkpt>
<trkpt lat="66.294911" lon="14.424449"><ele>591</ele></trkpt>
<trkpt lat="66.294767" lon="14.423479"><ele>587</ele></trkpt>
<trkpt lat="66.294727" lon="14.423397"><ele>587</ele></trkpt>
<trkpt lat="66.294628" lon="14.423277"><ele>585</ele></trkpt>
<trkpt lat="66.294485" lon="14.423042"><ele>581</ele></trkpt>
<trkpt lat="66.294346" lon="14.422486"><ele>573</ele></trkpt>
<trkpt lat="66.294332" lon="14.42234"><ele>571</ele></trkpt>
<trkpt lat="66.29432" lon="14.421922"><ele>568</ele></trkpt>
<trkpt lat="66.294347" lon="14.421111"><ele>564</ele></trkpt>
<trkpt lat="66.29439" lon="14.420561"><ele>561</ele></trkpt>
<trkpt lat="66.294472" lon="14.420085"><ele>558</ele></trkpt>
<trkpt lat="66.294539" lon="14.419252"><ele>553</ele></trkpt>
<trkpt lat="66.294526" lon="14.419162"><ele>552</ele></trkpt>
<trkpt lat="66.294449" lon="14.418995"><ele>550</ele></trkpt>
<trkpt lat="66.294494" lon="14.418604"><ele>547</ele></trkpt>
<trkpt lat="66.29447" lon="14.418418"><ele>545</ele></trkpt>
<trkpt lat="66.294306" lon="14.418111"><ele>539</ele></trkpt>
<trkpt lat="66.294305" lon="14.418033"><ele>538</ele></trkpt>
<trkpt lat="66.294372" lon="14.41779"><ele>537</ele></trkpt>
<trkpt lat="66.294435" lon="14.417382"><ele>536</ele></trkpt>
<trkpt lat="66.294432" lon="14.417295"><ele>535</ele></trkpt>
<trkpt lat="66.29439" lon="14.41714"><ele>533</ele></trkpt>
<trkpt lat="66.294368" lon="14.416946"><ele>531</ele></trkpt>
<trkpt lat="66.294369" lon="14.415725"><ele>527</ele></trkpt>
<trkpt lat="66.294308" lon="14.415451"><ele>524</ele></trkpt>
<trkpt lat="66.294232" lon="14.415434"><ele>522</ele></trkpt>
<trkpt lat="66.294194" lon="14.415368"><ele>521</ele></trkpt>
<trkpt lat="66.294086" lon="14.415006"><ele>516</ele></trkpt>
<trkpt lat="66.293967" lon="14.414016"><ele>510</ele></trkpt>
<trkpt lat="66.293953" lon="14.41369"><ele>508</ele></trkpt>
<trkpt lat="66.29397" lon="14.41358"><ele>508</ele></trkpt>
<trkpt lat="66.294038" lon="14.413509"><ele>509</ele></trkpt>
<trkpt lat="66.294067" lon="14.413373"><ele>509</ele></trkpt>
<trkpt lat="66.294106" lon="14.412702"><ele>505</ele></trkpt>
<trkpt lat="66.294108" lon="14.412436"><ele>504</ele></trkpt>
<trkpt lat="66.294045" lon="14.412019"><ele>503</ele></trkpt>
<trkpt lat="66.294044" lon="14.411893"><ele>503</ele></trkpt>
<trkpt lat="66.29406" lon="14.411761"><ele>502</ele></trkpt>
<trkpt lat="66.294156" lon="14.411424"><ele>500</ele></trkpt>
<trkpt lat="66.294242" lon="14.411038"><ele>497</ele></trkpt>
<trkpt lat="66.294238" lon="14.410846"><ele>496</ele></trkpt>
<trkpt lat="66.29421" lon="14.410708"><ele>494</ele></trkpt>
<trkpt lat="66.294168" lon="14.410611"><ele>493</ele></trkpt>
<trkpt lat="66.294059" lon="14.410453"><ele>491</ele></trkpt>
<trkpt lat="66.293973" lon="14.410407"><ele>490</ele></trkpt>
<trkpt lat="66.293924" lon="14.410361"><ele>489</ele></trkpt>
<trkpt lat="66.293807" lon="14.410121"><ele>486</ele></trkpt>
<trkpt lat="66.293738" lon="14.409557"><ele>480</ele></trkpt>
<trkpt lat="66.293698" lon="14.408777"><ele>474</ele></trkpt>
<trkpt lat="66.2937" lon="14.408615"><ele>474</ele></trkpt>
<trkpt lat="66.293732" lon="14.408449"><ele>473</ele></trkpt>
<trkpt lat="66.293788" lon="14.40837"><ele>471</ele></trkpt>
<trkpt lat="66.293874" lon="14.40832"><ele>470</ele></trkpt>
<trkpt lat="66.293893" lon="14.408163"><ele>469</ele></trkpt>
<trkpt lat="66.293966" lon="14.407876"><ele>468</ele></trkpt>
<trkpt lat="66.294017" lon="14.407521"><ele>468</ele></trkpt>
<trkpt lat="66.293985" lon="14.407263"><ele>467</ele></trkpt>
<trkpt lat="66.293915" lon="14.407015"><ele>466</ele></trkpt>
<trkpt lat="66.293947" lon="14.406362"><ele>462</ele></trkpt>
<trkpt lat="66.293942" lon="14.405962"><ele>459</ele></trkpt>
<trkpt lat="66.294015" lon="14.405457"><ele>455</ele></trkpt>
<trkpt lat="66.294001" lon="14.404804"><ele>451</ele></trkpt>
<trkpt lat="66.293973" lon="14.404613"><ele>450</ele></trkpt>
<trkpt lat="66.293939" lon="14.404503"><ele>450</ele></trkpt>
<trkpt lat="66.293939" lon="14.404391"><ele>450</ele></trkpt>
<trkpt lat="66.293987" lon="14.404214"><ele>449</ele></trkpt>
<trkpt lat="66.293998" lon="14.40394"><ele>449</ele></trkpt>
<trkpt lat="66.294218" lon="14.40336"><ele>454</ele></trkpt>
<trkpt lat="66.294242" lon="14.403252"><ele>454</ele></trkpt>
<trkpt lat="66.294276" lon="14.403065"><ele>455</ele></trkpt>
<trkpt lat="66.294285" lon="14.40283"><ele>454</ele></trkpt>
<trkpt lat="66.294126" lon="14.402415"><ele>454</ele></trkpt>
<trkpt lat="66.294038" lon="14.402292"><ele>454</ele></trkpt>
<trkpt lat="66.294006" lon="14.402103"><ele>454</ele></trkpt>
<trkpt lat="66.294011" lon="14.401719"><ele>453</ele></trkpt>
<trkpt lat="66.293989" lon="14.400969"><ele>449</ele></trkpt>
<trkpt lat="66.293869" lon="14.399846"><ele>445</ele></trkpt>
<trkpt lat="66.293871" lon="14.399504"><ele>446</ele></trkpt>
<trkpt lat="66.293838" lon="14.399108"><ele>445</ele></trkpt>
<trkpt lat="66.293861" lon="14.398672"><ele>443</ele></trkpt>
<trkpt lat="66.293818" lon="14.39847"><ele>441</ele></trkpt>
<trkpt lat="66.293799" lon="14.398194"><ele>439</ele></trkpt>
<trkpt lat="66.293803" lon="14.397811"><ele>437</ele></trkpt>
<trkpt lat="66.293858" lon="14.396925"><ele>431</ele></trkpt>
<trkpt lat="66.293926" lon="14.396374"><ele>426</ele></trkpt>
<trkpt lat="66.293891" lon="14.395911"><ele>422</ele></trkpt>
<trkpt lat="66.293893" lon="14.395739"><ele>421</ele></trkpt>
<trkpt lat="66.293933" lon="14.395441"><ele>419</ele></trkpt>
<trkpt lat="66.293936" lon="14.395055"><ele>417</ele></trkpt>
<trkpt lat="66.293914" lon="14.394885"><ele>416</ele></trkpt>
<trkpt lat="66.293909" lon="14.394438"><ele>413</ele></trkpt>
<trkpt lat="66.293863" lon="14.394141"><ele>409</ele></trkpt>
<trkpt lat="66.293852" lon="14.393809"><ele>405</ele></trkpt>
<trkpt lat="66.293826" lon="14.393689"><ele>403</ele></trkpt>
<trkpt lat="66.293802" lon="14.393701"><ele>402</ele></trkpt>
<trkpt lat="66.293779" lon="14.393652"><ele>401</ele></trkpt>
<trkpt lat="66.293696" lon="14.393579"><ele>396</ele></trkpt>
<trkpt lat="66.29365" lon="14.393622"><ele>395</ele></trkpt>
<trkpt lat="66.293524" lon="14.393902"><ele>390</ele></trkpt>
<trkpt lat="66.293487" lon="14.393893"><ele>388</ele></trkpt>
</trkseg>
</trk>
</gpx>
