<?xml version="1.0" encoding="utf-8"?>
<gpx version="1.1" creator="Trailguide" xmlns="http://www.topografix.com/GPX/1/1" xmlns:xsi="http://www.w3.org/2001/XMLSchema-instance" xmlns:gpxtpx="http://www.garmin.com/xmlschemas/TrackPointExtension/v1" xsi:schemaLocation="http://www.topografix.com/GPX/1/1 http://www.topografix.com/GPX/1/1/gpx.xsd http://www.cluetrust.com/XML/GPXDATA/1/0 http://www.cluetrust.com/Schemas/gpxdata10.xsd http://www.garmin.com/xmlschemas/TrackPointExtension/v1 http://www.garmin.com/xmlschemas/TrackPointExtensionv1.xsd" xmlns:gpxdata="http://www.cluetrust.com/XML/GPXDATA/1/0">
<metadata>
<name>Almlia</name>
<author><name>Andreas Bjørnådal</name></author>
<copyright author="Trailguide"><year>2020</year></copyright>
<keywords>trail,green</keywords>
</metadata>
<trk>
<name>Almlia</name>
<trkseg><trkpt lat="66.319685" lon="14.02886"><ele>362</ele></trkpt>
<trkpt lat="66.319671" lon="14.02878"><ele>361</ele></trkpt>
<trkpt lat="66.319602" lon="14.028633"><ele>360</ele></trkpt>
<trkpt lat="66.319576" lon="14.028507"><ele>360</ele></trkpt>
<trkpt lat="66.319523" lon="14.028375"><ele>360</ele></trkpt>
<trkpt lat="66.319381" lon="14.028218"><ele>358</ele></trkpt>
<trkpt lat="66.319303" lon="14.027963"><ele>359</ele></trkpt>
<trkpt lat="66.319268" lon="14.027897"><ele>359</ele></trkpt>
<trkpt lat="66.319169" lon="14.027793"><ele>359</ele></trkpt>
<trkpt lat="66.319127" lon="14.027802"><ele>358</ele></trkpt>
<trkpt lat="66.319091" lon="14.027662"><ele>359</ele></trkpt>
<trkpt lat="66.319057" lon="14.027612"><ele>359</ele></trkpt>
<trkpt lat="66.318992" lon="14.02758"><ele>358</ele></trkpt>
<trkpt lat="66.318845" lon="14.027366"><ele>357</ele></trkpt>
<trkpt lat="66.318813" lon="14.027346"><ele>356</ele></trkpt>
<trkpt lat="66.318778" lon="14.027337"><ele>356</ele></trkpt>
<trkpt lat="66.318631" lon="14.027374"><ele>351</ele></trkpt>
<trkpt lat="66.318582" lon="14.027443"><ele>349</ele></trkpt>
<trkpt lat="66.318537" lon="14.027442"><ele>348</ele></trkpt>
<trkpt lat="66.31849" lon="14.027381"><ele>346</ele></trkpt>
<trkpt lat="66.318335" lon="14.026961"><ele>340</ele></trkpt>
<trkpt lat="66.318235" lon="14.026558"><ele>337</ele></trkpt>
<trkpt lat="66.31808" lon="14.026402"><ele>331</ele></trkpt>
<trkpt lat="66.318015" lon="14.026312"><ele>329</ele></trkpt>
<trkpt lat="66.317971" lon="14.026218"><ele>329</ele></trkpt>
<trkpt lat="66.317948" lon="14.026128"><ele>328</ele></trkpt>
<trkpt lat="66.31794" lon="14.025957"><ele>329</ele></trkpt>
<trkpt lat="66.317913" lon="14.0258"><ele>329</ele></trkpt>
<trkpt lat="66.317865" lon="14.025718"><ele>329</ele></trkpt>
<trkpt lat="66.317735" lon="14.025145"><ele>325</ele></trkpt>
<trkpt lat="66.317683" lon="14.025037"><ele>324</ele></trkpt>
<trkpt lat="66.317556" lon="14.024894"><ele>320</ele></trkpt>
<trkpt lat="66.317473" lon="14.024836"><ele>317</ele></trkpt>
<trkpt lat="66.317446" lon="14.024866"><ele>315</ele></trkpt>
<trkpt lat="66.317394" lon="14.025081"><ele>312</ele></trkpt>
<trkpt lat="66.317369" lon="14.025325"><ele>310</ele></trkpt>
<trkpt lat="66.317331" lon="14.025429"><ele>308</ele></trkpt>
<trkpt lat="66.317282" lon="14.025492"><ele>307</ele></trkpt>
<trkpt lat="66.317231" lon="14.025482"><ele>306</ele></trkpt>
<trkpt lat="66.317181" lon="14.02539"><ele>305</ele></trkpt>
<trkpt lat="66.31713" lon="14.025232"><ele>303</ele></trkpt>
<trkpt lat="66.316993" lon="14.024193"><ele>300</ele></trkpt>
<trkpt lat="66.316892" lon="14.023916"><ele>299</ele></trkpt>
<trkpt lat="66.316808" lon="14.02374"><ele>297</ele></trkpt>
<trkpt lat="66.316712" lon="14.02359"><ele>295</ele></trkpt>
<trkpt lat="66.31653" lon="14.023097"><ele>293</ele></trkpt>
<trkpt lat="66.316532" lon="14.023169"><ele>292</ele></trkpt>
<trkpt lat="66.316503" lon="14.023175"><ele>292</ele></trkpt>
<trkpt lat="66.316481" lon="14.023218"><ele>290</ele></trkpt>
<trkpt lat="66.316363" lon="14.023276"><ele>288</ele></trkpt>
<trkpt lat="66.316285" lon="14.023446"><ele>285</ele></trkpt>
<trkpt lat="66.316204" lon="14.023767"><ele>281</ele></trkpt>
<trkpt lat="66.316019" lon="14.024217"><ele>276</ele></trkpt>
<trkpt lat="66.315833" lon="14.024748"><ele>268</ele></trkpt>
<trkpt lat="66.315802" lon="14.024863"><ele>266</ele></trkpt>
<trkpt lat="66.315796" lon="14.025001"><ele>264</ele></trkpt>
<trkpt lat="66.315815" lon="14.025155"><ele>262</ele></trkpt>
<trkpt lat="66.315901" lon="14.025504"><ele>260</ele></trkpt>
<trkpt lat="66.316158" lon="14.026294"><ele>254</ele></trkpt>
<trkpt lat="66.316174" lon="14.026451"><ele>254</ele></trkpt>
<trkpt lat="66.316158" lon="14.026598"><ele>251</ele></trkpt>
<trkpt lat="66.316136" lon="14.027435"><ele>243</ele></trkpt>
<trkpt lat="66.31617" lon="14.028065"><ele>241</ele></trkpt>
<trkpt lat="66.316199" lon="14.028077"><ele>241</ele></trkpt>
<trkpt lat="66.316616" lon="14.030001"><ele>230</ele></trkpt>
<trkpt lat="66.316633" lon="14.03015"><ele>229</ele></trkpt>
<trkpt lat="66.316627" lon="14.030269"><ele>228</ele></trkpt>
<trkpt lat="66.316579" lon="14.03032"><ele>226</ele></trkpt>
<trkpt lat="66.316524" lon="14.030289"><ele>224</ele></trkpt>
<trkpt lat="66.316449" lon="14.030183"><ele>223</ele></trkpt>
<trkpt lat="66.316125" lon="14.029678"><ele>218</ele></trkpt>
<trkpt lat="66.315915" lon="14.029181"><ele>217</ele></trkpt>
<trkpt lat="66.315764" lon="14.028918"><ele>214</ele></trkpt>
<trkpt lat="66.315619" lon="14.028793"><ele>211</ele></trkpt>
<trkpt lat="66.315489" lon="14.028782"><ele>207</ele></trkpt>
<trkpt lat="66.31538" lon="14.028699"><ele>204</ele></trkpt>
<trkpt lat="66.315186" lon="14.0282"><ele>201</ele></trkpt>
<trkpt lat="66.314971" lon="14.027755"><ele>198</ele></trkpt>
<trkpt lat="66.314811" lon="14.027497"><ele>195</ele></trkpt>
<trkpt lat="66.314636" lon="14.02729"><ele>191</ele></trkpt>
<trkpt lat="66.314392" lon="14.02713"><ele>184</ele></trkpt>
<trkpt lat="66.314118" lon="14.026721"><ele>180</ele></trkpt>
<trkpt lat="66.313951" lon="14.026537"><ele>177</ele></trkpt>
<trkpt lat="66.313725" lon="14.026207"><ele>173</ele></trkpt>
<trkpt lat="66.313586" lon="14.026045"><ele>168</ele></trkpt>
<trkpt lat="66.313483" lon="14.025796"><ele>165</ele></trkpt>
<trkpt lat="66.313369" lon="14.025367"><ele>164</ele></trkpt>
<trkpt lat="66.313333" lon="14.025307"><ele>162</ele></trkpt>
<trkpt lat="66.313274" lon="14.025281"><ele>160</ele></trkpt>
<trkpt lat="66.313246" lon="14.025197"><ele>160</ele></trkpt>
<trkpt lat="66.31314" lon="14.02469"><ele>159</ele></trkpt>
<trkpt lat="66.312975" lon="14.024186"><ele>155</ele></trkpt>
<trkpt lat="66.312867" lon="14.023933"><ele>151</ele></trkpt>
<trkpt lat="66.312519" lon="14.023223"><ele>142</ele></trkpt>
<trkpt lat="66.312203" lon="14.022215"><ele>140</ele></trkpt>
<trkpt lat="66.312142" lon="14.022058"><ele>139</ele></trkpt>
<trkpt lat="66.312041" lon="14.021862"><ele>138</ele></trkpt>
<trkpt lat="66.312001" lon="14.021832"><ele>137</ele></trkpt>
<trkpt lat="66.311966" lon="14.021843"><ele>135</ele></trkpt>
<trkpt lat="66.311915" lon="14.022042"><ele>133</ele></trkpt>
<trkpt lat="66.311892" lon="14.022504"><ele>129</ele></trkpt>
<trkpt lat="66.311934" lon="14.023121"><ele>126</ele></trkpt>
<trkpt lat="66.312011" lon="14.023746"><ele>123</ele></trkpt>
<trkpt lat="66.311994" lon="14.023895"><ele>121</ele></trkpt>
<trkpt lat="66.311927" lon="14.023913"><ele>119</ele></trkpt>
<trkpt lat="66.311801" lon="14.023807"><ele>116</ele></trkpt>
<trkpt lat="66.311749" lon="14.023722"><ele>115</ele></trkpt>
<trkpt lat="66.311688" lon="14.023602"><ele>113</ele></trkpt>
<trkpt lat="66.311642" lon="14.023463"><ele>113</ele></trkpt>
<trkpt lat="66.311568" lon="14.023109"><ele>111</ele></trkpt>
<trkpt lat="66.311528" lon="14.023007"><ele>110</ele></trkpt>
<trkpt lat="66.311488" lon="14.022968"><ele>109</ele></trkpt>
<trkpt lat="66.311573" lon="14.024512"><ele>103</ele></trkpt>
<trkpt lat="66.311576" lon="14.024934"><ele>99</ele></trkpt>
<trkpt lat="66.311676" lon="14.026237"><ele>87</ele></trkpt>
<trkpt lat="66.311749" lon="14.026892"><ele>84</ele></trkpt>
<trkpt lat="66.311775" lon="14.027796"><ele>78</ele></trkpt>
<trkpt lat="66.31187" lon="14.02852"><ele>75</ele></trkpt>
<trkpt lat="66.312042" lon="14.029298"><ele>71</ele></trkpt>
<trkpt lat="66.312329" lon="14.030339"><ele>71</ele></trkpt>
<trkpt lat="66.312518" lon="14.030688"><ele>75</ele></trkpt>
<trkpt lat="66.312601" lon="14.031193"><ele>73</ele></trkpt>
<trkpt lat="66.312708" lon="14.031557"><ele>72</ele></trkpt>
<trkpt lat="66.312857" lon="14.03194"><ele>70</ele></trkpt>
<trkpt lat="66.312967" lon="14.032292"><ele>67</ele></trkpt>
<trkpt lat="66.313025" lon="14.032539"><ele>65</ele></trkpt>
<trkpt lat="66.313061" lon="14.032946"><ele>62</ele></trkpt>
<trkpt lat="66.313048" lon="14.033075"><ele>60</ele></trkpt>
<trkpt lat="66.313017" lon="14.033169"><ele>58</ele></trkpt>
<trkpt lat="66.312968" lon="14.03322"><ele>56</ele></trkpt>
<trkpt lat="66.312912" lon="14.033193"><ele>54</ele></trkpt>
<trkpt lat="66.312738" lon="14.033016"><ele>51</ele></trkpt>
<trkpt lat="66.312574" lon="14.032888"><ele>49</ele></trkpt>
<trkpt lat="66.312492" lon="14.032853"><ele>47</ele></trkpt>
<trkpt lat="66.312303" lon="14.03283"><ele>43</ele></trkpt>
<trkpt lat="66.312128" lon="14.032765"><ele>40</ele></trkpt>
<trkpt lat="66.312088" lon="14.032772"><ele>40</ele></trkpt>
<trkpt lat="66.31206" lon="14.032813"><ele>39</ele></trkpt>
<trkpt lat="66.312049" lon="14.032885"><ele>39</ele></trkpt>
<trkpt lat="66.312073" lon="14.033066"><ele>38</ele></trkpt>
<trkpt lat="66.312098" lon="14.033123"><ele>38</ele></trkpt>
</trkseg>
</trk>
</gpx>
