<?xml version="1.0" encoding="utf-8"?>
<gpx version="1.1" creator="Trailguide" xmlns="http://www.topografix.com/GPX/1/1" xmlns:xsi="http://www.w3.org/2001/XMLSchema-instance" xmlns:gpxtpx="http://www.garmin.com/xmlschemas/TrackPointExtension/v1" xsi:schemaLocation="http://www.topografix.com/GPX/1/1 http://www.topografix.com/GPX/1/1/gpx.xsd http://www.cluetrust.com/XML/GPXDATA/1/0 http://www.cluetrust.com/Schemas/gpxdata10.xsd http://www.garmin.com/xmlschemas/TrackPointExtension/v1 http://www.garmin.com/xmlschemas/TrackPointExtensionv1.xsd" xmlns:gpxdata="http://www.cluetrust.com/XML/GPXDATA/1/0">
<metadata>
<name>Isbilen</name>
<author><name>Andreas Bjørnådal</name></author>
<copyright author="Trailguide"><year>2024</year></copyright>
<keywords>trail,red</keywords>
</metadata>
<trk>
<name>Isbilen</name>
<trkseg><trkpt lat="66.355473" lon="14.098982"><ele>284</ele></trkpt>
<trkpt lat="66.355464" lon="14.09894"><ele>273</ele></trkpt>
<trkpt lat="66.355456" lon="14.098947"><ele>272</ele></trkpt>
<trkpt lat="66.355422" lon="14.099074"><ele>272</ele></trkpt>
<trkpt lat="66.355331" lon="14.099269"><ele>272</ele></trkpt>
<trkpt lat="66.3553" lon="14.099707"><ele>274</ele></trkpt>
<trkpt lat="66.355275" lon="14.099743"><ele>274</ele></trkpt>
<trkpt lat="66.355177" lon="14.099772"><ele>276</ele></trkpt>
<trkpt lat="66.355132" lon="14.099806"><ele>277</ele></trkpt>
<trkpt lat="66.354987" lon="14.100033"><ele>278</ele></trkpt>
<trkpt lat="66.35493" lon="14.100223"><ele>276</ele></trkpt>
<trkpt lat="66.354831" lon="14.100129"><ele>275</ele></trkpt>
<trkpt lat="66.354775" lon="14.100104"><ele>274</ele></trkpt>
<trkpt lat="66.354685" lon="14.099918"><ele>270</ele></trkpt>
<trkpt lat="66.354651" lon="14.099885"><ele>269</ele></trkpt>
<trkpt lat="66.354427" lon="14.099916"><ele>265</ele></trkpt>
<trkpt lat="66.354358" lon="14.099854"><ele>263</ele></trkpt>
<trkpt lat="66.354297" lon="14.099897"><ele>261</ele></trkpt>
<trkpt lat="66.354202" lon="14.100124"><ele>259</ele></trkpt>
<trkpt lat="66.354146" lon="14.100206"><ele>258</ele></trkpt>
<trkpt lat="66.354087" lon="14.100223"><ele>257</ele></trkpt>
<trkpt lat="66.353975" lon="14.100129"><ele>255</ele></trkpt>
<trkpt lat="66.353918" lon="14.100136"><ele>254</ele></trkpt>
<trkpt lat="66.353867" lon="14.100168"><ele>253</ele></trkpt>
<trkpt lat="66.353816" lon="14.100233"><ele>252</ele></trkpt>
<trkpt lat="66.353746" lon="14.100414"><ele>251</ele></trkpt>
<trkpt lat="66.353705" lon="14.100575"><ele>251</ele></trkpt>
<trkpt lat="66.353614" lon="14.100682"><ele>250</ele></trkpt>
<trkpt lat="66.353597" lon="14.100726"><ele>250</ele></trkpt>
<trkpt lat="66.353587" lon="14.100907"><ele>250</ele></trkpt>
<trkpt lat="66.353649" lon="14.101222"><ele>250</ele></trkpt>
<trkpt lat="66.353623" lon="14.101377"><ele>249</ele></trkpt>
<trkpt lat="66.353633" lon="14.101638"><ele>249</ele></trkpt>
<trkpt lat="66.353608" lon="14.10186"><ele>249</ele></trkpt>
<trkpt lat="66.353577" lon="14.101921"><ele>249</ele></trkpt>
<trkpt lat="66.353519" lon="14.101938"><ele>248</ele></trkpt>
<trkpt lat="66.353472" lon="14.102192"><ele>246</ele></trkpt>
<trkpt lat="66.353446" lon="14.102286"><ele>246</ele></trkpt>
<trkpt lat="66.353417" lon="14.102309"><ele>245</ele></trkpt>
<trkpt lat="66.353385" lon="14.102236"><ele>245</ele></trkpt>
<trkpt lat="66.35336" lon="14.102028"><ele>243</ele></trkpt>
<trkpt lat="66.353333" lon="14.101993"><ele>243</ele></trkpt>
<trkpt lat="66.353253" lon="14.102107"><ele>240</ele></trkpt>
<trkpt lat="66.353192" lon="14.102162"><ele>239</ele></trkpt>
<trkpt lat="66.353098" lon="14.102356"><ele>238</ele></trkpt>
<trkpt lat="66.353032" lon="14.102605"><ele>236</ele></trkpt>
<trkpt lat="66.352993" lon="14.1029"><ele>235</ele></trkpt>
<trkpt lat="66.352962" lon="14.103472"><ele>231</ele></trkpt>
<trkpt lat="66.35293" lon="14.103756"><ele>228</ele></trkpt>
<trkpt lat="66.352925" lon="14.104218"><ele>225</ele></trkpt>
<trkpt lat="66.352897" lon="14.104324"><ele>225</ele></trkpt>
<trkpt lat="66.352836" lon="14.104379"><ele>224</ele></trkpt>
<trkpt lat="66.352822" lon="14.104454"><ele>224</ele></trkpt>
<trkpt lat="66.352797" lon="14.104491"><ele>223</ele></trkpt>
<trkpt lat="66.352758" lon="14.104485"><ele>223</ele></trkpt>
<trkpt lat="66.352666" lon="14.1044"><ele>221</ele></trkpt>
<trkpt lat="66.352517" lon="14.104396"><ele>217</ele></trkpt>
<trkpt lat="66.352483" lon="14.10433"><ele>215</ele></trkpt>
<trkpt lat="66.352453" lon="14.104311"><ele>215</ele></trkpt>
<trkpt lat="66.352338" lon="14.104473"><ele>212</ele></trkpt>
<trkpt lat="66.352234" lon="14.104945"><ele>209</ele></trkpt>
<trkpt lat="66.35207" lon="14.10542"><ele>203</ele></trkpt>
<trkpt lat="66.352047" lon="14.105678"><ele>201</ele></trkpt>
<trkpt lat="66.351999" lon="14.105898"><ele>200</ele></trkpt>
<trkpt lat="66.351975" lon="14.106171"><ele>200</ele></trkpt>
<trkpt lat="66.351933" lon="14.106276"><ele>199</ele></trkpt>
<trkpt lat="66.351841" lon="14.10637"><ele>199</ele></trkpt>
<trkpt lat="66.351762" lon="14.106546"><ele>197</ele></trkpt>
<trkpt lat="66.351724" lon="14.106862"><ele>194</ele></trkpt>
<trkpt lat="66.351742" lon="14.107163"><ele>191</ele></trkpt>
<trkpt lat="66.351683" lon="14.107371"><ele>189</ele></trkpt>
<trkpt lat="66.351597" lon="14.107459"><ele>187</ele></trkpt>
<trkpt lat="66.351508" lon="14.107651"><ele>182</ele></trkpt>
<trkpt lat="66.351464" lon="14.107642"><ele>180</ele></trkpt>
<trkpt lat="66.351432" lon="14.107601"><ele>179</ele></trkpt>
<trkpt lat="66.351422" lon="14.107524"><ele>178</ele></trkpt>
<trkpt lat="66.351385" lon="14.107453"><ele>177</ele></trkpt>
<trkpt lat="66.351313" lon="14.107428"><ele>174</ele></trkpt>
<trkpt lat="66.351254" lon="14.107553"><ele>171</ele></trkpt>
<trkpt lat="66.351208" lon="14.107813"><ele>167</ele></trkpt>
<trkpt lat="66.35116" lon="14.10791"><ele>166</ele></trkpt>
<trkpt lat="66.351066" lon="14.107869"><ele>163</ele></trkpt>
<trkpt lat="66.351038" lon="14.107908"><ele>161</ele></trkpt>
<trkpt lat="66.351019" lon="14.107996"><ele>160</ele></trkpt>
<trkpt lat="66.35101" lon="14.108332"><ele>156</ele></trkpt>
<trkpt lat="66.35095" lon="14.108542"><ele>154</ele></trkpt>
<trkpt lat="66.350948" lon="14.108739"><ele>151</ele></trkpt>
<trkpt lat="66.350918" lon="14.109005"><ele>149</ele></trkpt>
<trkpt lat="66.350901" lon="14.10911"><ele>148</ele></trkpt>
<trkpt lat="66.350867" lon="14.109158"><ele>147</ele></trkpt>
<trkpt lat="66.350835" lon="14.109174"><ele>146</ele></trkpt>
<trkpt lat="66.350809" lon="14.109155"><ele>145</ele></trkpt>
<trkpt lat="66.350772" lon="14.109028"><ele>142</ele></trkpt>
<trkpt lat="66.350697" lon="14.108992"><ele>138</ele></trkpt>
<trkpt lat="66.350631" lon="14.108844"><ele>133</ele></trkpt>
<trkpt lat="66.35054" lon="14.108513"><ele>128</ele></trkpt>
<trkpt lat="66.350519" lon="14.108091"><ele>124</ele></trkpt>
<trkpt lat="66.350495" lon="14.108068"><ele>124</ele></trkpt>
<trkpt lat="66.350431" lon="14.108133"><ele>121</ele></trkpt>
<trkpt lat="66.35033" lon="14.108398"><ele>116</ele></trkpt>
<trkpt lat="66.350314" lon="14.108614"><ele>114</ele></trkpt>
<trkpt lat="66.350338" lon="14.108969"><ele>113</ele></trkpt>
<trkpt lat="66.350381" lon="14.109105"><ele>113</ele></trkpt>
<trkpt lat="66.350373" lon="14.109382"><ele>112</ele></trkpt>
<trkpt lat="66.350348" lon="14.109394"><ele>112</ele></trkpt>
<trkpt lat="66.350313" lon="14.109379"><ele>111</ele></trkpt>
<trkpt lat="66.350217" lon="14.109105"><ele>106</ele></trkpt>
<trkpt lat="66.350195" lon="14.109108"><ele>106</ele></trkpt>
<trkpt lat="66.350176" lon="14.109369"><ele>104</ele></trkpt>
<trkpt lat="66.350214" lon="14.109621"><ele>101</ele></trkpt>
<trkpt lat="66.350233" lon="14.109665"><ele>100</ele></trkpt>
<trkpt lat="66.35024" lon="14.109849"><ele>99</ele></trkpt>
<trkpt lat="66.350202" lon="14.109878"><ele>99</ele></trkpt>
<trkpt lat="66.350146" lon="14.109838"><ele>98</ele></trkpt>
<trkpt lat="66.350095" lon="14.109909"><ele>95</ele></trkpt>
<trkpt lat="66.350074" lon="14.110003"><ele>94</ele></trkpt>
<trkpt lat="66.350058" lon="14.110241"><ele>91</ele></trkpt>
<trkpt lat="66.350031" lon="14.110257"><ele>91</ele></trkpt>
<trkpt lat="66.349988" lon="14.110155"><ele>89</ele></trkpt>
<trkpt lat="66.349961" lon="14.11013"><ele>88</ele></trkpt>
<trkpt lat="66.349906" lon="14.110234"><ele>85</ele></trkpt>
<trkpt lat="66.349857" lon="14.110422"><ele>82</ele></trkpt>
<trkpt lat="66.349823" lon="14.110464"><ele>80</ele></trkpt>
<trkpt lat="66.349791" lon="14.110429"><ele>79</ele></trkpt>
<trkpt lat="66.349766" lon="14.110419"><ele>78</ele></trkpt>
<trkpt lat="66.349746" lon="14.11043"><ele>77</ele></trkpt>
<trkpt lat="66.349688" lon="14.110525"><ele>74</ele></trkpt>
<trkpt lat="66.34966" lon="14.110544"><ele>72</ele></trkpt>
<trkpt lat="66.349598" lon="14.110388"><ele>67</ele></trkpt>
<trkpt lat="66.349617" lon="14.110211"><ele>63</ele></trkpt>
<trkpt lat="66.349608" lon="14.110125"><ele>63</ele></trkpt>
<trkpt lat="66.349557" lon="14.110021"><ele>61</ele></trkpt>
<trkpt lat="66.349557" lon="14.109941"><ele>58</ele></trkpt>
<trkpt lat="66.349492" lon="14.109755"><ele>55</ele></trkpt>
<trkpt lat="66.349461" lon="14.109729"><ele>53</ele></trkpt>
<trkpt lat="66.349392" lon="14.109786"><ele>50</ele></trkpt>
<trkpt lat="66.349329" lon="14.109578"><ele>47</ele></trkpt>
<trkpt lat="66.349283" lon="14.109549"><ele>45</ele></trkpt>
<trkpt lat="66.349211" lon="14.109612"><ele>41</ele></trkpt>
<trkpt lat="66.349042" lon="14.110279"><ele>38</ele></trkpt>
<trkpt lat="66.348923" lon="14.110663"><ele>37</ele></trkpt>
<trkpt lat="66.348888" lon="14.110855"><ele>37</ele></trkpt>
<trkpt lat="66.348819" lon="14.111101"><ele>36</ele></trkpt>
<trkpt lat="66.348701" lon="14.111335"><ele>36</ele></trkpt>
<trkpt lat="66.348642" lon="14.111373"><ele>35</ele></trkpt>
<trkpt lat="66.348546" lon="14.111316"><ele>35</ele></trkpt>
</trkseg>
</trk>
</gpx>
