<?xml version="1.0" encoding="utf-8"?>
<gpx version="1.1" creator="Trailguide" xmlns="http://www.topografix.com/GPX/1/1" xmlns:xsi="http://www.w3.org/2001/XMLSchema-instance" xmlns:gpxtpx="http://www.garmin.com/xmlschemas/TrackPointExtension/v1" xsi:schemaLocation="http://www.topografix.com/GPX/1/1 http://www.topografix.com/GPX/1/1/gpx.xsd http://www.cluetrust.com/XML/GPXDATA/1/0 http://www.cluetrust.com/Schemas/gpxdata10.xsd http://www.garmin.com/xmlschemas/TrackPointExtension/v1 http://www.garmin.com/xmlschemas/TrackPointExtensionv1.xsd" xmlns:gpxdata="http://www.cluetrust.com/XML/GPXDATA/1/0">
<metadata>
<name>Selforsfjellet</name>
<author><name>Andreas Bjørnådal</name></author>
<copyright author="Trailguide"><year>2020</year></copyright>
<keywords>trail,green</keywords>
</metadata>
<trk>
<name>Selforsfjellet</name>
<trkseg><trkpt lat="66.330916" lon="14.192263"><ele>64</ele></trkpt>
<trkpt lat="66.330893" lon="14.192398"><ele>64</ele></trkpt>
<trkpt lat="66.330861" lon="14.193039"><ele>64</ele></trkpt>
<trkpt lat="66.330721" lon="14.193941"><ele>62</ele></trkpt>
<trkpt lat="66.33073" lon="14.194455"><ele>62</ele></trkpt>
<trkpt lat="66.330717" lon="14.194552"><ele>62</ele></trkpt>
<trkpt lat="66.330649" lon="14.19476"><ele>61</ele></trkpt>
<trkpt lat="66.330529" lon="14.194929"><ele>60</ele></trkpt>
<trkpt lat="66.330432" lon="14.195105"><ele>60</ele></trkpt>
<trkpt lat="66.330398" lon="14.195215"><ele>60</ele></trkpt>
<trkpt lat="66.330379" lon="14.195487"><ele>60</ele></trkpt>
<trkpt lat="66.330381" lon="14.195796"><ele>61</ele></trkpt>
<trkpt lat="66.330452" lon="14.196214"><ele>64</ele></trkpt>
<trkpt lat="66.330464" lon="14.19659"><ele>66</ele></trkpt>
<trkpt lat="66.330535" lon="14.196904"><ele>68</ele></trkpt>
<trkpt lat="66.330529" lon="14.197104"><ele>69</ele></trkpt>
<trkpt lat="66.330544" lon="14.19729"><ele>70</ele></trkpt>
<trkpt lat="66.330618" lon="14.19776"><ele>72</ele></trkpt>
<trkpt lat="66.330599" lon="14.198068"><ele>73</ele></trkpt>
<trkpt lat="66.330668" lon="14.198932"><ele>77</ele></trkpt>
<trkpt lat="66.330659" lon="14.199198"><ele>79</ele></trkpt>
<trkpt lat="66.330706" lon="14.199386"><ele>80</ele></trkpt>
<trkpt lat="66.330807" lon="14.200136"><ele>88</ele></trkpt>
<trkpt lat="66.330913" lon="14.200328"><ele>92</ele></trkpt>
<trkpt lat="66.331132" lon="14.200605"><ele>97</ele></trkpt>
<trkpt lat="66.331245" lon="14.20068"><ele>99</ele></trkpt>
<trkpt lat="66.331375" lon="14.200729"><ele>101</ele></trkpt>
<trkpt lat="66.33149" lon="14.200797"><ele>104</ele></trkpt>
<trkpt lat="66.331551" lon="14.20086"><ele>105</ele></trkpt>
<trkpt lat="66.331667" lon="14.20103"><ele>108</ele></trkpt>
<trkpt lat="66.331859" lon="14.201422"><ele>112</ele></trkpt>
<trkpt lat="66.331916" lon="14.201573"><ele>113</ele></trkpt>
<trkpt lat="66.331969" lon="14.201749"><ele>115</ele></trkpt>
<trkpt lat="66.332091" lon="14.202413"><ele>121</ele></trkpt>
<trkpt lat="66.332133" lon="14.202467"><ele>122</ele></trkpt>
<trkpt lat="66.332148" lon="14.202528"><ele>123</ele></trkpt>
<trkpt lat="66.332185" lon="14.202584"><ele>124</ele></trkpt>
<trkpt lat="66.33228" lon="14.202557"><ele>126</ele></trkpt>
<trkpt lat="66.332318" lon="14.202568"><ele>127</ele></trkpt>
<trkpt lat="66.332376" lon="14.202452"><ele>129</ele></trkpt>
<trkpt lat="66.332459" lon="14.201966"><ele>134</ele></trkpt>
<trkpt lat="66.332529" lon="14.201771"><ele>136</ele></trkpt>
<trkpt lat="66.332557" lon="14.201434"><ele>138</ele></trkpt>
<trkpt lat="66.332734" lon="14.200435"><ele>146</ele></trkpt>
<trkpt lat="66.33277" lon="14.200095"><ele>150</ele></trkpt>
<trkpt lat="66.332879" lon="14.199545"><ele>155</ele></trkpt>
<trkpt lat="66.332932" lon="14.199372"><ele>157</ele></trkpt>
<trkpt lat="66.332969" lon="14.19932"><ele>158</ele></trkpt>
<trkpt lat="66.333008" lon="14.199333"><ele>158</ele></trkpt>
<trkpt lat="66.333054" lon="14.199386"><ele>159</ele></trkpt>
<trkpt lat="66.333105" lon="14.199525"><ele>161</ele></trkpt>
<trkpt lat="66.33319" lon="14.199961"><ele>163</ele></trkpt>
<trkpt lat="66.333459" lon="14.200803"><ele>168</ele></trkpt>
<trkpt lat="66.333494" lon="14.201359"><ele>169</ele></trkpt>
<trkpt lat="66.333558" lon="14.201836"><ele>170</ele></trkpt>
<trkpt lat="66.333593" lon="14.201915"><ele>171</ele></trkpt>
<trkpt lat="66.33364" lon="14.201915"><ele>171</ele></trkpt>
<trkpt lat="66.333679" lon="14.20184"><ele>171</ele></trkpt>
<trkpt lat="66.333733" lon="14.201639"><ele>172</ele></trkpt>
<trkpt lat="66.333892" lon="14.200785"><ele>177</ele></trkpt>
<trkpt lat="66.333968" lon="14.200215"><ele>179</ele></trkpt>
<trkpt lat="66.334055" lon="14.199039"><ele>183</ele></trkpt>
<trkpt lat="66.334117" lon="14.198866"><ele>184</ele></trkpt>
<trkpt lat="66.334227" lon="14.198763"><ele>185</ele></trkpt>
<trkpt lat="66.334256" lon="14.198765"><ele>185</ele></trkpt>
<trkpt lat="66.334319" lon="14.198922"><ele>187</ele></trkpt>
<trkpt lat="66.334324" lon="14.199021"><ele>187</ele></trkpt>
<trkpt lat="66.334274" lon="14.199408"><ele>191</ele></trkpt>
<trkpt lat="66.334339" lon="14.200282"><ele>196</ele></trkpt>
<trkpt lat="66.334334" lon="14.200539"><ele>198</ele></trkpt>
<trkpt lat="66.334361" lon="14.200759"><ele>199</ele></trkpt>
<trkpt lat="66.334332" lon="14.201581"><ele>202</ele></trkpt>
<trkpt lat="66.334299" lon="14.201782"><ele>203</ele></trkpt>
<trkpt lat="66.334307" lon="14.201992"><ele>203</ele></trkpt>
<trkpt lat="66.334339" lon="14.202215"><ele>204</ele></trkpt>
<trkpt lat="66.334383" lon="14.202365"><ele>204</ele></trkpt>
<trkpt lat="66.334464" lon="14.202459"><ele>205</ele></trkpt>
<trkpt lat="66.334493" lon="14.202453"><ele>205</ele></trkpt>
<trkpt lat="66.334535" lon="14.202403"><ele>206</ele></trkpt>
<trkpt lat="66.334593" lon="14.202106"><ele>207</ele></trkpt>
<trkpt lat="66.334623" lon="14.201776"><ele>209</ele></trkpt>
<trkpt lat="66.334653" lon="14.201667"><ele>210</ele></trkpt>
<trkpt lat="66.334842" lon="14.201405"><ele>211</ele></trkpt>
<trkpt lat="66.334877" lon="14.201306"><ele>212</ele></trkpt>
<trkpt lat="66.334943" lon="14.201191"><ele>213</ele></trkpt>
<trkpt lat="66.335065" lon="14.200844"><ele>215</ele></trkpt>
<trkpt lat="66.3351" lon="14.200782"><ele>215</ele></trkpt>
<trkpt lat="66.335142" lon="14.200755"><ele>216</ele></trkpt>
<trkpt lat="66.33519" lon="14.200769"><ele>217</ele></trkpt>
<trkpt lat="66.335258" lon="14.200867"><ele>218</ele></trkpt>
<trkpt lat="66.335386" lon="14.201115"><ele>220</ele></trkpt>
<trkpt lat="66.335442" lon="14.201161"><ele>220</ele></trkpt>
<trkpt lat="66.335474" lon="14.201151"><ele>221</ele></trkpt>
<trkpt lat="66.33553" lon="14.201046"><ele>221</ele></trkpt>
<trkpt lat="66.335664" lon="14.200329"><ele>224</ele></trkpt>
<trkpt lat="66.335701" lon="14.199932"><ele>225</ele></trkpt>
<trkpt lat="66.335696" lon="14.199446"><ele>226</ele></trkpt>
<trkpt lat="66.33572" lon="14.198889"><ele>229</ele></trkpt>
<trkpt lat="66.335794" lon="14.198409"><ele>233</ele></trkpt>
<trkpt lat="66.335831" lon="14.197881"><ele>236</ele></trkpt>
<trkpt lat="66.335822" lon="14.197518"><ele>239</ele></trkpt>
<trkpt lat="66.335857" lon="14.196649"><ele>246</ele></trkpt>
<trkpt lat="66.335827" lon="14.19614"><ele>250</ele></trkpt>
<trkpt lat="66.335848" lon="14.195787"><ele>251</ele></trkpt>
<trkpt lat="66.335827" lon="14.194711"><ele>256</ele></trkpt>
<trkpt lat="66.336077" lon="14.193545"><ele>264</ele></trkpt>
<trkpt lat="66.336099" lon="14.193477"><ele>265</ele></trkpt>
<trkpt lat="66.336137" lon="14.193445"><ele>265</ele></trkpt>
<trkpt lat="66.336181" lon="14.193478"><ele>265</ele></trkpt>
<trkpt lat="66.336202" lon="14.193565"><ele>266</ele></trkpt>
<trkpt lat="66.336203" lon="14.19396"><ele>267</ele></trkpt>
<trkpt lat="66.336226" lon="14.194192"><ele>268</ele></trkpt>
<trkpt lat="66.336294" lon="14.194386"><ele>269</ele></trkpt>
<trkpt lat="66.336352" lon="14.194432"><ele>270</ele></trkpt>
<trkpt lat="66.336399" lon="14.194433"><ele>270</ele></trkpt>
<trkpt lat="66.336426" lon="14.194422"><ele>270</ele></trkpt>
<trkpt lat="66.336485" lon="14.194235"><ele>272</ele></trkpt>
<trkpt lat="66.336658" lon="14.193394"><ele>277</ele></trkpt>
<trkpt lat="66.33673" lon="14.193186"><ele>279</ele></trkpt>
<trkpt lat="66.336909" lon="14.192792"><ele>282</ele></trkpt>
<trkpt lat="66.337055" lon="14.192176"><ele>285</ele></trkpt>
<trkpt lat="66.337134" lon="14.191993"><ele>285</ele></trkpt>
<trkpt lat="66.33718" lon="14.19195"><ele>285</ele></trkpt>
<trkpt lat="66.337227" lon="14.191942"><ele>286</ele></trkpt>
<trkpt lat="66.337266" lon="14.191954"><ele>286</ele></trkpt>
<trkpt lat="66.337322" lon="14.192019"><ele>286</ele></trkpt>
<trkpt lat="66.337366" lon="14.192157"><ele>286</ele></trkpt>
<trkpt lat="66.337431" lon="14.19253"><ele>286</ele></trkpt>
<trkpt lat="66.337532" lon="14.19292"><ele>285</ele></trkpt>
<trkpt lat="66.337615" lon="14.193437"><ele>283</ele></trkpt>
<trkpt lat="66.337617" lon="14.193925"><ele>283</ele></trkpt>
<trkpt lat="66.337569" lon="14.195327"><ele>287</ele></trkpt>
<trkpt lat="66.337606" lon="14.195758"><ele>289</ele></trkpt>
<trkpt lat="66.337638" lon="14.195954"><ele>290</ele></trkpt>
<trkpt lat="66.337674" lon="14.196125"><ele>291</ele></trkpt>
<trkpt lat="66.337834" lon="14.196663"><ele>294</ele></trkpt>
<trkpt lat="66.337832" lon="14.197051"><ele>295</ele></trkpt>
<trkpt lat="66.337879" lon="14.197788"><ele>297</ele></trkpt>
<trkpt lat="66.337867" lon="14.19819"><ele>299</ele></trkpt>
<trkpt lat="66.337814" lon="14.198466"><ele>300</ele></trkpt>
<trkpt lat="66.337787" lon="14.198508"><ele>300</ele></trkpt>
<trkpt lat="66.337714" lon="14.198741"><ele>301</ele></trkpt>
<trkpt lat="66.337578" lon="14.199083"><ele>303</ele></trkpt>
<trkpt lat="66.337541" lon="14.199247"><ele>304</ele></trkpt>
<trkpt lat="66.337529" lon="14.199407"><ele>304</ele></trkpt>
<trkpt lat="66.337558" lon="14.200619"><ele>310</ele></trkpt>
<trkpt lat="66.337501" lon="14.20149"><ele>315</ele></trkpt>
<trkpt lat="66.337454" lon="14.201818"><ele>316</ele></trkpt>
<trkpt lat="66.337469" lon="14.201957"><ele>317</ele></trkpt>
<trkpt lat="66.337612" lon="14.202579"><ele>318</ele></trkpt>
<trkpt lat="66.337629" lon="14.202712"><ele>318</ele></trkpt>
<trkpt lat="66.337646" lon="14.203015"><ele>318</ele></trkpt>
<trkpt lat="66.337632" lon="14.203333"><ele>318</ele></trkpt>
<trkpt lat="66.337574" lon="14.203525"><ele>318</ele></trkpt>
<trkpt lat="66.33753" lon="14.203579"><ele>318</ele></trkpt>
<trkpt lat="66.337438" lon="14.203619"><ele>318</ele></trkpt>
<trkpt lat="66.337344" lon="14.20363"><ele>318</ele></trkpt>
<trkpt lat="66.337294" lon="14.203588"><ele>319</ele></trkpt>
<trkpt lat="66.337177" lon="14.203665"><ele>319</ele></trkpt>
<trkpt lat="66.337113" lon="14.20375"><ele>319</ele></trkpt>
<trkpt lat="66.33692" lon="14.204239"><ele>322</ele></trkpt>
<trkpt lat="66.336881" lon="14.204371"><ele>323</ele></trkpt>
<trkpt lat="66.336854" lon="14.204625"><ele>325</ele></trkpt>
<trkpt lat="66.336867" lon="14.204914"><ele>327</ele></trkpt>
<trkpt lat="66.336855" lon="14.205334"><ele>331</ele></trkpt>
<trkpt lat="66.336878" lon="14.205891"><ele>333</ele></trkpt>
<trkpt lat="66.336918" lon="14.206262"><ele>335</ele></trkpt>
<trkpt lat="66.336935" lon="14.2066"><ele>336</ele></trkpt>
<trkpt lat="66.336896" lon="14.207197"><ele>339</ele></trkpt>
<trkpt lat="66.336903" lon="14.207341"><ele>340</ele></trkpt>
<trkpt lat="66.336878" lon="14.207423"><ele>340</ele></trkpt>
<trkpt lat="66.336835" lon="14.207889"><ele>344</ele></trkpt>
<trkpt lat="66.336816" lon="14.208357"><ele>347</ele></trkpt>
<trkpt lat="66.336768" lon="14.208811"><ele>351</ele></trkpt>
<trkpt lat="66.336754" lon="14.209414"><ele>354</ele></trkpt>
<trkpt lat="66.336718" lon="14.209673"><ele>355</ele></trkpt>
<trkpt lat="66.336712" lon="14.209849"><ele>356</ele></trkpt>
<trkpt lat="66.336738" lon="14.210368"><ele>358</ele></trkpt>
<trkpt lat="66.3368" lon="14.210946"><ele>359</ele></trkpt>
<trkpt lat="66.336809" lon="14.211282"><ele>360</ele></trkpt>
<trkpt lat="66.336839" lon="14.211511"><ele>360</ele></trkpt>
<trkpt lat="66.336856" lon="14.211955"><ele>360</ele></trkpt>
<trkpt lat="66.336902" lon="14.212467"><ele>360</ele></trkpt>
<trkpt lat="66.336935" lon="14.213451"><ele>360</ele></trkpt>
<trkpt lat="66.336928" lon="14.213593"><ele>360</ele></trkpt>
<trkpt lat="66.336852" lon="14.214139"><ele>361</ele></trkpt>
<trkpt lat="66.336866" lon="14.21452"><ele>363</ele></trkpt>
<trkpt lat="66.336852" lon="14.21499"><ele>364</ele></trkpt>
<trkpt lat="66.33681" lon="14.215421"><ele>365</ele></trkpt>
<trkpt lat="66.336794" lon="14.215772"><ele>366</ele></trkpt>
<trkpt lat="66.336831" lon="14.216548"><ele>369</ele></trkpt>
<trkpt lat="66.336897" lon="14.217131"><ele>371</ele></trkpt>
<trkpt lat="66.336986" lon="14.217616"><ele>372</ele></trkpt>
<trkpt lat="66.337013" lon="14.217885"><ele>372</ele></trkpt>
<trkpt lat="66.337105" lon="14.218208"><ele>373</ele></trkpt>
<trkpt lat="66.337178" lon="14.218325"><ele>373</ele></trkpt>
<trkpt lat="66.337333" lon="14.218484"><ele>373</ele></trkpt>
<trkpt lat="66.337363" lon="14.218506"><ele>373</ele></trkpt>
<trkpt lat="66.337562" lon="14.218538"><ele>374</ele></trkpt>
<trkpt lat="66.337644" lon="14.218571"><ele>374</ele></trkpt>
<trkpt lat="66.337712" lon="14.218625"><ele>375</ele></trkpt>
<trkpt lat="66.337836" lon="14.218808"><ele>376</ele></trkpt>
<trkpt lat="66.337882" lon="14.218786"><ele>376</ele></trkpt>
<trkpt lat="66.337916" lon="14.218698"><ele>377</ele></trkpt>
<trkpt lat="66.337941" lon="14.218519"><ele>378</ele></trkpt>
<trkpt lat="66.338" lon="14.218398"><ele>379</ele></trkpt>
<trkpt lat="66.338054" lon="14.218084"><ele>381</ele></trkpt>
<trkpt lat="66.338053" lon="14.217875"><ele>382</ele></trkpt>
<trkpt lat="66.338089" lon="14.217468"><ele>383</ele></trkpt>
<trkpt lat="66.338224" lon="14.217085"><ele>385</ele></trkpt>
<trkpt lat="66.338362" lon="14.216816"><ele>387</ele></trkpt>
<trkpt lat="66.338452" lon="14.216595"><ele>388</ele></trkpt>
<trkpt lat="66.33848" lon="14.216459"><ele>388</ele></trkpt>
<trkpt lat="66.338541" lon="14.215879"><ele>390</ele></trkpt>
<trkpt lat="66.338587" lon="14.215675"><ele>391</ele></trkpt>
<trkpt lat="66.338634" lon="14.215572"><ele>391</ele></trkpt>
<trkpt lat="66.33866" lon="14.215551"><ele>391</ele></trkpt>
<trkpt lat="66.338691" lon="14.21555"><ele>392</ele></trkpt>
<trkpt lat="66.338761" lon="14.215582"><ele>392</ele></trkpt>
<trkpt lat="66.338834" lon="14.215572"><ele>392</ele></trkpt>
<trkpt lat="66.339003" lon="14.215219"><ele>394</ele></trkpt>
<trkpt lat="66.339091" lon="14.215147"><ele>395</ele></trkpt>
<trkpt lat="66.339238" lon="14.215079"><ele>396</ele></trkpt>
<trkpt lat="66.339277" lon="14.215045"><ele>396</ele></trkpt>
<trkpt lat="66.339325" lon="14.214897"><ele>396</ele></trkpt>
<trkpt lat="66.339341" lon="14.214562"><ele>396</ele></trkpt>
<trkpt lat="66.339363" lon="14.21446"><ele>396</ele></trkpt>
<trkpt lat="66.339392" lon="14.214355"><ele>396</ele></trkpt>
<trkpt lat="66.33945" lon="14.214302"><ele>397</ele></trkpt>
<trkpt lat="66.339508" lon="14.214334"><ele>397</ele></trkpt>
<trkpt lat="66.339539" lon="14.214375"><ele>397</ele></trkpt>
<trkpt lat="66.339536" lon="14.21498"><ele>398</ele></trkpt>
<trkpt lat="66.339632" lon="14.215421"><ele>400</ele></trkpt>
<trkpt lat="66.339734" lon="14.216127"><ele>404</ele></trkpt>
<trkpt lat="66.339904" lon="14.216866"><ele>408</ele></trkpt>
<trkpt lat="66.339962" lon="14.216977"><ele>408</ele></trkpt>
<trkpt lat="66.339988" lon="14.216998"><ele>409</ele></trkpt>
<trkpt lat="66.340027" lon="14.216962"><ele>409</ele></trkpt>
</trkseg>
</trk>
</gpx>
