<?xml version="1.0" encoding="utf-8"?>
<gpx version="1.1" creator="Trailguide" xmlns="http://www.topografix.com/GPX/1/1" xmlns:xsi="http://www.w3.org/2001/XMLSchema-instance" xmlns:gpxtpx="http://www.garmin.com/xmlschemas/TrackPointExtension/v1" xsi:schemaLocation="http://www.topografix.com/GPX/1/1 http://www.topografix.com/GPX/1/1/gpx.xsd http://www.cluetrust.com/XML/GPXDATA/1/0 http://www.cluetrust.com/Schemas/gpxdata10.xsd http://www.garmin.com/xmlschemas/TrackPointExtension/v1 http://www.garmin.com/xmlschemas/TrackPointExtensionv1.xsd" xmlns:gpxdata="http://www.cluetrust.com/XML/GPXDATA/1/0">
<metadata>
<name>Tindan</name>
<author><name>Andreas Bjørnådal</name></author>
<copyright author="Trailguide"><year>2023</year></copyright>
<keywords>trail,red</keywords>
</metadata>
<trk>
<name>Tindan</name>
<trkseg><trkpt lat="66.26102" lon="14.027053"><ele>646</ele></trkpt>
<trkpt lat="66.261065" lon="14.027024"><ele>646</ele></trkpt>
<trkpt lat="66.261044" lon="14.027072"><ele>646</ele></trkpt>
<trkpt lat="66.261026" lon="14.027053"><ele>646</ele></trkpt>
<trkpt lat="66.261067" lon="14.027"><ele>645</ele></trkpt>
<trkpt lat="66.261046" lon="14.027106"><ele>646</ele></trkpt>
<trkpt lat="66.26103" lon="14.0271"><ele>646</ele></trkpt>
<trkpt lat="66.261041" lon="14.02704"><ele>646</ele></trkpt>
<trkpt lat="66.26103" lon="14.02707"><ele>647</ele></trkpt>
<trkpt lat="66.261035" lon="14.027049"><ele>644</ele></trkpt>
<trkpt lat="66.261112" lon="14.026925"><ele>639</ele></trkpt>
<trkpt lat="66.261096" lon="14.026644"><ele>632</ele></trkpt>
<trkpt lat="66.261229" lon="14.026212"><ele>622</ele></trkpt>
<trkpt lat="66.261245" lon="14.026099"><ele>620</ele></trkpt>
<trkpt lat="66.261491" lon="14.025646"><ele>610</ele></trkpt>
<trkpt lat="66.261538" lon="14.025619"><ele>609</ele></trkpt>
<trkpt lat="66.261543" lon="14.025629"><ele>609</ele></trkpt>
<trkpt lat="66.261527" lon="14.025555"><ele>609</ele></trkpt>
<trkpt lat="66.261475" lon="14.025444"><ele>609</ele></trkpt>
<trkpt lat="66.261484" lon="14.025527"><ele>609</ele></trkpt>
<trkpt lat="66.261499" lon="14.02553"><ele>609</ele></trkpt>
<trkpt lat="66.261515" lon="14.025475"><ele>609</ele></trkpt>
<trkpt lat="66.261499" lon="14.02558"><ele>609</ele></trkpt>
<trkpt lat="66.261501" lon="14.025537"><ele>610</ele></trkpt>
<trkpt lat="66.261503" lon="14.025554"><ele>610</ele></trkpt>
<trkpt lat="66.261538" lon="14.025495"><ele>608</ele></trkpt>
<trkpt lat="66.26153" lon="14.02531"><ele>607</ele></trkpt>
<trkpt lat="66.261584" lon="14.025119"><ele>606</ele></trkpt>
<trkpt lat="66.261583" lon="14.024982"><ele>605</ele></trkpt>
<trkpt lat="66.26162" lon="14.024817"><ele>604</ele></trkpt>
<trkpt lat="66.261586" lon="14.024501"><ele>604</ele></trkpt>
<trkpt lat="66.261554" lon="14.024383"><ele>604</ele></trkpt>
<trkpt lat="66.261498" lon="14.02427"><ele>602</ele></trkpt>
<trkpt lat="66.261445" lon="14.023965"><ele>601</ele></trkpt>
<trkpt lat="66.261442" lon="14.023862"><ele>601</ele></trkpt>
<trkpt lat="66.261462" lon="14.023801"><ele>600</ele></trkpt>
<trkpt lat="66.261453" lon="14.023807"><ele>600</ele></trkpt>
<trkpt lat="66.261441" lon="14.023652"><ele>599</ele></trkpt>
<trkpt lat="66.261453" lon="14.023179"><ele>596</ele></trkpt>
<trkpt lat="66.26153" lon="14.022594"><ele>592</ele></trkpt>
<trkpt lat="66.26154" lon="14.022317"><ele>589</ele></trkpt>
<trkpt lat="66.261577" lon="14.022144"><ele>587</ele></trkpt>
<trkpt lat="66.261583" lon="14.021982"><ele>587</ele></trkpt>
<trkpt lat="66.261623" lon="14.021896"><ele>586</ele></trkpt>
<trkpt lat="66.261626" lon="14.021906"><ele>587</ele></trkpt>
<trkpt lat="66.261651" lon="14.021892"><ele>587</ele></trkpt>
<trkpt lat="66.261681" lon="14.02191"><ele>588</ele></trkpt>
<trkpt lat="66.261676" lon="14.021929"><ele>589</ele></trkpt>
<trkpt lat="66.261653" lon="14.021871"><ele>587</ele></trkpt>
<trkpt lat="66.26165" lon="14.021778"><ele>586</ele></trkpt>
<trkpt lat="66.261745" lon="14.021601"><ele>584</ele></trkpt>
<trkpt lat="66.261771" lon="14.021458"><ele>582</ele></trkpt>
<trkpt lat="66.261782" lon="14.021201"><ele>578</ele></trkpt>
<trkpt lat="66.261748" lon="14.020926"><ele>573</ele></trkpt>
<trkpt lat="66.261762" lon="14.020819"><ele>573</ele></trkpt>
<trkpt lat="66.26184" lon="14.020554"><ele>571</ele></trkpt>
<trkpt lat="66.261797" lon="14.02035"><ele>568</ele></trkpt>
<trkpt lat="66.261793" lon="14.020279"><ele>568</ele></trkpt>
<trkpt lat="66.26182" lon="14.020081"><ele>566</ele></trkpt>
<trkpt lat="66.261764" lon="14.019655"><ele>559</ele></trkpt>
<trkpt lat="66.261779" lon="14.019511"><ele>558</ele></trkpt>
<trkpt lat="66.261733" lon="14.019411"><ele>557</ele></trkpt>
<trkpt lat="66.261707" lon="14.019298"><ele>556</ele></trkpt>
<trkpt lat="66.26162" lon="14.018714"><ele>551</ele></trkpt>
<trkpt lat="66.261636" lon="14.018577"><ele>549</ele></trkpt>
<trkpt lat="66.26172" lon="14.018295"><ele>546</ele></trkpt>
<trkpt lat="66.261817" lon="14.018119"><ele>545</ele></trkpt>
<trkpt lat="66.261876" lon="14.018099"><ele>544</ele></trkpt>
<trkpt lat="66.261891" lon="14.018073"><ele>544</ele></trkpt>
<trkpt lat="66.261899" lon="14.018008"><ele>544</ele></trkpt>
<trkpt lat="66.261858" lon="14.017828"><ele>542</ele></trkpt>
<trkpt lat="66.261857" lon="14.017696"><ele>540</ele></trkpt>
<trkpt lat="66.261869" lon="14.017604"><ele>540</ele></trkpt>
<trkpt lat="66.261901" lon="14.017557"><ele>541</ele></trkpt>
<trkpt lat="66.261996" lon="14.017494"><ele>542</ele></trkpt>
<trkpt lat="66.261947" lon="14.01696"><ele>540</ele></trkpt>
<trkpt lat="66.262033" lon="14.016599"><ele>534</ele></trkpt>
<trkpt lat="66.26201" lon="14.01643"><ele>535</ele></trkpt>
<trkpt lat="66.261959" lon="14.016228"><ele>536</ele></trkpt>
<trkpt lat="66.261891" lon="14.016107"><ele>537</ele></trkpt>
<trkpt lat="66.261835" lon="14.015901"><ele>534</ele></trkpt>
<trkpt lat="66.261865" lon="14.015859"><ele>533</ele></trkpt>
<trkpt lat="66.261895" lon="14.015867"><ele>534</ele></trkpt>
<trkpt lat="66.261902" lon="14.01589"><ele>534</ele></trkpt>
<trkpt lat="66.261919" lon="14.015875"><ele>535</ele></trkpt>
<trkpt lat="66.261843" lon="14.015569"><ele>537</ele></trkpt>
<trkpt lat="66.261779" lon="14.015474"><ele>539</ele></trkpt>
<trkpt lat="66.261722" lon="14.015185"><ele>542</ele></trkpt>
<trkpt lat="66.261718" lon="14.01503"><ele>542</ele></trkpt>
<trkpt lat="66.261675" lon="14.014858"><ele>540</ele></trkpt>
<trkpt lat="66.261661" lon="14.014672"><ele>538</ele></trkpt>
<trkpt lat="66.261674" lon="14.014492"><ele>536</ele></trkpt>
<trkpt lat="66.261659" lon="14.014352"><ele>535</ele></trkpt>
<trkpt lat="66.261734" lon="14.013782"><ele>529</ele></trkpt>
<trkpt lat="66.261859" lon="14.013477"><ele>524</ele></trkpt>
<trkpt lat="66.26188" lon="14.01328"><ele>522</ele></trkpt>
<trkpt lat="66.261953" lon="14.012886"><ele>518</ele></trkpt>
<trkpt lat="66.261954" lon="14.012701"><ele>517</ele></trkpt>
<trkpt lat="66.262067" lon="14.012417"><ele>517</ele></trkpt>
<trkpt lat="66.262024" lon="14.011978"><ele>518</ele></trkpt>
<trkpt lat="66.262036" lon="14.011628"><ele>517</ele></trkpt>
<trkpt lat="66.261967" lon="14.011325"><ele>516</ele></trkpt>
<trkpt lat="66.26197" lon="14.010805"><ele>514</ele></trkpt>
<trkpt lat="66.262051" lon="14.010397"><ele>512</ele></trkpt>
<trkpt lat="66.262012" lon="14.010214"><ele>509</ele></trkpt>
<trkpt lat="66.262027" lon="14.010061"><ele>507</ele></trkpt>
<trkpt lat="66.262156" lon="14.009423"><ele>501</ele></trkpt>
<trkpt lat="66.262255" lon="14.009214"><ele>500</ele></trkpt>
<trkpt lat="66.262391" lon="14.009132"><ele>498</ele></trkpt>
<trkpt lat="66.262424" lon="14.00909"><ele>497</ele></trkpt>
<trkpt lat="66.262484" lon="14.008799"><ele>495</ele></trkpt>
<trkpt lat="66.26248" lon="14.008714"><ele>495</ele></trkpt>
<trkpt lat="66.262445" lon="14.008592"><ele>496</ele></trkpt>
<trkpt lat="66.26241" lon="14.008544"><ele>496</ele></trkpt>
<trkpt lat="66.262339" lon="14.008512"><ele>497</ele></trkpt>
<trkpt lat="66.262351" lon="14.008514"><ele>497</ele></trkpt>
<trkpt lat="66.262356" lon="14.008466"><ele>497</ele></trkpt>
<trkpt lat="66.262343" lon="14.008213"><ele>497</ele></trkpt>
<trkpt lat="66.262292" lon="14.007746"><ele>494</ele></trkpt>
<trkpt lat="66.262206" lon="14.007614"><ele>493</ele></trkpt>
<trkpt lat="66.262157" lon="14.007384"><ele>492</ele></trkpt>
<trkpt lat="66.26212" lon="14.007312"><ele>492</ele></trkpt>
<trkpt lat="66.262076" lon="14.00728"><ele>491</ele></trkpt>
<trkpt lat="66.262048" lon="14.007234"><ele>490</ele></trkpt>
<trkpt lat="66.261872" lon="14.006772"><ele>484</ele></trkpt>
<trkpt lat="66.261825" lon="14.006404"><ele>478</ele></trkpt>
<trkpt lat="66.26182" lon="14.006193"><ele>475</ele></trkpt>
<trkpt lat="66.261831" lon="14.006174"><ele>475</ele></trkpt>
<trkpt lat="66.261811" lon="14.006116"><ele>474</ele></trkpt>
<trkpt lat="66.261782" lon="14.006082"><ele>474</ele></trkpt>
<trkpt lat="66.261752" lon="14.006078"><ele>474</ele></trkpt>
<trkpt lat="66.261742" lon="14.006043"><ele>474</ele></trkpt>
<trkpt lat="66.261736" lon="14.005885"><ele>473</ele></trkpt>
<trkpt lat="66.261752" lon="14.005706"><ele>472</ele></trkpt>
<trkpt lat="66.261723" lon="14.00551"><ele>470</ele></trkpt>
<trkpt lat="66.26175" lon="14.005354"><ele>468</ele></trkpt>
<trkpt lat="66.261743" lon="14.005308"><ele>467</ele></trkpt>
<trkpt lat="66.261688" lon="14.005204"><ele>468</ele></trkpt>
<trkpt lat="66.261609" lon="14.004571"><ele>473</ele></trkpt>
<trkpt lat="66.261654" lon="14.004515"><ele>473</ele></trkpt>
<trkpt lat="66.261657" lon="14.004465"><ele>473</ele></trkpt>
<trkpt lat="66.26154" lon="14.004318"><ele>470</ele></trkpt>
<trkpt lat="66.2615" lon="14.004038"><ele>470</ele></trkpt>
<trkpt lat="66.261578" lon="14.003665"><ele>472</ele></trkpt>
<trkpt lat="66.261556" lon="14.003207"><ele>476</ele></trkpt>
<trkpt lat="66.261457" lon="14.002863"><ele>476</ele></trkpt>
<trkpt lat="66.261446" lon="14.00264"><ele>476</ele></trkpt>
<trkpt lat="66.261319" lon="14.002073"><ele>479</ele></trkpt>
<trkpt lat="66.261316" lon="14.00198"><ele>480</ele></trkpt>
<trkpt lat="66.261285" lon="14.00195"><ele>480</ele></trkpt>
<trkpt lat="66.261322" lon="14.002093"><ele>478</ele></trkpt>
<trkpt lat="66.261333" lon="14.002383"><ele>477</ele></trkpt>
<trkpt lat="66.261311" lon="14.00235"><ele>477</ele></trkpt>
<trkpt lat="66.261329" lon="14.002311"><ele>477</ele></trkpt>
<trkpt lat="66.261454" lon="14.002339"><ele>478</ele></trkpt>
<trkpt lat="66.2615" lon="14.002314"><ele>479</ele></trkpt>
<trkpt lat="66.261588" lon="14.002167"><ele>481</ele></trkpt>
<trkpt lat="66.261603" lon="14.002062"><ele>481</ele></trkpt>
<trkpt lat="66.261617" lon="14.002075"><ele>481</ele></trkpt>
<trkpt lat="66.261639" lon="14.002025"><ele>480</ele></trkpt>
<trkpt lat="66.261664" lon="14.001953"><ele>479</ele></trkpt>
<trkpt lat="66.26167" lon="14.001858"><ele>478</ele></trkpt>
<trkpt lat="66.261612" lon="14.001488"><ele>475</ele></trkpt>
<trkpt lat="66.261647" lon="14.001114"><ele>470</ele></trkpt>
<trkpt lat="66.261669" lon="14.001088"><ele>469</ele></trkpt>
<trkpt lat="66.261699" lon="14.00114"><ele>468</ele></trkpt>
<trkpt lat="66.26173" lon="14.001159"><ele>468</ele></trkpt>
<trkpt lat="66.261757" lon="14.001159"><ele>466</ele></trkpt>
<trkpt lat="66.261778" lon="14.001115"><ele>466</ele></trkpt>
<trkpt lat="66.261775" lon="14.00099"><ele>466</ele></trkpt>
<trkpt lat="66.261731" lon="14.00086"><ele>465</ele></trkpt>
<trkpt lat="66.261703" lon="14.000685"><ele>465</ele></trkpt>
<trkpt lat="66.261719" lon="14.000716"><ele>464</ele></trkpt>
<trkpt lat="66.261721" lon="14.000657"><ele>463</ele></trkpt>
<trkpt lat="66.261693" lon="14.000548"><ele>461</ele></trkpt>
<trkpt lat="66.261678" lon="14.000567"><ele>461</ele></trkpt>
<trkpt lat="66.261632" lon="14.000499"><ele>459</ele></trkpt>
<trkpt lat="66.261622" lon="14.00044"><ele>458</ele></trkpt>
<trkpt lat="66.261705" lon="13.999921"><ele>451</ele></trkpt>
<trkpt lat="66.261767" lon="13.999707"><ele>450</ele></trkpt>
<trkpt lat="66.261769" lon="13.999637"><ele>450</ele></trkpt>
<trkpt lat="66.261746" lon="13.999588"><ele>450</ele></trkpt>
<trkpt lat="66.261741" lon="13.999599"><ele>450</ele></trkpt>
<trkpt lat="66.261715" lon="13.999564"><ele>450</ele></trkpt>
<trkpt lat="66.261691" lon="13.999478"><ele>448</ele></trkpt>
<trkpt lat="66.261707" lon="13.999229"><ele>447</ele></trkpt>
<trkpt lat="66.261731" lon="13.999123"><ele>446</ele></trkpt>
<trkpt lat="66.261666" lon="13.999006"><ele>443</ele></trkpt>
<trkpt lat="66.261679" lon="13.998962"><ele>443</ele></trkpt>
<trkpt lat="66.261727" lon="13.999008"><ele>442</ele></trkpt>
<trkpt lat="66.261743" lon="13.998951"><ele>441</ele></trkpt>
<trkpt lat="66.261655" lon="13.998482"><ele>436</ele></trkpt>
<trkpt lat="66.261664" lon="13.998247"><ele>439</ele></trkpt>
<trkpt lat="66.261684" lon="13.998169"><ele>439</ele></trkpt>
<trkpt lat="66.261746" lon="13.998094"><ele>439</ele></trkpt>
<trkpt lat="66.261766" lon="13.998096"><ele>439</ele></trkpt>
<trkpt lat="66.261747" lon="13.998148"><ele>439</ele></trkpt>
<trkpt lat="66.261777" lon="13.998153"><ele>438</ele></trkpt>
<trkpt lat="66.261805" lon="13.998091"><ele>435</ele></trkpt>
<trkpt lat="66.261811" lon="13.998106"><ele>434</ele></trkpt>
<trkpt lat="66.261805" lon="13.998079"><ele>435</ele></trkpt>
<trkpt lat="66.261836" lon="13.99816"><ele>433</ele></trkpt>
<trkpt lat="66.261813" lon="13.997965"><ele>429</ele></trkpt>
<trkpt lat="66.26176" lon="13.997821"><ele>429</ele></trkpt>
<trkpt lat="66.261743" lon="13.997844"><ele>429</ele></trkpt>
<trkpt lat="66.261768" lon="13.997853"><ele>429</ele></trkpt>
<trkpt lat="66.261735" lon="13.997685"><ele>428</ele></trkpt>
<trkpt lat="66.261698" lon="13.997609"><ele>426</ele></trkpt>
<trkpt lat="66.261704" lon="13.997543"><ele>425</ele></trkpt>
<trkpt lat="66.261684" lon="13.997552"><ele>424</ele></trkpt>
<trkpt lat="66.261611" lon="13.997505"><ele>423</ele></trkpt>
<trkpt lat="66.26157" lon="13.997409"><ele>423</ele></trkpt>
<trkpt lat="66.26155" lon="13.997425"><ele>419</ele></trkpt>
<trkpt lat="66.261558" lon="13.997444"><ele>419</ele></trkpt>
<trkpt lat="66.261583" lon="13.997381"><ele>418</ele></trkpt>
<trkpt lat="66.261569" lon="13.997292"><ele>416</ele></trkpt>
<trkpt lat="66.261547" lon="13.99729"><ele>417</ele></trkpt>
<trkpt lat="66.261518" lon="13.997242"><ele>416</ele></trkpt>
<trkpt lat="66.261472" lon="13.997238"><ele>415</ele></trkpt>
<trkpt lat="66.261442" lon="13.997312"><ele>414</ele></trkpt>
<trkpt lat="66.261447" lon="13.997188"><ele>411</ele></trkpt>
<trkpt lat="66.261428" lon="13.997213"><ele>410</ele></trkpt>
<trkpt lat="66.261383" lon="13.997197"><ele>408</ele></trkpt>
<trkpt lat="66.261353" lon="13.99715"><ele>407</ele></trkpt>
<trkpt lat="66.261282" lon="13.99711"><ele>406</ele></trkpt>
<trkpt lat="66.261234" lon="13.996998"><ele>405</ele></trkpt>
<trkpt lat="66.261133" lon="13.996927"><ele>403</ele></trkpt>
<trkpt lat="66.261098" lon="13.996872"><ele>402</ele></trkpt>
<trkpt lat="66.261042" lon="13.99684"><ele>401</ele></trkpt>
<trkpt lat="66.260996" lon="13.996758"><ele>400</ele></trkpt>
<trkpt lat="66.261003" lon="13.996736"><ele>400</ele></trkpt>
<trkpt lat="66.260974" lon="13.996613"><ele>398</ele></trkpt>
<trkpt lat="66.260903" lon="13.996435"><ele>394</ele></trkpt>
<trkpt lat="66.260854" lon="13.996386"><ele>392</ele></trkpt>
<trkpt lat="66.260822" lon="13.996418"><ele>391</ele></trkpt>
<trkpt lat="66.260815" lon="13.996392"><ele>390</ele></trkpt>
<trkpt lat="66.260779" lon="13.996376"><ele>388</ele></trkpt>
<trkpt lat="66.260784" lon="13.996189"><ele>385</ele></trkpt>
<trkpt lat="66.260809" lon="13.996139"><ele>384</ele></trkpt>
<trkpt lat="66.260823" lon="13.996008"><ele>383</ele></trkpt>
<trkpt lat="66.260738" lon="13.995712"><ele>380</ele></trkpt>
<trkpt lat="66.260698" lon="13.995638"><ele>379</ele></trkpt>
<trkpt lat="66.260643" lon="13.995418"><ele>374</ele></trkpt>
<trkpt lat="66.260559" lon="13.994785"><ele>371</ele></trkpt>
<trkpt lat="66.260585" lon="13.994289"><ele>365</ele></trkpt>
<trkpt lat="66.260577" lon="13.99412"><ele>364</ele></trkpt>
<trkpt lat="66.260554" lon="13.994037"><ele>364</ele></trkpt>
<trkpt lat="66.260542" lon="13.994044"><ele>364</ele></trkpt>
<trkpt lat="66.260581" lon="13.993814"><ele>361</ele></trkpt>
<trkpt lat="66.260586" lon="13.993519"><ele>360</ele></trkpt>
<trkpt lat="66.260564" lon="13.9935"><ele>359</ele></trkpt>
<trkpt lat="66.2606" lon="13.993312"><ele>355</ele></trkpt>
<trkpt lat="66.260589" lon="13.993007"><ele>351</ele></trkpt>
<trkpt lat="66.260534" lon="13.992773"><ele>348</ele></trkpt>
<trkpt lat="66.260424" lon="13.992511"><ele>345</ele></trkpt>
<trkpt lat="66.260355" lon="13.991981"><ele>343</ele></trkpt>
<trkpt lat="66.260297" lon="13.991812"><ele>343</ele></trkpt>
<trkpt lat="66.260236" lon="13.991556"><ele>343</ele></trkpt>
<trkpt lat="66.260236" lon="13.991032"><ele>342</ele></trkpt>
<trkpt lat="66.260187" lon="13.990704"><ele>340</ele></trkpt>
<trkpt lat="66.260119" lon="13.990478"><ele>339</ele></trkpt>
<trkpt lat="66.260059" lon="13.990169"><ele>337</ele></trkpt>
<trkpt lat="66.260022" lon="13.9897"><ele>334</ele></trkpt>
<trkpt lat="66.259986" lon="13.989636"><ele>333</ele></trkpt>
<trkpt lat="66.25987" lon="13.9893"><ele>326</ele></trkpt>
<trkpt lat="66.259839" lon="13.989278"><ele>325</ele></trkpt>
<trkpt lat="66.259822" lon="13.989287"><ele>324</ele></trkpt>
<trkpt lat="66.259738" lon="13.98892"><ele>321</ele></trkpt>
<trkpt lat="66.259705" lon="13.98839"><ele>315</ele></trkpt>
<trkpt lat="66.259746" lon="13.987922"><ele>310</ele></trkpt>
<trkpt lat="66.259778" lon="13.987811"><ele>309</ele></trkpt>
<trkpt lat="66.259764" lon="13.987796"><ele>309</ele></trkpt>
<trkpt lat="66.259735" lon="13.987799"><ele>309</ele></trkpt>
<trkpt lat="66.259726" lon="13.987768"><ele>308</ele></trkpt>
<trkpt lat="66.25974" lon="13.987595"><ele>306</ele></trkpt>
<trkpt lat="66.259627" lon="13.987447"><ele>302</ele></trkpt>
<trkpt lat="66.25953" lon="13.987404"><ele>301</ele></trkpt>
<trkpt lat="66.259401" lon="13.987457"><ele>297</ele></trkpt>
<trkpt lat="66.25907" lon="13.988013"><ele>284</ele></trkpt>
<trkpt lat="66.259008" lon="13.988074"><ele>284</ele></trkpt>
<trkpt lat="66.258973" lon="13.988051"><ele>284</ele></trkpt>
<trkpt lat="66.258991" lon="13.988069"><ele>284</ele></trkpt>
<trkpt lat="66.259009" lon="13.988059"><ele>284</ele></trkpt>
<trkpt lat="66.259008" lon="13.988074"><ele>284</ele></trkpt>
<trkpt lat="66.258967" lon="13.98803"><ele>284</ele></trkpt>
<trkpt lat="66.258975" lon="13.988023"><ele>284</ele></trkpt>
<trkpt lat="66.258951" lon="13.988025"><ele>284</ele></trkpt>
<trkpt lat="66.258965" lon="13.988116"><ele>284</ele></trkpt>
<trkpt lat="66.258942" lon="13.988155"><ele>284</ele></trkpt>
<trkpt lat="66.258883" lon="13.988186"><ele>282</ele></trkpt>
<trkpt lat="66.258779" lon="13.988318"><ele>278</ele></trkpt>
<trkpt lat="66.258761" lon="13.988316"><ele>278</ele></trkpt>
<trkpt lat="66.258685" lon="13.988389"><ele>275</ele></trkpt>
<trkpt lat="66.258577" lon="13.98857"><ele>271</ele></trkpt>
<trkpt lat="66.25855" lon="13.988699"><ele>265</ele></trkpt>
<trkpt lat="66.258489" lon="13.988764"><ele>261</ele></trkpt>
<trkpt lat="66.25845" lon="13.988778"><ele>261</ele></trkpt>
<trkpt lat="66.258413" lon="13.988713"><ele>261</ele></trkpt>
<trkpt lat="66.258352" lon="13.988838"><ele>261</ele></trkpt>
<trkpt lat="66.25839" lon="13.988895"><ele>261</ele></trkpt>
<trkpt lat="66.258405" lon="13.988952"><ele>261</ele></trkpt>
<trkpt lat="66.258424" lon="13.988946"><ele>261</ele></trkpt>
<trkpt lat="66.258404" lon="13.988946"><ele>261</ele></trkpt>
<trkpt lat="66.258374" lon="13.988893"><ele>261</ele></trkpt>
<trkpt lat="66.258369" lon="13.988907"><ele>261</ele></trkpt>
<trkpt lat="66.258357" lon="13.988879"><ele>261</ele></trkpt>
<trkpt lat="66.258381" lon="13.988855"><ele>260</ele></trkpt>
<trkpt lat="66.258365" lon="13.988868"><ele>260</ele></trkpt>
<trkpt lat="66.258338" lon="13.988846"><ele>258</ele></trkpt>
<trkpt lat="66.25819" lon="13.988653"><ele>253</ele></trkpt>
<trkpt lat="66.258048" lon="13.98859"><ele>248</ele></trkpt>
<trkpt lat="66.25801" lon="13.988608"><ele>247</ele></trkpt>
<trkpt lat="66.257951" lon="13.988673"><ele>243</ele></trkpt>
<trkpt lat="66.257898" lon="13.988693"><ele>241</ele></trkpt>
<trkpt lat="66.257857" lon="13.988758"><ele>239</ele></trkpt>
<trkpt lat="66.257839" lon="13.988754"><ele>239</ele></trkpt>
<trkpt lat="66.257803" lon="13.988638"><ele>238</ele></trkpt>
<trkpt lat="66.257759" lon="13.98833"><ele>236</ele></trkpt>
<trkpt lat="66.25766" lon="13.988043"><ele>234</ele></trkpt>
<trkpt lat="66.257483" lon="13.987773"><ele>231</ele></trkpt>
<trkpt lat="66.257452" lon="13.987679"><ele>230</ele></trkpt>
<trkpt lat="66.257459" lon="13.987597"><ele>228</ele></trkpt>
<trkpt lat="66.257377" lon="13.987518"><ele>225</ele></trkpt>
<trkpt lat="66.257375" lon="13.987479"><ele>224</ele></trkpt>
<trkpt lat="66.257318" lon="13.987357"><ele>223</ele></trkpt>
<trkpt lat="66.257336" lon="13.987343"><ele>223</ele></trkpt>
<trkpt lat="66.257294" lon="13.98733"><ele>222</ele></trkpt>
<trkpt lat="66.257232" lon="13.987391"><ele>220</ele></trkpt>
<trkpt lat="66.257093" lon="13.987177"><ele>214</ele></trkpt>
<trkpt lat="66.256944" lon="13.986729"><ele>210</ele></trkpt>
<trkpt lat="66.256908" lon="13.986518"><ele>207</ele></trkpt>
<trkpt lat="66.256857" lon="13.986461"><ele>205</ele></trkpt>
<trkpt lat="66.256778" lon="13.986444"><ele>204</ele></trkpt>
<trkpt lat="66.256744" lon="13.98626"><ele>200</ele></trkpt>
<trkpt lat="66.256611" lon="13.985925"><ele>193</ele></trkpt>
<trkpt lat="66.256578" lon="13.985581"><ele>190</ele></trkpt>
<trkpt lat="66.256579" lon="13.985398"><ele>189</ele></trkpt>
<trkpt lat="66.256483" lon="13.984699"><ele>181</ele></trkpt>
<trkpt lat="66.256471" lon="13.984203"><ele>175</ele></trkpt>
<trkpt lat="66.256304" lon="13.983553"><ele>166</ele></trkpt>
<trkpt lat="66.256279" lon="13.983546"><ele>165</ele></trkpt>
<trkpt lat="66.256201" lon="13.982959"><ele>155</ele></trkpt>
<trkpt lat="66.256169" lon="13.982833"><ele>154</ele></trkpt>
<trkpt lat="66.25597" lon="13.982816"><ele>148</ele></trkpt>
<trkpt lat="66.255904" lon="13.982845"><ele>145</ele></trkpt>
<trkpt lat="66.255641" lon="13.982624"><ele>137</ele></trkpt>
<trkpt lat="66.255591" lon="13.98253"><ele>135</ele></trkpt>
<trkpt lat="66.255535" lon="13.982334"><ele>132</ele></trkpt>
<trkpt lat="66.255499" lon="13.982029"><ele>128</ele></trkpt>
<trkpt lat="66.255435" lon="13.981798"><ele>125</ele></trkpt>
<trkpt lat="66.255324" lon="13.981565"><ele>119</ele></trkpt>
<trkpt lat="66.255289" lon="13.981533"><ele>118</ele></trkpt>
<trkpt lat="66.255255" lon="13.981533"><ele>117</ele></trkpt>
<trkpt lat="66.255179" lon="13.981564"><ele>114</ele></trkpt>
<trkpt lat="66.255126" lon="13.981609"><ele>113</ele></trkpt>
<trkpt lat="66.255074" lon="13.981622"><ele>112</ele></trkpt>
<trkpt lat="66.254857" lon="13.981953"><ele>103</ele></trkpt>
<trkpt lat="66.254683" lon="13.982182"><ele>97</ele></trkpt>
<trkpt lat="66.254595" lon="13.982335"><ele>95</ele></trkpt>
<trkpt lat="66.254458" lon="13.982787"><ele>91</ele></trkpt>
<trkpt lat="66.254378" lon="13.982983"><ele>89</ele></trkpt>
<trkpt lat="66.254228" lon="13.983236"><ele>87</ele></trkpt>
<trkpt lat="66.254134" lon="13.983532"><ele>83</ele></trkpt>
<trkpt lat="66.253992" lon="13.983722"><ele>81</ele></trkpt>
<trkpt lat="66.253835" lon="13.984005"><ele>78</ele></trkpt>
<trkpt lat="66.253817" lon="13.983987"><ele>78</ele></trkpt>
<trkpt lat="66.253783" lon="13.983791"><ele>76</ele></trkpt>
<trkpt lat="66.253755" lon="13.983387"><ele>74</ele></trkpt>
<trkpt lat="66.253697" lon="13.983103"><ele>72</ele></trkpt>
<trkpt lat="66.253591" lon="13.982857"><ele>69</ele></trkpt>
<trkpt lat="66.253465" lon="13.982672"><ele>67</ele></trkpt>
<trkpt lat="66.253383" lon="13.982583"><ele>67</ele></trkpt>
<trkpt lat="66.253354" lon="13.982595"><ele>67</ele></trkpt>
</trkseg>
</trk>
</gpx>
