<?xml version="1.0" encoding="utf-8"?>
<gpx version="1.1" creator="Trailguide" xmlns="http://www.topografix.com/GPX/1/1" xmlns:xsi="http://www.w3.org/2001/XMLSchema-instance" xmlns:gpxtpx="http://www.garmin.com/xmlschemas/TrackPointExtension/v1" xsi:schemaLocation="http://www.topografix.com/GPX/1/1 http://www.topografix.com/GPX/1/1/gpx.xsd http://www.cluetrust.com/XML/GPXDATA/1/0 http://www.cluetrust.com/Schemas/gpxdata10.xsd http://www.garmin.com/xmlschemas/TrackPointExtension/v1 http://www.garmin.com/xmlschemas/TrackPointExtensionv1.xsd" xmlns:gpxdata="http://www.cluetrust.com/XML/GPXDATA/1/0">
<metadata>
<name>Ytternmarka%20roundtrip</name>
<author><name>Andreas Bjørnådal</name></author>
<copyright author="Trailguide"><year>2021</year></copyright>
<keywords>trail,green</keywords>
</metadata>
<trk>
<name>Ytternmarka%20roundtrip</name>
<trkseg><trkpt lat="66.346245" lon="14.148163"><ele>21</ele></trkpt>
<trkpt lat="66.346158" lon="14.148549"><ele>21</ele></trkpt>
<trkpt lat="66.34613" lon="14.14859"><ele>21</ele></trkpt>
<trkpt lat="66.346066" lon="14.148624"><ele>22</ele></trkpt>
<trkpt lat="66.345989" lon="14.148639"><ele>23</ele></trkpt>
<trkpt lat="66.345875" lon="14.148726"><ele>25</ele></trkpt>
<trkpt lat="66.345815" lon="14.148835"><ele>27</ele></trkpt>
<trkpt lat="66.345645" lon="14.149818"><ele>34</ele></trkpt>
<trkpt lat="66.345595" lon="14.150365"><ele>41</ele></trkpt>
<trkpt lat="66.345608" lon="14.150606"><ele>44</ele></trkpt>
<trkpt lat="66.345663" lon="14.150895"><ele>46</ele></trkpt>
<trkpt lat="66.345853" lon="14.151381"><ele>52</ele></trkpt>
<trkpt lat="66.345908" lon="14.151478"><ele>54</ele></trkpt>
<trkpt lat="66.345941" lon="14.151495"><ele>56</ele></trkpt>
<trkpt lat="66.346026" lon="14.151462"><ele>58</ele></trkpt>
<trkpt lat="66.346149" lon="14.151331"><ele>61</ele></trkpt>
<trkpt lat="66.346287" lon="14.151114"><ele>63</ele></trkpt>
<trkpt lat="66.346486" lon="14.150985"><ele>66</ele></trkpt>
<trkpt lat="66.346611" lon="14.15097"><ele>69</ele></trkpt>
<trkpt lat="66.346674" lon="14.150929"><ele>70</ele></trkpt>
<trkpt lat="66.346726" lon="14.150918"><ele>71</ele></trkpt>
<trkpt lat="66.346788" lon="14.150981"><ele>73</ele></trkpt>
<trkpt lat="66.346827" lon="14.151064"><ele>74</ele></trkpt>
<trkpt lat="66.346859" lon="14.15119"><ele>75</ele></trkpt>
<trkpt lat="66.346911" lon="14.151276"><ele>76</ele></trkpt>
<trkpt lat="66.347023" lon="14.151538"><ele>80</ele></trkpt>
<trkpt lat="66.347134" lon="14.151943"><ele>83</ele></trkpt>
<trkpt lat="66.347247" lon="14.152139"><ele>87</ele></trkpt>
<trkpt lat="66.347272" lon="14.152226"><ele>88</ele></trkpt>
<trkpt lat="66.347344" lon="14.152599"><ele>92</ele></trkpt>
<trkpt lat="66.347454" lon="14.153351"><ele>95</ele></trkpt>
<trkpt lat="66.347546" lon="14.153615"><ele>95</ele></trkpt>
<trkpt lat="66.347659" lon="14.15403"><ele>96</ele></trkpt>
<trkpt lat="66.347886" lon="14.155226"><ele>105</ele></trkpt>
<trkpt lat="66.347937" lon="14.155403"><ele>106</ele></trkpt>
<trkpt lat="66.348018" lon="14.155583"><ele>107</ele></trkpt>
<trkpt lat="66.348211" lon="14.155627"><ele>108</ele></trkpt>
<trkpt lat="66.348413" lon="14.155613"><ele>110</ele></trkpt>
<trkpt lat="66.348594" lon="14.155642"><ele>111</ele></trkpt>
<trkpt lat="66.348862" lon="14.155744"><ele>112</ele></trkpt>
<trkpt lat="66.348911" lon="14.155748"><ele>112</ele></trkpt>
<trkpt lat="66.349008" lon="14.155737"><ele>112</ele></trkpt>
<trkpt lat="66.349111" lon="14.15566"><ele>112</ele></trkpt>
<trkpt lat="66.349328" lon="14.155331"><ele>113</ele></trkpt>
<trkpt lat="66.34936" lon="14.155259"><ele>113</ele></trkpt>
<trkpt lat="66.349591" lon="14.154636"><ele>114</ele></trkpt>
<trkpt lat="66.34964" lon="14.154444"><ele>114</ele></trkpt>
<trkpt lat="66.34971" lon="14.154283"><ele>115</ele></trkpt>
<trkpt lat="66.349794" lon="14.154206"><ele>115</ele></trkpt>
<trkpt lat="66.349927" lon="14.154167"><ele>115</ele></trkpt>
<trkpt lat="66.350205" lon="14.153954"><ele>117</ele></trkpt>
<trkpt lat="66.35032" lon="14.15381"><ele>117</ele></trkpt>
<trkpt lat="66.350468" lon="14.153671"><ele>117</ele></trkpt>
<trkpt lat="66.350717" lon="14.153512"><ele>117</ele></trkpt>
<trkpt lat="66.350822" lon="14.153489"><ele>117</ele></trkpt>
<trkpt lat="66.350944" lon="14.153412"><ele>118</ele></trkpt>
<trkpt lat="66.351232" lon="14.153122"><ele>122</ele></trkpt>
<trkpt lat="66.351355" lon="14.152948"><ele>123</ele></trkpt>
<trkpt lat="66.351518" lon="14.152661"><ele>125</ele></trkpt>
<trkpt lat="66.351569" lon="14.152512"><ele>125</ele></trkpt>
<trkpt lat="66.351692" lon="14.151983"><ele>131</ele></trkpt>
<trkpt lat="66.351942" lon="14.151273"><ele>133</ele></trkpt>
<trkpt lat="66.352039" lon="14.151073"><ele>133</ele></trkpt>
<trkpt lat="66.352119" lon="14.150972"><ele>132</ele></trkpt>
<trkpt lat="66.352291" lon="14.150867"><ele>133</ele></trkpt>
<trkpt lat="66.352426" lon="14.150836"><ele>135</ele></trkpt>
<trkpt lat="66.352655" lon="14.15073"><ele>139</ele></trkpt>
<trkpt lat="66.353071" lon="14.150496"><ele>143</ele></trkpt>
<trkpt lat="66.35326" lon="14.150476"><ele>145</ele></trkpt>
<trkpt lat="66.353462" lon="14.150487"><ele>148</ele></trkpt>
<trkpt lat="66.353618" lon="14.150461"><ele>149</ele></trkpt>
<trkpt lat="66.353731" lon="14.150381"><ele>149</ele></trkpt>
<trkpt lat="66.353962" lon="14.149996"><ele>150</ele></trkpt>
<trkpt lat="66.354161" lon="14.149726"><ele>149</ele></trkpt>
<trkpt lat="66.354482" lon="14.149467"><ele>149</ele></trkpt>
<trkpt lat="66.354589" lon="14.149426"><ele>150</ele></trkpt>
<trkpt lat="66.354778" lon="14.149404"><ele>151</ele></trkpt>
<trkpt lat="66.354915" lon="14.149436"><ele>152</ele></trkpt>
<trkpt lat="66.355187" lon="14.149704"><ele>152</ele></trkpt>
<trkpt lat="66.35529" lon="14.149725"><ele>152</ele></trkpt>
<trkpt lat="66.355506" lon="14.149679"><ele>152</ele></trkpt>
<trkpt lat="66.355644" lon="14.149708"><ele>153</ele></trkpt>
<trkpt lat="66.35607" lon="14.149954"><ele>151</ele></trkpt>
<trkpt lat="66.356825" lon="14.15033"><ele>148</ele></trkpt>
<trkpt lat="66.356984" lon="14.150444"><ele>148</ele></trkpt>
<trkpt lat="66.35751" lon="14.150881"><ele>152</ele></trkpt>
<trkpt lat="66.35765" lon="14.151202"><ele>154</ele></trkpt>
<trkpt lat="66.357765" lon="14.151314"><ele>156</ele></trkpt>
<trkpt lat="66.357807" lon="14.151327"><ele>156</ele></trkpt>
<trkpt lat="66.358145" lon="14.151208"><ele>161</ele></trkpt>
<trkpt lat="66.358215" lon="14.151212"><ele>162</ele></trkpt>
<trkpt lat="66.358407" lon="14.151163"><ele>163</ele></trkpt>
<trkpt lat="66.35863" lon="14.151335"><ele>163</ele></trkpt>
<trkpt lat="66.358757" lon="14.151455"><ele>164</ele></trkpt>
<trkpt lat="66.358868" lon="14.151489"><ele>164</ele></trkpt>
<trkpt lat="66.358976" lon="14.151413"><ele>165</ele></trkpt>
<trkpt lat="66.359065" lon="14.151231"><ele>166</ele></trkpt>
<trkpt lat="66.359107" lon="14.151088"><ele>166</ele></trkpt>
<trkpt lat="66.359255" lon="14.150316"><ele>168</ele></trkpt>
<trkpt lat="66.359375" lon="14.149574"><ele>168</ele></trkpt>
<trkpt lat="66.359493" lon="14.148678"><ele>167</ele></trkpt>
<trkpt lat="66.35966" lon="14.147779"><ele>167</ele></trkpt>
<trkpt lat="66.359676" lon="14.147535"><ele>167</ele></trkpt>
<trkpt lat="66.359668" lon="14.147275"><ele>167</ele></trkpt>
<trkpt lat="66.359549" lon="14.146597"><ele>167</ele></trkpt>
<trkpt lat="66.359531" lon="14.146353"><ele>166</ele></trkpt>
<trkpt lat="66.359466" lon="14.146082"><ele>165</ele></trkpt>
<trkpt lat="66.359356" lon="14.145853"><ele>163</ele></trkpt>
<trkpt lat="66.359126" lon="14.145675"><ele>160</ele></trkpt>
<trkpt lat="66.359049" lon="14.145595"><ele>159</ele></trkpt>
<trkpt lat="66.35898" lon="14.145498"><ele>159</ele></trkpt>
<trkpt lat="66.358813" lon="14.145194"><ele>158</ele></trkpt>
<trkpt lat="66.358502" lon="14.144831"><ele>157</ele></trkpt>
<trkpt lat="66.358455" lon="14.144734"><ele>157</ele></trkpt>
<trkpt lat="66.358373" lon="14.14445"><ele>158</ele></trkpt>
<trkpt lat="66.358335" lon="14.143834"><ele>160</ele></trkpt>
<trkpt lat="66.3583" lon="14.143634"><ele>160</ele></trkpt>
<trkpt lat="66.358264" lon="14.143528"><ele>160</ele></trkpt>
<trkpt lat="66.358054" lon="14.14314"><ele>161</ele></trkpt>
<trkpt lat="66.357976" lon="14.142945"><ele>162</ele></trkpt>
<trkpt lat="66.357939" lon="14.1428"><ele>163</ele></trkpt>
<trkpt lat="66.357903" lon="14.142361"><ele>163</ele></trkpt>
<trkpt lat="66.357863" lon="14.142076"><ele>162</ele></trkpt>
<trkpt lat="66.357605" lon="14.141595"><ele>164</ele></trkpt>
<trkpt lat="66.357502" lon="14.141461"><ele>164</ele></trkpt>
<trkpt lat="66.357283" lon="14.141498"><ele>165</ele></trkpt>
<trkpt lat="66.357238" lon="14.14149"><ele>166</ele></trkpt>
<trkpt lat="66.357164" lon="14.141429"><ele>168</ele></trkpt>
<trkpt lat="66.356896" lon="14.140784"><ele>172</ele></trkpt>
<trkpt lat="66.356887" lon="14.140711"><ele>173</ele></trkpt>
<trkpt lat="66.356602" lon="14.13994"><ele>179</ele></trkpt>
<trkpt lat="66.35635" lon="14.139429"><ele>179</ele></trkpt>
<trkpt lat="66.356291" lon="14.139176"><ele>180</ele></trkpt>
<trkpt lat="66.356312" lon="14.138872"><ele>181</ele></trkpt>
<trkpt lat="66.356633" lon="14.137136"><ele>191</ele></trkpt>
<trkpt lat="66.356729" lon="14.136834"><ele>191</ele></trkpt>
<trkpt lat="66.357004" lon="14.136188"><ele>191</ele></trkpt>
<trkpt lat="66.357139" lon="14.135813"><ele>191</ele></trkpt>
<trkpt lat="66.357238" lon="14.135605"><ele>192</ele></trkpt>
<trkpt lat="66.357309" lon="14.135493"><ele>192</ele></trkpt>
<trkpt lat="66.357362" lon="14.135238"><ele>192</ele></trkpt>
<trkpt lat="66.35736" lon="14.135012"><ele>192</ele></trkpt>
<trkpt lat="66.357282" lon="14.134695"><ele>193</ele></trkpt>
<trkpt lat="66.357128" lon="14.134347"><ele>197</ele></trkpt>
<trkpt lat="66.356885" lon="14.133711"><ele>203</ele></trkpt>
<trkpt lat="66.356756" lon="14.133442"><ele>203</ele></trkpt>
<trkpt lat="66.356533" lon="14.133044"><ele>207</ele></trkpt>
<trkpt lat="66.356456" lon="14.132819"><ele>207</ele></trkpt>
<trkpt lat="66.356441" lon="14.132561"><ele>206</ele></trkpt>
<trkpt lat="66.356453" lon="14.132397"><ele>205</ele></trkpt>
<trkpt lat="66.356515" lon="14.131939"><ele>203</ele></trkpt>
<trkpt lat="66.356619" lon="14.131458"><ele>202</ele></trkpt>
<trkpt lat="66.356635" lon="14.131279"><ele>202</ele></trkpt>
<trkpt lat="66.356629" lon="14.131131"><ele>202</ele></trkpt>
<trkpt lat="66.356608" lon="14.131034"><ele>202</ele></trkpt>
<trkpt lat="66.356541" lon="14.130869"><ele>203</ele></trkpt>
<trkpt lat="66.356494" lon="14.130791"><ele>204</ele></trkpt>
<trkpt lat="66.356237" lon="14.130564"><ele>206</ele></trkpt>
<trkpt lat="66.356067" lon="14.130471"><ele>207</ele></trkpt>
<trkpt lat="66.355975" lon="14.130474"><ele>207</ele></trkpt>
<trkpt lat="66.355856" lon="14.13043"><ele>208</ele></trkpt>
<trkpt lat="66.355666" lon="14.130434"><ele>210</ele></trkpt>
<trkpt lat="66.355278" lon="14.13028"><ele>210</ele></trkpt>
<trkpt lat="66.355135" lon="14.130397"><ele>211</ele></trkpt>
<trkpt lat="66.354859" lon="14.130826"><ele>212</ele></trkpt>
<trkpt lat="66.354623" lon="14.13112"><ele>207</ele></trkpt>
<trkpt lat="66.35401" lon="14.132048"><ele>204</ele></trkpt>
<trkpt lat="66.353879" lon="14.132219"><ele>203</ele></trkpt>
<trkpt lat="66.35374" lon="14.132344"><ele>202</ele></trkpt>
<trkpt lat="66.353535" lon="14.132473"><ele>201</ele></trkpt>
<trkpt lat="66.353404" lon="14.132579"><ele>200</ele></trkpt>
<trkpt lat="66.353262" lon="14.132854"><ele>200</ele></trkpt>
<trkpt lat="66.353158" lon="14.133125"><ele>200</ele></trkpt>
<trkpt lat="66.353065" lon="14.133263"><ele>200</ele></trkpt>
<trkpt lat="66.352861" lon="14.133495"><ele>200</ele></trkpt>
<trkpt lat="66.35269" lon="14.13387"><ele>199</ele></trkpt>
<trkpt lat="66.352622" lon="14.134097"><ele>198</ele></trkpt>
<trkpt lat="66.352603" lon="14.134234"><ele>198</ele></trkpt>
<trkpt lat="66.352558" lon="14.13521"><ele>195</ele></trkpt>
<trkpt lat="66.352515" lon="14.135485"><ele>194</ele></trkpt>
<trkpt lat="66.352391" lon="14.135989"><ele>190</ele></trkpt>
<trkpt lat="66.352363" lon="14.136418"><ele>187</ele></trkpt>
<trkpt lat="66.352308" lon="14.136815"><ele>184</ele></trkpt>
<trkpt lat="66.352306" lon="14.137124"><ele>182</ele></trkpt>
<trkpt lat="66.352326" lon="14.137494"><ele>180</ele></trkpt>
<trkpt lat="66.352311" lon="14.137833"><ele>179</ele></trkpt>
<trkpt lat="66.352221" lon="14.13861"><ele>173</ele></trkpt>
<trkpt lat="66.352151" lon="14.139626"><ele>165</ele></trkpt>
<trkpt lat="66.352118" lon="14.139893"><ele>163</ele></trkpt>
<trkpt lat="66.352088" lon="14.140344"><ele>161</ele></trkpt>
<trkpt lat="66.352075" lon="14.140942"><ele>158</ele></trkpt>
<trkpt lat="66.351981" lon="14.141654"><ele>153</ele></trkpt>
<trkpt lat="66.351803" lon="14.142299"><ele>147</ele></trkpt>
<trkpt lat="66.351754" lon="14.142456"><ele>147</ele></trkpt>
<trkpt lat="66.351475" lon="14.143155"><ele>144</ele></trkpt>
<trkpt lat="66.351347" lon="14.143563"><ele>143</ele></trkpt>
<trkpt lat="66.351248" lon="14.143792"><ele>142</ele></trkpt>
<trkpt lat="66.351187" lon="14.143873"><ele>141</ele></trkpt>
<trkpt lat="66.351046" lon="14.143947"><ele>140</ele></trkpt>
<trkpt lat="66.35084" lon="14.143916"><ele>139</ele></trkpt>
<trkpt lat="66.350709" lon="14.143947"><ele>139</ele></trkpt>
<trkpt lat="66.350463" lon="14.144136"><ele>138</ele></trkpt>
<trkpt lat="66.350343" lon="14.144281"><ele>138</ele></trkpt>
<trkpt lat="66.350293" lon="14.144387"><ele>137</ele></trkpt>
<trkpt lat="66.350226" lon="14.144669"><ele>136</ele></trkpt>
<trkpt lat="66.350173" lon="14.145182"><ele>135</ele></trkpt>
<trkpt lat="66.350132" lon="14.145795"><ele>131</ele></trkpt>
<trkpt lat="66.350154" lon="14.147419"><ele>124</ele></trkpt>
<trkpt lat="66.350113" lon="14.147777"><ele>122</ele></trkpt>
<trkpt lat="66.350024" lon="14.148065"><ele>120</ele></trkpt>
<trkpt lat="66.34997" lon="14.148174"><ele>120</ele></trkpt>
<trkpt lat="66.349903" lon="14.148258"><ele>119</ele></trkpt>
<trkpt lat="66.349681" lon="14.148434"><ele>116</ele></trkpt>
<trkpt lat="66.349621" lon="14.148516"><ele>115</ele></trkpt>
<trkpt lat="66.349248" lon="14.149484"><ele>108</ele></trkpt>
<trkpt lat="66.349178" lon="14.149623"><ele>106</ele></trkpt>
<trkpt lat="66.34903" lon="14.149821"><ele>105</ele></trkpt>
<trkpt lat="66.348866" lon="14.149953"><ele>103</ele></trkpt>
<trkpt lat="66.348374" lon="14.150261"><ele>98</ele></trkpt>
<trkpt lat="66.348313" lon="14.150326"><ele>97</ele></trkpt>
<trkpt lat="66.348259" lon="14.150411"><ele>95</ele></trkpt>
<trkpt lat="66.348208" lon="14.150539"><ele>94</ele></trkpt>
<trkpt lat="66.348053" lon="14.151168"><ele>93</ele></trkpt>
<trkpt lat="66.348019" lon="14.151254"><ele>93</ele></trkpt>
<trkpt lat="66.347984" lon="14.151308"><ele>93</ele></trkpt>
<trkpt lat="66.347535" lon="14.15172"><ele>85</ele></trkpt>
<trkpt lat="66.347474" lon="14.15181"><ele>86</ele></trkpt>
<trkpt lat="66.347355" lon="14.152135"><ele>87</ele></trkpt>
<trkpt lat="66.347322" lon="14.152277"><ele>87</ele></trkpt>
</trkseg>
</trk>
</gpx>
