<?xml version="1.0" encoding="utf-8"?>
<gpx version="1.1" creator="Trailguide" xmlns="http://www.topografix.com/GPX/1/1" xmlns:xsi="http://www.w3.org/2001/XMLSchema-instance" xmlns:gpxtpx="http://www.garmin.com/xmlschemas/TrackPointExtension/v1" xsi:schemaLocation="http://www.topografix.com/GPX/1/1 http://www.topografix.com/GPX/1/1/gpx.xsd http://www.cluetrust.com/XML/GPXDATA/1/0 http://www.cluetrust.com/Schemas/gpxdata10.xsd http://www.garmin.com/xmlschemas/TrackPointExtension/v1 http://www.garmin.com/xmlschemas/TrackPointExtensionv1.xsd" xmlns:gpxdata="http://www.cluetrust.com/XML/GPXDATA/1/0">
<metadata>
<name>Yttrafjellet%20Deluxe</name>
<author><name>Andreas Bjørnådal</name></author>
<copyright author="Trailguide"><year>2021</year></copyright>
<keywords>trail,red</keywords>
</metadata>
<trk>
<name>Yttrafjellet%20Deluxe</name>
<trkseg><trkpt lat="66.355525" lon="14.099996"><ele>279</ele></trkpt>
<trkpt lat="66.355544" lon="14.100281"><ele>277</ele></trkpt>
<trkpt lat="66.355523" lon="14.100633"><ele>274</ele></trkpt>
<trkpt lat="66.355487" lon="14.100675"><ele>274</ele></trkpt>
<trkpt lat="66.355393" lon="14.100882"><ele>271</ele></trkpt>
<trkpt lat="66.355368" lon="14.10097"><ele>270</ele></trkpt>
<trkpt lat="66.355373" lon="14.101082"><ele>268</ele></trkpt>
<trkpt lat="66.355349" lon="14.101179"><ele>267</ele></trkpt>
<trkpt lat="66.355312" lon="14.101217"><ele>267</ele></trkpt>
<trkpt lat="66.355252" lon="14.101335"><ele>265</ele></trkpt>
<trkpt lat="66.355213" lon="14.101368"><ele>265</ele></trkpt>
<trkpt lat="66.355127" lon="14.101607"><ele>261</ele></trkpt>
<trkpt lat="66.355078" lon="14.101638"><ele>261</ele></trkpt>
<trkpt lat="66.355042" lon="14.101709"><ele>259</ele></trkpt>
<trkpt lat="66.354959" lon="14.101764"><ele>259</ele></trkpt>
<trkpt lat="66.354849" lon="14.101927"><ele>257</ele></trkpt>
<trkpt lat="66.354783" lon="14.101971"><ele>257</ele></trkpt>
<trkpt lat="66.354688" lon="14.1021"><ele>256</ele></trkpt>
<trkpt lat="66.354638" lon="14.102082"><ele>255</ele></trkpt>
<trkpt lat="66.354591" lon="14.102116"><ele>255</ele></trkpt>
<trkpt lat="66.354556" lon="14.102199"><ele>253</ele></trkpt>
<trkpt lat="66.354363" lon="14.102332"><ele>251</ele></trkpt>
<trkpt lat="66.35431" lon="14.102308"><ele>251</ele></trkpt>
<trkpt lat="66.354248" lon="14.102346"><ele>251</ele></trkpt>
<trkpt lat="66.354228" lon="14.102502"><ele>249</ele></trkpt>
<trkpt lat="66.354233" lon="14.102941"><ele>245</ele></trkpt>
<trkpt lat="66.35421" lon="14.102941"><ele>245</ele></trkpt>
<trkpt lat="66.354146" lon="14.102879"><ele>245</ele></trkpt>
<trkpt lat="66.353999" lon="14.102826"><ele>245</ele></trkpt>
<trkpt lat="66.35391" lon="14.102836"><ele>245</ele></trkpt>
<trkpt lat="66.353755" lon="14.102706"><ele>243</ele></trkpt>
<trkpt lat="66.353656" lon="14.102568"><ele>243</ele></trkpt>
<trkpt lat="66.353556" lon="14.102472"><ele>242</ele></trkpt>
<trkpt lat="66.35351" lon="14.102461"><ele>241</ele></trkpt>
<trkpt lat="66.353443" lon="14.10238"><ele>241</ele></trkpt>
<trkpt lat="66.353353" lon="14.102415"><ele>238</ele></trkpt>
<trkpt lat="66.353322" lon="14.102529"><ele>238</ele></trkpt>
<trkpt lat="66.353285" lon="14.10277"><ele>236</ele></trkpt>
<trkpt lat="66.353208" lon="14.103105"><ele>233</ele></trkpt>
<trkpt lat="66.353212" lon="14.103287"><ele>232</ele></trkpt>
<trkpt lat="66.353159" lon="14.10357"><ele>228</ele></trkpt>
<trkpt lat="66.353156" lon="14.103614"><ele>227</ele></trkpt>
<trkpt lat="66.353195" lon="14.103683"><ele>228</ele></trkpt>
<trkpt lat="66.353204" lon="14.103738"><ele>227</ele></trkpt>
<trkpt lat="66.353107" lon="14.104603"><ele>221</ele></trkpt>
<trkpt lat="66.353121" lon="14.104772"><ele>220</ele></trkpt>
<trkpt lat="66.353079" lon="14.105258"><ele>217</ele></trkpt>
<trkpt lat="66.353052" lon="14.105408"><ele>216</ele></trkpt>
<trkpt lat="66.352998" lon="14.105411"><ele>216</ele></trkpt>
<trkpt lat="66.352911" lon="14.105501"><ele>215</ele></trkpt>
<trkpt lat="66.352845" lon="14.105709"><ele>214</ele></trkpt>
<trkpt lat="66.352814" lon="14.106002"><ele>212</ele></trkpt>
<trkpt lat="66.352819" lon="14.106201"><ele>210</ele></trkpt>
<trkpt lat="66.352793" lon="14.106396"><ele>209</ele></trkpt>
<trkpt lat="66.35279" lon="14.106576"><ele>206</ele></trkpt>
<trkpt lat="66.352625" lon="14.107078"><ele>202</ele></trkpt>
<trkpt lat="66.352596" lon="14.107262"><ele>199</ele></trkpt>
<trkpt lat="66.352675" lon="14.107597"><ele>196</ele></trkpt>
<trkpt lat="66.352757" lon="14.10771"><ele>195</ele></trkpt>
<trkpt lat="66.352778" lon="14.107803"><ele>195</ele></trkpt>
<trkpt lat="66.352821" lon="14.108294"><ele>194</ele></trkpt>
<trkpt lat="66.352837" lon="14.108795"><ele>193</ele></trkpt>
<trkpt lat="66.352644" lon="14.109813"><ele>186</ele></trkpt>
<trkpt lat="66.352413" lon="14.110175"><ele>182</ele></trkpt>
<trkpt lat="66.35236" lon="14.110223"><ele>180</ele></trkpt>
<trkpt lat="66.352189" lon="14.11031"><ele>175</ele></trkpt>
<trkpt lat="66.352154" lon="14.110355"><ele>174</ele></trkpt>
<trkpt lat="66.352079" lon="14.110369"><ele>172</ele></trkpt>
<trkpt lat="66.352016" lon="14.110404"><ele>170</ele></trkpt>
<trkpt lat="66.351933" lon="14.110388"><ele>167</ele></trkpt>
<trkpt lat="66.35183" lon="14.110404"><ele>164</ele></trkpt>
<trkpt lat="66.351734" lon="14.110474"><ele>161</ele></trkpt>
<trkpt lat="66.351542" lon="14.110931"><ele>155</ele></trkpt>
<trkpt lat="66.351425" lon="14.111036"><ele>152</ele></trkpt>
<trkpt lat="66.351401" lon="14.111196"><ele>151</ele></trkpt>
<trkpt lat="66.351269" lon="14.111491"><ele>148</ele></trkpt>
<trkpt lat="66.351303" lon="14.112226"><ele>146</ele></trkpt>
<trkpt lat="66.351354" lon="14.112772"><ele>143</ele></trkpt>
<trkpt lat="66.351543" lon="14.113535"><ele>139</ele></trkpt>
<trkpt lat="66.351584" lon="14.113643"><ele>140</ele></trkpt>
<trkpt lat="66.351617" lon="14.113824"><ele>139</ele></trkpt>
<trkpt lat="66.351612" lon="14.114195"><ele>138</ele></trkpt>
<trkpt lat="66.351666" lon="14.114672"><ele>135</ele></trkpt>
<trkpt lat="66.351628" lon="14.114932"><ele>132</ele></trkpt>
<trkpt lat="66.351604" lon="14.114999"><ele>130</ele></trkpt>
<trkpt lat="66.351619" lon="14.115075"><ele>130</ele></trkpt>
<trkpt lat="66.351524" lon="14.115658"><ele>124</ele></trkpt>
<trkpt lat="66.351519" lon="14.115858"><ele>121</ele></trkpt>
<trkpt lat="66.351477" lon="14.116024"><ele>118</ele></trkpt>
<trkpt lat="66.351436" lon="14.116347"><ele>114</ele></trkpt>
<trkpt lat="66.351466" lon="14.116443"><ele>113</ele></trkpt>
<trkpt lat="66.351513" lon="14.11687"><ele>111</ele></trkpt>
<trkpt lat="66.351584" lon="14.117298"><ele>112</ele></trkpt>
<trkpt lat="66.351669" lon="14.117589"><ele>113</ele></trkpt>
<trkpt lat="66.35173" lon="14.117882"><ele>113</ele></trkpt>
<trkpt lat="66.351834" lon="14.118194"><ele>112</ele></trkpt>
<trkpt lat="66.35185" lon="14.118291"><ele>111</ele></trkpt>
<trkpt lat="66.351889" lon="14.118686"><ele>106</ele></trkpt>
<trkpt lat="66.35188" lon="14.118761"><ele>106</ele></trkpt>
<trkpt lat="66.351925" lon="14.119115"><ele>100</ele></trkpt>
<trkpt lat="66.351882" lon="14.119257"><ele>98</ele></trkpt>
<trkpt lat="66.351868" lon="14.119387"><ele>96</ele></trkpt>
<trkpt lat="66.351934" lon="14.119541"><ele>95</ele></trkpt>
<trkpt lat="66.351923" lon="14.119636"><ele>94</ele></trkpt>
<trkpt lat="66.351984" lon="14.120027"><ele>92</ele></trkpt>
<trkpt lat="66.351925" lon="14.120389"><ele>89</ele></trkpt>
<trkpt lat="66.351879" lon="14.120534"><ele>86</ele></trkpt>
<trkpt lat="66.351863" lon="14.120554"><ele>86</ele></trkpt>
<trkpt lat="66.351804" lon="14.120559"><ele>85</ele></trkpt>
<trkpt lat="66.351734" lon="14.120621"><ele>83</ele></trkpt>
<trkpt lat="66.351598" lon="14.120674"><ele>80</ele></trkpt>
<trkpt lat="66.351565" lon="14.120671"><ele>79</ele></trkpt>
<trkpt lat="66.351485" lon="14.120529"><ele>77</ele></trkpt>
<trkpt lat="66.351353" lon="14.120164"><ele>73</ele></trkpt>
<trkpt lat="66.35131" lon="14.120085"><ele>72</ele></trkpt>
<trkpt lat="66.351253" lon="14.120058"><ele>71</ele></trkpt>
<trkpt lat="66.351202" lon="14.120063"><ele>69</ele></trkpt>
<trkpt lat="66.351158" lon="14.120172"><ele>66</ele></trkpt>
<trkpt lat="66.3512" lon="14.120418"><ele>65</ele></trkpt>
<trkpt lat="66.351163" lon="14.120771"><ele>59</ele></trkpt>
<trkpt lat="66.351305" lon="14.121672"><ele>52</ele></trkpt>
<trkpt lat="66.351352" lon="14.121759"><ele>53</ele></trkpt>
<trkpt lat="66.351379" lon="14.121871"><ele>51</ele></trkpt>
<trkpt lat="66.35135" lon="14.122283"><ele>47</ele></trkpt>
<trkpt lat="66.351374" lon="14.122389"><ele>47</ele></trkpt>
<trkpt lat="66.351346" lon="14.122704"><ele>45</ele></trkpt>
<trkpt lat="66.351233" lon="14.123069"><ele>42</ele></trkpt>
<trkpt lat="66.35113" lon="14.123481"><ele>40</ele></trkpt>
<trkpt lat="66.351071" lon="14.123892"><ele>39</ele></trkpt>
<trkpt lat="66.351081" lon="14.124182"><ele>39</ele></trkpt>
<trkpt lat="66.35117" lon="14.124519"><ele>40</ele></trkpt>
<trkpt lat="66.351266" lon="14.1247"><ele>41</ele></trkpt>
<trkpt lat="66.35137" lon="14.124816"><ele>42</ele></trkpt>
</trkseg>
</trk>
</gpx>
